{
"type": "FeatureCollection",
"name": "IUP_leaflet",
"crs": { "type": "name", "properties": { "name": "urn:ogc:def:crs:OGC:1.3:CRS84" } },
"features": [
{ "type": "Feature", "properties": { "FID": 0 }, "geometry": { "type": "LineString", "coordinates": [ [ 104.111262159263774, -2.410108497458871, 0.0 ], [ 104.111936649676949, -2.410217191849244, 0.0 ], [ 104.112233806010991, -2.410265081672061, 0.0 ], [ 104.124664372467876, -2.412268304378046, 0.0 ], [ 104.124664631177566, -2.413141062641136, 0.0 ], [ 104.124665233994946, -2.415136422303382, 0.0 ], [ 104.124667295515678, -2.421929451868725, 0.0 ], [ 104.124668351025278, -2.425420393838735, 0.0 ], [ 104.124669188567324, -2.428214751110783, 0.0 ], [ 104.124669876890451, -2.430474074723708, 0.0 ], [ 104.124669879240088, -2.430484061645314, 0.0 ], [ 104.124670183073562, -2.431491526078292, 0.0 ], [ 104.124670587682459, -2.432832673384081, 0.0 ], [ 104.124670769729661, -2.433415223205367, 0.0 ], [ 104.124670772486027, -2.433424567447997, 0.0 ], [ 104.12467099271889, -2.434165613810464, 0.0 ], [ 104.124671442670277, -2.435673154168917, 0.0 ], [ 104.124673178543716, -2.441392428778189, 0.0 ], [ 104.124673318398905, -2.441854927878429, 0.0 ], [ 104.124673553247405, -2.442631896809809, 0.0 ], [ 104.124674090141681, -2.444427084907184, 0.0 ], [ 104.124615619859867, -2.444416542385104, 0.0 ] ] } }
]
}
