{
"type": "FeatureCollection",
"name": "jalan2_leaflet",
"crs": { "type": "name", "properties": { "name": "urn:ogc:def:crs:OGC:1.3:CRS84" } },
"features": [
{ "type": "Feature", "properties": { "FID": 0 }, "geometry": { "type": "LineString", "coordinates": [ [ 104.121281397700955, -2.421126039427596, 28.45 ], [ 104.12106156145316, -2.420615505028124, 28.45 ], [ 104.120971648221882, -2.420579262091537, 28.45 ], [ 104.120575962450587, -2.420524727634331, 28.45 ], [ 104.119946383478151, -2.420560501283855, 28.45 ], [ 104.119562123596026, -2.420642577932453, 28.45 ], [ 104.118757623061114, -2.420865237395065, 28.45 ], [ 104.118353049119094, -2.421129840027988, 28.45 ], [ 104.11816380198195, -2.42130183670124, 28.45 ], [ 104.117884052514441, -2.421639960073986, 28.45 ], [ 104.117436795284718, -2.421785711637096, 28.45 ], [ 104.11651529663456, -2.421984992960188, 28.45 ], [ 104.11594651802119, -2.422440119067994, 28.45 ], [ 104.11586905094083, -2.422684454178484, 28.45 ], [ 104.115954217053329, -2.423344556824615, 28.45 ], [ 104.116076202091079, -2.423580098466179, 28.45 ], [ 104.118048824293595, -2.425484784653742, 28.45 ], [ 104.119633803982921, -2.426789215709271, 28.45 ], [ 104.121610423708987, -2.427924928341906, 28.45 ], [ 104.122012286603351, -2.428180268135231, 28.45 ], [ 104.122414174733933, -2.428457459611433, 28.45 ], [ 104.122942632447661, -2.428728132982068, 28.45 ], [ 104.123525901717429, -2.428904726711707, 28.45 ], [ 104.123708902017796, -2.429077568173796, 28.45 ], [ 104.123778415426528, -2.429267992269037, 28.45 ], [ 104.12377041040132, -2.429479119719191, 28.45 ], [ 104.123664082337456, -2.429724202052921, 28.45 ], [ 104.123552009580848, -2.429825450890867, 28.45 ], [ 104.123151965192548, -2.430060912092536, 28.45 ], [ 104.122773062175227, -2.430188599054539, 28.45 ], [ 104.122266611167447, -2.430357094784428, 28.45 ], [ 104.121805795092826, -2.430375444117995, 28.45 ], [ 104.121255556978198, -2.430619098076552, 28.45 ], [ 104.120839877467461, -2.430618826043926, 28.45 ], [ 104.120516879863828, -2.430579892023442, 28.45 ], [ 104.120044185485426, -2.43028708960765, 28.45 ], [ 104.119384345920395, -2.429931574628826, 28.45 ], [ 104.118714416499486, -2.429703516710193, 28.45 ], [ 104.118125825951211, -2.429555171184789, 28.45 ], [ 104.117501700226796, -2.429407711737477, 28.45 ], [ 104.11679645627926, -2.42897388971418, 28.45 ], [ 104.115933972088442, -2.42855469036653, 28.45 ], [ 104.115203048738181, -2.428329268130018, 28.45 ], [ 104.114401277627209, -2.428208598835247, 28.45 ], [ 104.113706638726839, -2.428259795451138, 28.45 ], [ 104.113032590869352, -2.428358972757009, 28.45 ], [ 104.11223945780344, -2.428428637974779, 28.45 ], [ 104.111808144174432, -2.428605891439641, 28.45 ], [ 104.111382773799875, -2.429312328065255, 28.45 ], [ 104.111038839432737, -2.430032557084242, 28.45 ], [ 104.110731121858592, -2.430824549506162, 28.45 ], [ 104.110523349889618, -2.431889094335262, 28.45 ], [ 104.110164743514289, -2.433053598047994, 28.45 ], [ 104.109744013614559, -2.433812036421197, 28.45 ], [ 104.109260682494281, -2.433973613580839, 28.45 ], [ 104.108533664783081, -2.433963778179285, 28.45 ], [ 104.107310860806408, -2.433962964874414, 28.45 ], [ 104.106418921718358, -2.433953308953131, 28.45 ], [ 104.1060132855267, -2.433972014653647, 28.45 ], [ 104.105986575239754, -2.433988109879989, 28.45 ], [ 104.105623675350301, -2.433988595152866, 28.45 ], [ 104.105112499134478, -2.433794997730052, 28.45 ], [ 104.104736211991991, -2.433593287601365, 28.45 ], [ 104.104817890849674, -2.433483024080539, 28.45 ] ] } },
{ "type": "Feature", "properties": { "FID": 1 }, "geometry": { "type": "LineString", "coordinates": [ [ 104.085689629529995, -2.422821597900352, 28.45 ], [ 104.085637483362746, -2.422837382380922, 28.45 ], [ 104.085614733231708, -2.422927746288108, 28.45 ], [ 104.085586441093213, -2.423106583545689, 28.45 ], [ 104.08552231248855, -2.423405816617078, 28.45 ], [ 104.0853943633158, -2.42396672695092, 28.45 ], [ 104.085349474352384, -2.424215629487545, 28.45 ], [ 104.085334823378133, -2.4247532405951, 28.45 ], [ 104.085347084053012, -2.424854865817199, 28.45 ], [ 104.085466169605397, -2.424974724469689, 28.45 ], [ 104.085590457788214, -2.425034316594417, 28.45 ], [ 104.085906897366471, -2.425152605226688, 28.45 ], [ 104.086205045998355, -2.425206689229038, 28.45 ], [ 104.086642749737791, -2.425342117172349, 28.45 ], [ 104.087335147864096, -2.425619821730069, 28.45 ], [ 104.08754720371779, -2.425735299244665, 28.45 ], [ 104.087844192778761, -2.425882636341901, 28.45 ], [ 104.088236773861269, -2.426103214191248, 28.45 ], [ 104.088629355100636, -2.426323791973683, 28.45 ], [ 104.08902193649682, -2.426544369689142, 28.45 ], [ 104.08941451804985, -2.426764947337559, 28.45 ], [ 104.089807099759724, -2.426985524918987, 28.45 ], [ 104.090199271854672, -2.427205872197578, 28.45 ], [ 104.090590335471148, -2.427420240801226, 28.45 ], [ 104.090997217534053, -2.427599867303677, 28.45 ], [ 104.091411177590373, -2.427766396821413, 28.45 ], [ 104.09183091130204, -2.427910165114902, 28.45 ], [ 104.092263790059107, -2.428017145003055, 28.45 ], [ 104.092700483224704, -2.428125067423899, 28.45 ], [ 104.093137176509373, -2.428232989728919, 28.45 ], [ 104.093573869913115, -2.428340911918031, 28.45 ], [ 104.094010563435873, -2.428448833991232, 28.45 ], [ 104.094323314451259, -2.428522124996698, 28.45 ], [ 104.094458200995859, -2.428549353921089, 28.45 ], [ 104.094925876397355, -2.428540622874124, 28.45 ], [ 104.09528567627541, -2.428459450908626, 28.45 ], [ 104.0958784115779, -2.428257710287065, 28.45 ] ] } },
{ "type": "Feature", "properties": { "FID": 2 }, "geometry": { "type": "LineString", "coordinates": [ [ 104.085635128380446, -2.422649160234175, 28.45 ], [ 104.085488117978599, -2.422693659820017, 28.45 ], [ 104.085438372256618, -2.422891250607517, 28.45 ], [ 104.085409574806903, -2.423073281847828, 28.45 ], [ 104.085346730104462, -2.423366523888467, 28.45 ], [ 104.085218119758594, -2.423930332415145, 28.45 ], [ 104.085170045456749, -2.424196896991129, 28.45 ], [ 104.085154653223441, -2.424761705570989, 28.45 ], [ 104.085175996157389, -2.424938611241835, 28.45 ], [ 104.085360823486241, -2.425124638498432, 28.45 ], [ 104.085520288744661, -2.425201096894468, 28.45 ], [ 104.085859230385608, -2.425327797067066, 28.45 ], [ 104.086162487920674, -2.425382807840374, 28.45 ], [ 104.086582897258737, -2.425512884823727, 28.45 ], [ 104.087258756831375, -2.425783956199967, 28.45 ], [ 104.087461565290212, -2.425894397950953, 28.45 ], [ 104.087756472601015, -2.426040583482546, 28.45 ], [ 104.088149053695645, -2.426261161368874, 28.45 ], [ 104.08854163494712, -2.426481739188286, 28.45 ], [ 104.088934216355455, -2.426702316940738, 28.45 ], [ 104.08932679792062, -2.426922894626194, 28.45 ], [ 104.089719379642659, -2.427143472244626, 28.45 ], [ 104.090112371293301, -2.427364280031842, 28.45 ], [ 104.090511006894118, -2.42758279938459, 28.45 ], [ 104.090927654294106, -2.427766737024642, 28.45 ], [ 104.091512615313448, -2.427959375744239, 28.45 ], [ 104.091620514712133, -2.427995632686249, 28.45 ], [ 104.092220871001246, -2.42819283949203, 28.45 ], [ 104.09266063892791, -2.428320029508216, 28.45 ], [ 104.093204920408098, -2.428482331321843, 28.45 ], [ 104.093312819938916, -2.428518588160456, 28.45 ], [ 104.093702242871004, -2.428604691232606, 28.45 ], [ 104.093810142438471, -2.428640948039912, 28.45 ], [ 104.094288355646498, -2.428684929743384, 28.45 ], [ 104.094435064431863, -2.428685028590786, 28.45 ], [ 104.094902739877497, -2.428676297569532, 28.45 ], [ 104.095262539793538, -2.428595125624433, 28.45 ], [ 104.095924281244052, -2.428369898432359, 28.45 ] ] } },
{ "type": "Feature", "properties": { "FID": 3 }, "geometry": { "type": "LineString", "coordinates": [ [ 104.095220000179026, -2.428604722695605, 28.45 ], [ 104.095937507582633, -2.428700181757874, 28.45 ], [ 104.096679584888378, -2.428934856030294, 28.45 ], [ 104.097584663490622, -2.429651411301274, 28.45 ], [ 104.098583196531081, -2.430230305274615, 28.45 ], [ 104.100452556659675, -2.431355240794731, 28.45 ], [ 104.101789896781071, -2.432136045195567, 28.45 ], [ 104.103342489526739, -2.432725067612267, 28.45 ], [ 104.103587489474634, -2.432949613052273, 28.45 ], [ 104.103902045588057, -2.433197931239637, 28.45 ], [ 104.104618085015659, -2.433545570714324, 28.45 ], [ 104.104699470371457, -2.433422958609468, 28.45 ] ] } },
{ "type": "Feature", "properties": { "FID": 4 }, "geometry": { "type": "LineString", "coordinates": [ [ 104.120926212078786, -2.421225282808434, 28.45 ], [ 104.12088143188582, -2.421013415286294, 28.45 ], [ 104.120602756827878, -2.420814219751158, 28.45 ], [ 104.120368985971169, -2.42071456038006, 28.45 ], [ 104.119937296467185, -2.42070523265101, 28.45 ], [ 104.119577532879418, -2.42073213606558, 28.45 ], [ 104.11879494503826, -2.420948730793321, 28.45 ], [ 104.118408054366199, -2.421201768067495, 28.45 ], [ 104.118219076570682, -2.421373519948606, 28.45 ], [ 104.117931057382151, -2.421717082430468, 28.45 ], [ 104.117472281530922, -2.421870565425582, 28.45 ], [ 104.116554800002461, -2.422068978006818, 28.45 ], [ 104.116023898858032, -2.422493795265373, 28.45 ], [ 104.115960814222476, -2.422692767446178, 28.45 ], [ 104.116041352332971, -2.423316999198712, 28.45 ], [ 104.116149141317806, -2.423525129567278, 28.45 ], [ 104.118108536106178, -2.425417043724484, 28.45 ], [ 104.119681593740694, -2.426711662897367, 28.45 ], [ 104.120826499091592, -2.427371079415704, 28.45 ], [ 104.121658456678759, -2.427848449301354, 28.45 ], [ 104.122061752013948, -2.428104699236333, 28.45 ], [ 104.122460206451166, -2.428379522398248, 28.45 ], [ 104.122976267523825, -2.428643846254619, 28.45 ], [ 104.12357206091842, -2.42882423183292, 28.45 ], [ 104.123785989038964, -2.429026284213204, 28.45 ], [ 104.123868964251344, -2.429253585347898, 28.45 ], [ 104.123859634950335, -2.429499640154458, 28.45 ], [ 104.123738704778603, -2.429778379848354, 28.45 ], [ 104.123605314270392, -2.429898887584004, 28.45 ], [ 104.123189358814997, -2.430143713836663, 28.45 ], [ 104.122801470024967, -2.430274428917012, 28.45 ], [ 104.122282827432286, -2.430446980759289, 28.45 ], [ 104.121826410116299, -2.430465154931749, 28.45 ], [ 104.121274450290827, -2.430709571267734, 28.45 ], [ 104.120834478395636, -2.430709283328994, 28.45 ], [ 104.120486550504438, -2.430667344209838, 28.45 ], [ 104.119999330253606, -2.430365543976757, 28.45 ], [ 104.119348450780194, -2.430014856583846, 28.45 ], [ 104.118689028605843, -2.429790375531317, 28.45 ], [ 104.118104611528864, -2.429643081851732, 28.45 ], [ 104.117467086606581, -2.429492456614842, 28.45 ], [ 104.116753324109126, -2.429053394488645, 28.45 ], [ 104.115901032842203, -2.428639149252972, 28.45 ], [ 104.115183101057667, -2.428417733693195, 28.45 ], [ 104.114397867554672, -2.428299553346418, 28.45 ], [ 104.113716446692607, -2.428349775741396, 28.45 ], [ 104.113043020686959, -2.428448861531622, 28.45 ], [ 104.112260858644561, -2.428517563089956, 28.45 ], [ 104.111869675072342, -2.428678324625083, 28.45 ], [ 104.111461958259881, -2.429355443008626, 28.45 ], [ 104.111121375038039, -2.430068654501186, 28.45 ], [ 104.110817822254461, -2.430849927842123, 28.45 ], [ 104.110610678861278, -2.431911252393875, 28.45 ], [ 104.110247868868328, -2.433089406733334, 28.45 ], [ 104.109805530956734, -2.43388679732245, 28.45 ], [ 104.109272621730454, -2.434099584561705, 28.45 ], [ 104.108533575633089, -2.434099468890663, 28.45 ], [ 104.107310090209893, -2.434098655086904, 28.45 ], [ 104.106421286945292, -2.434089033081857, 28.45 ], [ 104.106053440515353, -2.43410599611777, 28.45 ], [ 104.105996429102504, -2.434140350352035, 28.45 ], [ 104.105592037436082, -2.434107344233368, 28.45 ], [ 104.105077472400481, -2.433910371093799, 28.45 ], [ 104.104675522507122, -2.433721488172575, 28.45 ], [ 104.103830383518002, -2.433313852009773, 28.45 ], [ 104.103497790044116, -2.433051294667841, 28.45 ], [ 104.103268661420913, -2.432820526123962, 28.45 ], [ 104.101743913372616, -2.432234713021292, 28.45 ], [ 104.100397759012836, -2.43144876237968, 28.45 ], [ 104.098528540561105, -2.430323912027311, 28.45 ], [ 104.097524026857641, -2.429741550746725, 28.45 ], [ 104.09662836236086, -2.429032448622155, 28.45 ], [ 104.095914071417951, -2.428806561472936, 28.45 ], [ 104.094914691599897, -2.428673601226792, 28.45 ] ] } }
]
}
