{
"type": "FeatureCollection",
"name": "Jalan1_leaflet",
"crs": { "type": "name", "properties": { "name": "urn:ogc:def:crs:OGC:1.3:CRS84" } },
"features": [
{ "type": "Feature", "properties": { "FID": 0, "Id": 0 }, "geometry": { "type": "LineString", "coordinates": [ [ 104.101196784491705, -2.437779967869716, 0.0 ], [ 104.101200265095244, -2.437772821597101, 0.0 ], [ 104.101231735808, -2.4375476859602, 0.0 ], [ 104.101188693371199, -2.437341343194294, 0.0 ], [ 104.101119861832032, -2.437171246381395, 0.0 ], [ 104.1009469299551, -2.436834906156785, 0.0 ], [ 104.100847216253896, -2.436504489794541, 0.0 ], [ 104.100733773267052, -2.436331657138853, 0.0 ], [ 104.100294602658295, -2.435958784282365, 0.0 ], [ 104.099692601642232, -2.435454414962064, 0.0 ], [ 104.098945168567596, -2.434743834228157, 0.0 ], [ 104.09873694731634, -2.434516629379845, 0.0 ], [ 104.098552228692498, -2.434274073668378, 0.0 ], [ 104.09832947889322, -2.43410383267105, 0.0 ], [ 104.098026380397556, -2.433971403079156, 0.0 ], [ 104.097645311454926, -2.433790595171429, 0.0 ], [ 104.097395186591726, -2.433572212485859, 0.0 ], [ 104.0971706012742, -2.433284483606973, 0.0 ], [ 104.096773791210595, -2.432908520435905, 0.0 ], [ 104.096421623051043, -2.432610026080351, 0.0 ], [ 104.096151505047217, -2.432406709594142, 0.0 ], [ 104.095909474539212, -2.432220999613368, 0.0 ], [ 104.095745025538264, -2.432076695617766, 0.0 ], [ 104.095584107020585, -2.431821666562488, 0.0 ], [ 104.095368334642316, -2.431423680882738, 0.0 ], [ 104.095226977469309, -2.431132775218195, 0.0 ], [ 104.095105935364856, -2.430838175876108, 0.0 ], [ 104.094986952167815, -2.430448937842957, 0.0 ], [ 104.094946675810206, -2.430190023545074, 0.0 ], [ 104.094953484692581, -2.429935971530862, 0.0 ], [ 104.094933091104267, -2.42972880075588, 0.0 ], [ 104.094845748122779, -2.429615360595576, 0.0 ], [ 104.094332363895575, -2.429325002235637, 0.0 ] ] } },
{ "type": "Feature", "properties": { "FID": 1, "Id": 0 }, "geometry": { "type": "LineString", "coordinates": [ [ 104.101155739545234, -2.437864240134717, 0.0 ], [ 104.101581078577496, -2.437944868337782, 0.0 ], [ 104.102290687319027, -2.437960443864173, 0.0 ], [ 104.102854321659123, -2.437769932165353, 0.0 ], [ 104.104007480301888, -2.437781122102025, 0.0 ], [ 104.105818083276205, -2.437780975561373, 0.0 ], [ 104.108603758596999, -2.437833450532731, 0.0 ], [ 104.109056459345581, -2.437817595898449, 0.0 ], [ 104.109467073250912, -2.43782550845659, 0.0 ] ] } },
{ "type": "Feature", "properties": { "FID": 2, "Id": 0 }, "geometry": { "type": "LineString", "coordinates": [ [ 104.101196784491705, -2.437779967869716, 0.0 ], [ 104.101590451349495, -2.437854592213135, 0.0 ], [ 104.10227693636206, -2.437869660171302, 0.0 ], [ 104.102840036592667, -2.437679328982537, 0.0 ], [ 104.104007910523407, -2.43769066169013, 0.0 ], [ 104.105818921794807, -2.437690515070694, 0.0 ], [ 104.108603035234893, -2.43774296055482, 0.0 ], [ 104.10905575535898, -2.437727105229931, 0.0 ], [ 104.109468795998453, -2.437735064541632, 0.0 ] ] } },
{ "type": "Feature", "properties": { "FID": 3, "Id": 0 }, "geometry": { "type": "LineString", "coordinates": [ [ 104.110662453163712, -2.406904098155961, 0.0 ], [ 104.110709511012629, -2.406021160688581, 0.0 ], [ 104.110929377065929, -2.402698623199886, 0.0 ], [ 104.110958816349779, -2.401663999180117, 0.0 ], [ 104.110801806806705, -2.401136746303839, 0.0 ], [ 104.110715182862336, -2.400605776320806, 0.0 ], [ 104.110463539442634, -2.400224401695105, 0.0 ], [ 104.110263520604988, -2.399868064151302, 0.0 ], [ 104.110317650290867, -2.399467947081323, 0.0 ], [ 104.110603169817054, -2.398405149225574, 0.0 ], [ 104.110755149464964, -2.397891803122552, 0.0 ], [ 104.111001429962286, -2.397455292456755, 0.0 ] ] } },
{ "type": "Feature", "properties": { "FID": 4, "Id": 0 }, "geometry": { "type": "LineString", "coordinates": [ [ 104.108213454924538, -2.446787864705199, 0.0 ], [ 104.108229183726166, -2.446546658188182, 0.0 ], [ 104.10838246093698, -2.444673070480219, 0.0 ], [ 104.108522719264741, -2.442613867004316, 0.0 ], [ 104.108637692765299, -2.440666627508088, 0.0 ], [ 104.108644149568889, -2.439670815396164, 0.0 ], [ 104.109127710925549, -2.438927949963789, 0.0 ], [ 104.109402585344895, -2.43831491904814, 0.0 ], [ 104.109467775523513, -2.437789730472839, 0.0 ], [ 104.109426738235612, -2.437309059242208, 0.0 ], [ 104.109163372657576, -2.436682562564153, 0.0 ], [ 104.108892469366467, -2.436194601192282, 0.0 ], [ 104.108905518048331, -2.435608045762785, 0.0 ], [ 104.109004864480809, -2.433935017270692, 0.0 ], [ 104.109207890035648, -2.431410841929436, 0.0 ], [ 104.109357782857771, -2.428838732121752, 0.0 ], [ 104.109513528182802, -2.426665321683415, 0.0 ], [ 104.109603329363267, -2.425084854380183, 0.0 ], [ 104.109724592296246, -2.423417429926342, 0.0 ], [ 104.109764911878855, -2.421763113868851, 0.0 ], [ 104.109866863043337, -2.419765468193443, 0.0 ], [ 104.110030477564052, -2.417388145690383, 0.0 ], [ 104.110138180620567, -2.415419595512089, 0.0 ], [ 104.110207272608818, -2.41435032457779, 0.0 ], [ 104.110206910575727, -2.413524120713046, 0.0 ], [ 104.110117719095967, -2.413195409702792, 0.0 ], [ 104.10988529196419, -2.412775899653751, 0.0 ], [ 104.109761360285418, -2.412430403466841, 0.0 ], [ 104.109740919988923, -2.412178213083052, 0.0 ], [ 104.109779355223097, -2.411657619674814, 0.0 ], [ 104.109832440997323, -2.411192198742186, 0.0 ], [ 104.109906259785333, -2.410929884462557, 0.0 ], [ 104.110098498258907, -2.410665341248079, 0.0 ], [ 104.110394528628149, -2.410252664573356, 0.0 ], [ 104.110503685549901, -2.410027851230633, 0.0 ], [ 104.110535318652467, -2.409746485277755, 0.0 ], [ 104.110561030316774, -2.408860820556439, 0.0 ], [ 104.110610829951611, -2.407872688801383, 0.0 ], [ 104.110653941895762, -2.407063792913088, 0.0 ] ] } },
{ "type": "Feature", "properties": { "FID": 5, "Id": 0 }, "geometry": { "type": "LineString", "coordinates": [ [ 104.099194410327499, -2.406896529881356, 0.0 ], [ 104.099251239261847, -2.406789804312418, 0.0 ], [ 104.099637663302744, -2.406025730841336, 0.0 ], [ 104.100018842489206, -2.405313247815933, 0.0 ], [ 104.100334936884153, -2.404763773380457, 0.0 ], [ 104.100682398244288, -2.404126488739192, 0.0 ], [ 104.101180803089562, -2.403411230136693, 0.0 ], [ 104.101627924826118, -2.40285539793629, 0.0 ], [ 104.102127628658906, -2.402267323541951, 0.0 ], [ 104.102558665254946, -2.401808730010314, 0.0 ], [ 104.103201766006322, -2.401145164914606, 0.0 ], [ 104.103520459263507, -2.400789412100664, 0.0 ], [ 104.104155616381078, -2.400097112052447, 0.0 ], [ 104.104816878849149, -2.39937881065023, 0.0 ], [ 104.105565577030461, -2.39847804323249, 0.0 ], [ 104.106772073741311, -2.397084197602521, 0.0 ], [ 104.107461131939317, -2.396190645775802, 0.0 ] ] } },
{ "type": "Feature", "properties": { "FID": 6, "Id": 0 }, "geometry": { "type": "LineString", "coordinates": [ [ 104.084263728035481, -2.41609182300036, 0.0 ], [ 104.084554967241004, -2.41620835290976, 0.0 ], [ 104.085026463154904, -2.416367338045185, 0.0 ], [ 104.085816299521866, -2.416552089923115, 0.0 ], [ 104.086262692187759, -2.416651623108932, 0.0 ], [ 104.086687126157599, -2.416851684155571, 0.0 ], [ 104.087105956328259, -2.417164537683196, 0.0 ], [ 104.087271420639482, -2.417279144507321, 0.0 ], [ 104.087435491625257, -2.417341204763504, 0.0 ], [ 104.087592211759485, -2.41737161456141, 0.0 ], [ 104.087971712299449, -2.417378181193125, 0.0 ], [ 104.08877031540446, -2.417367862728299, 0.0 ], [ 104.089699725872578, -2.417308140553807, 0.0 ], [ 104.090073225618681, -2.417285427098439, 0.0 ], [ 104.090453019849647, -2.417272838849704, 0.0 ], [ 104.090786596667527, -2.417271999537904, 0.0 ], [ 104.091108283574584, -2.417286398990842, 0.0 ], [ 104.09137824851345, -2.41727546635652, 0.0 ], [ 104.091571432248983, -2.417254856314063, 0.0 ], [ 104.091675188385437, -2.417210170627396, 0.0 ], [ 104.091755213199363, -2.417129407371502, 0.0 ], [ 104.092118525238646, -2.416682739694921, 0.0 ], [ 104.092325262995089, -2.416413651693528, 0.0 ], [ 104.092548227908182, -2.416208652623957, 0.0 ], [ 104.092709743158508, -2.416035766876362, 0.0 ], [ 104.092904324202365, -2.415767712915558, 0.0 ], [ 104.093138707885345, -2.415451710700276, 0.0 ], [ 104.09354881432435, -2.41492905790616, 0.0 ], [ 104.094103837782967, -2.414251420735252, 0.0 ], [ 104.094668526082344, -2.413534151940827, 0.0 ], [ 104.095112820026273, -2.412976752792316, 0.0 ], [ 104.095538192137695, -2.412446578700274, 0.0 ], [ 104.095869100628178, -2.411996976630791, 0.0 ], [ 104.096190381050917, -2.411366231310495, 0.0 ], [ 104.096557951526563, -2.410600500044022, 0.0 ], [ 104.096720424278629, -2.41028889236253, 0.0 ], [ 104.096859674103342, -2.409987380736626, 0.0 ], [ 104.096914034774827, -2.409661727380132, 0.0 ], [ 104.096928387883693, -2.409303540094871, 0.0 ], [ 104.096991582782351, -2.408892014027756, 0.0 ], [ 104.097096809191228, -2.408663976228466, 0.0 ], [ 104.097341993645728, -2.408500771681066, 0.0 ], [ 104.097710350137163, -2.408276204378273, 0.0 ], [ 104.098153927114367, -2.408079549114056, 0.0 ], [ 104.09852243100498, -2.407859383994698, 0.0 ], [ 104.09877404988174, -2.407634231399752, 0.0 ], [ 104.098969318850621, -2.407319254701557, 0.0 ], [ 104.099109403841851, -2.407056173253554, 0.0 ] ] } },
{ "type": "Feature", "properties": { "FID": 7, "Id": 0 }, "geometry": { "type": "LineString", "coordinates": [ [ 104.084230485610362, -2.416175876604003, 0.0 ], [ 104.084524029425921, -2.416293328637032, 0.0 ], [ 104.085001929108188, -2.416454473091916, 0.0 ], [ 104.085796381162496, -2.41664030465481, 0.0 ], [ 104.086233526574347, -2.416737775972492, 0.0 ], [ 104.086640769681324, -2.416929733953691, 0.0 ], [ 104.087053625628855, -2.417238124935919, 0.0 ], [ 104.087229470579032, -2.41735992178989, 0.0 ], [ 104.087410970517254, -2.417428574596104, 0.0 ], [ 104.087582850262834, -2.41746192595233, 0.0 ], [ 104.087971516375745, -2.417468651189922, 0.0 ], [ 104.088773762181489, -2.417458285678986, 0.0 ], [ 104.089705306638976, -2.417398426402846, 0.0 ], [ 104.090077421209955, -2.417375797193081, 0.0 ], [ 104.090454613714215, -2.417363295187849, 0.0 ], [ 104.09078470889834, -2.417362464644608, 0.0 ], [ 104.091108093033029, -2.417376940076776, 0.0 ], [ 104.09138480757143, -2.417365734114424, 0.0 ], [ 104.091594384195886, -2.417343375181038, 0.0 ], [ 104.091726596808925, -2.417286433863501, 0.0 ], [ 104.091822028224996, -2.417190121838746, 0.0 ], [ 104.092188924499766, -2.416739047574176, 0.0 ], [ 104.092391675827898, -2.416475148264992, 0.0 ], [ 104.092600389686652, -2.416283251942788, 0.0 ] ] } },
{ "type": "Feature", "properties": { "FID": 8, "Id": 0 }, "geometry": { "type": "LineString", "coordinates": [ [ 104.09929639625993, -2.406896597613738, 0.0 ], [ 104.099330968106742, -2.40683167117187, 0.0 ], [ 104.099717351926259, -2.406067677165289, 0.0 ], [ 104.100097380844986, -2.405357344112729, 0.0 ], [ 104.100413296410508, -2.40480818050136, 0.0 ], [ 104.100758879285436, -2.404174341176432, 0.0 ], [ 104.101252669572375, -2.403465704872422, 0.0 ], [ 104.101697078209185, -2.402913245400418, 0.0 ], [ 104.102194530152431, -2.402327821118841, 0.0 ], [ 104.102623544889767, -2.401871378699175, 0.0 ], [ 104.103267397172743, -2.401207038146948, 0.0 ], [ 104.103586914386398, -2.400850365555565, 0.0 ], [ 104.104221657388067, -2.40015851686712, 0.0 ], [ 104.104884415678086, -2.399438590602455, 0.0 ], [ 104.105633997282567, -2.398536760306387, 0.0 ], [ 104.106841575477347, -2.397141665218644, 0.0 ], [ 104.107532195133516, -2.396246088506566, 0.0 ] ] } },
{ "type": "Feature", "properties": { "FID": 9, "Id": 0 }, "geometry": { "type": "LineString", "coordinates": [ [ 104.092665556665906, -2.416215163858081, 0.0 ], [ 104.092779095415978, -2.416093632092276, 0.0 ], [ 104.09297668623492, -2.415821431869371, 0.0 ], [ 104.093210062076835, -2.415506788439748, 0.0 ], [ 104.093618827200885, -2.414985845042895, 0.0 ], [ 104.09417380438255, -2.414308264351595, 0.0 ], [ 104.094738864200394, -2.413590523630519, 0.0 ], [ 104.095182898338479, -2.413033450409772, 0.0 ], [ 104.095609358844413, -2.412501919750115, 0.0 ], [ 104.096014756212526, -2.411878934386541, 0.0 ], [ 104.096270907786121, -2.41140652685496, 0.0 ], [ 104.096638291629986, -2.410641184313506, 0.0 ], [ 104.096801076519611, -2.410328977953969, 0.0 ], [ 104.096946356352518, -2.410014409776931, 0.0 ], [ 104.097003668457774, -2.409671075423105, 0.0 ], [ 104.097018045358297, -2.409312293845877, 0.0 ], [ 104.097078520249724, -2.408918480352698, 0.0 ], [ 104.097167669429055, -2.40872528375255, 0.0 ], [ 104.097390137164297, -2.408577200358733, 0.0 ], [ 104.097751969767728, -2.408356610329606, 0.0 ], [ 104.098195178635521, -2.408160118270202, 0.0 ], [ 104.098575769417906, -2.407932731762365, 0.0 ], [ 104.098843507873369, -2.407693155109454, 0.0 ], [ 104.099047200366456, -2.407364590911607, 0.0 ], [ 104.099211389783747, -2.407056240996819, 0.0 ] ] } },
{ "type": "Feature", "properties": { "FID": 10, "Id": 0 }, "geometry": { "type": "LineString", "coordinates": [ [ 104.096591553888729, -2.441199896587715, 0.0 ], [ 104.096904332455722, -2.440838832968956, 0.0 ], [ 104.097235702563125, -2.440544744723243, 0.0 ], [ 104.097713446452104, -2.440198684663306, 0.0 ], [ 104.098292648408361, -2.439858651095513, 0.0 ], [ 104.098787277556085, -2.439560056850004, 0.0 ], [ 104.099004081521159, -2.439410661104634, 0.0 ], [ 104.099260925643563, -2.439219867033885, 0.0 ], [ 104.099450265969466, -2.439100099934226, 0.0 ], [ 104.099729787643199, -2.43896969158816, 0.0 ], [ 104.100014446935532, -2.438868911223911, 0.0 ], [ 104.100389562286153, -2.438664465674611, 0.0 ], [ 104.100669265636483, -2.438469205622853, 0.0 ], [ 104.100900995997264, -2.438240303686209, 0.0 ], [ 104.101085045250883, -2.438009387520831, 0.0 ], [ 104.101155739545234, -2.437864240134717, 0.0 ] ] } },
{ "type": "Feature", "properties": { "FID": 11, "Id": 0 }, "geometry": { "type": "LineString", "coordinates": [ [ 104.096523745188904, -2.441140470939179, 0.0 ], [ 104.096840401493097, -2.440774930965966, 0.0 ], [ 104.097179533462437, -2.440473954132172, 0.0 ], [ 104.097664385939098, -2.440122744867997, 0.0 ], [ 104.098246836932205, -2.439780803871152, 0.0 ], [ 104.098738676823032, -2.439483893416793, 0.0 ], [ 104.09895193436337, -2.439336941446516, 0.0 ], [ 104.099210199805796, -2.43914509155885, 0.0 ], [ 104.099407230699285, -2.439020459792229, 0.0 ], [ 104.099695857153733, -2.438885803685746, 0.0 ], [ 104.099977864088174, -2.438785962353231, 0.0 ], [ 104.100342354903816, -2.4385873073855, 0.0 ], [ 104.100611703313092, -2.438399276083486, 0.0 ], [ 104.100834166170117, -2.438179528536139, 0.0 ], [ 104.1010086535196, -2.437960609157956, 0.0 ], [ 104.101113197915026, -2.437745961766585, 0.0 ], [ 104.101140483240712, -2.437550767699139, 0.0 ], [ 104.101102336733092, -2.437367895651654, 0.0 ], [ 104.10103809948599, -2.437209152245649, 0.0 ], [ 104.100863261303587, -2.43686910434207, 0.0 ], [ 104.100764954982907, -2.436543351472175, 0.0 ], [ 104.100665857502747, -2.436392374465344, 0.0 ], [ 104.100236814694767, -2.436028100474075, 0.0 ], [ 104.099632872703879, -2.435522104925518, 0.0 ], [ 104.09888113897145, -2.434807435522498, 0.0 ], [ 104.098668041144734, -2.434574909479601, 0.0 ], [ 104.098488185669638, -2.434338739591669, 0.0 ], [ 104.098283700218659, -2.434182457477369, 0.0 ], [ 104.09798926951153, -2.434053814999009, 0.0 ], [ 104.097595722525682, -2.433867086549563, 0.0 ], [ 104.097329747539817, -2.433634865189445, 0.0 ], [ 104.09710402506839, -2.433345679413045, 0.0 ], [ 104.096713934308951, -2.432976082509496, 0.0 ], [ 104.096365656153935, -2.43268088526273, 0.0 ], [ 104.096097286770132, -2.432478884939576, 0.0 ], [ 104.095852576451719, -2.43229111872693, 0.0 ], [ 104.095676076680391, -2.432136240167938, 0.0 ], [ 104.095506574703549, -2.431867607728935, 0.0 ], [ 104.095288414010113, -2.431465216819369, 0.0 ], [ 104.095144936492304, -2.431169947551896, 0.0 ], [ 104.095021208133161, -2.430868810193366, 0.0 ], [ 104.094899092975538, -2.430469326265828, 0.0 ], [ 104.094856550570739, -2.430195844689393, 0.0 ], [ 104.094863428366921, -2.42993922202181, 0.0 ], [ 104.094846141614312, -2.429763612295258, 0.0 ], [ 104.094785792632351, -2.429685231654024, 0.0 ], [ 104.094312072878864, -2.429417306595631, 0.0 ] ] } },
{ "type": "Feature", "properties": { "FID": 12, "Id": 0 }, "geometry": { "type": "LineString", "coordinates": [ [ 104.093233037002449, -2.433130147851605, 0.0 ], [ 104.094218515347706, -2.42942389744684, 0.0 ], [ 104.094367440608124, -2.428746432255307, 0.0 ], [ 104.094884064839974, -2.427179767672843, 0.0 ], [ 104.095357155215197, -2.425417863421285, 0.0 ], [ 104.095571489557585, -2.424849631607048, 0.0 ], [ 104.095745405510698, -2.424232010362493, 0.0 ], [ 104.095773234330153, -2.423889702093126, 0.0 ], [ 104.095708323015927, -2.423570531116376, 0.0 ], [ 104.095610421253411, -2.42346306492832, 0.0 ], [ 104.095347199575855, -2.42337863585077, 0.0 ], [ 104.095127091280673, -2.423266626613953, 0.0 ], [ 104.094965201025019, -2.423063110641763, 0.0 ], [ 104.09490440244906, -2.422761104542855, 0.0 ], [ 104.09495577799396, -2.422332055141478, 0.0 ], [ 104.094972510106047, -2.422047708535668, 0.0 ], [ 104.094844454637894, -2.421425456706022, 0.0 ], [ 104.094707745956072, -2.420754351256703, 0.0 ], [ 104.094608197111043, -2.41988301933091, 0.0 ], [ 104.094461931941808, -2.419009235956177, 0.0 ], [ 104.094347632355905, -2.418613770279566, 0.0 ], [ 104.094135339498223, -2.418190829201152, 0.0 ], [ 104.093940228927138, -2.417858245536766, 0.0 ], [ 104.093704697600955, -2.41767622178746, 0.0 ], [ 104.093343987787932, -2.41744381454249, 0.0 ], [ 104.093070926192439, -2.417119950262606, 0.0 ], [ 104.092872941096545, -2.416772711951049, 0.0 ], [ 104.092600389686652, -2.416283251942788, 0.0 ] ] } },
{ "type": "Feature", "properties": { "FID": 13, "Id": 0 }, "geometry": { "type": "LineString", "coordinates": [ [ 104.094332363895575, -2.429325002235637, 0.0 ], [ 104.094454258589323, -2.428770499613029, 0.0 ], [ 104.094970227976873, -2.427205820578459, 0.0 ], [ 104.095442820908062, -2.425445768573702, 0.0 ], [ 104.095655049863922, -2.424883118369582, 0.0 ], [ 104.095838363927228, -2.42424286717619, 0.0 ], [ 104.095861681947369, -2.423873225444144, 0.0 ], [ 104.095791446456985, -2.423527875443567, 0.0 ], [ 104.095660555423322, -2.423384197139419, 0.0 ], [ 104.095381379794958, -2.423294650799286, 0.0 ], [ 104.09518511656205, -2.423194775902842, 0.0 ], [ 104.095049027380171, -2.423023695071867, 0.0 ], [ 104.094995426807358, -2.422757443863836, 0.0 ], [ 104.095045395474273, -2.422340143403832, 0.0 ], [ 104.095062992439608, -2.422041099089492, 0.0 ], [ 104.094932542042997, -2.421407209951019, 0.0 ], [ 104.094796643444568, -2.420740081444447, 0.0 ], [ 104.094697275948263, -2.419870337352225, 0.0 ], [ 104.094549751617421, -2.418989032151227, 0.0 ], [ 104.094431668677444, -2.418580476529638, 0.0 ], [ 104.094214294475762, -2.418147412192057, 0.0 ], [ 104.094008834428934, -2.417797186948996, 0.0 ], [ 104.09375644477511, -2.417602134731709, 0.0 ], [ 104.093403855694461, -2.417374959735965, 0.0 ], [ 104.093144844945868, -2.417067760468349, 0.0 ], [ 104.092951184515698, -2.416728107061024, 0.0 ], [ 104.092665556665921, -2.416215163858081, 0.0 ] ] } }
]
}
