{
"type": "FeatureCollection",
"name": "sungai_leaflet",
"crs": { "type": "name", "properties": { "name": "urn:ogc:def:crs:OGC:1.3:CRS84" } },
"features": [
{ "type": "Feature", "properties": { "FID": 0 }, "geometry": { "type": "LineString", "coordinates": [ [ 104.084513281170373, -2.418635830208534, 0.0 ], [ 104.084534968610043, -2.41845135851225, 0.0 ], [ 104.084648698627262, -2.41861582981114, 0.0 ], [ 104.084534968610043, -2.41845135851225, 0.0 ], [ 104.084504592007335, -2.41829282729016, 0.0 ], [ 104.084363228128652, -2.41826212607933, 0.0 ], [ 104.084583825406284, -2.418129215706146, 0.0 ], [ 104.08434381590213, -2.418129978314435, 0.0 ], [ 104.084437900391663, -2.418059510492797, 0.0 ], [ 104.084383535783815, -2.417797053327915, 0.0 ], [ 104.084347918755967, -2.417963405078007, 0.0 ], [ 104.084383535783815, -2.417797053327915, 0.0 ], [ 104.084503661506133, -2.417948904932178, 0.0 ] ] } },
{ "type": "Feature", "properties": { "FID": 1 }, "geometry": { "type": "LineString", "coordinates": [ [ 104.081666113219271, -2.441013429628388, 0.0 ], [ 104.082434047299031, -2.441030848151903, 0.0 ], [ 104.083336746726246, -2.441041408732351, 0.0 ], [ 104.084124899023166, -2.441123679238963, 0.0 ], [ 104.085120897532391, -2.441230470478089, 0.0 ], [ 104.086382476517471, -2.441343485239538, 0.0 ], [ 104.087694577825985, -2.441330576878901, 0.0 ], [ 104.088910885789986, -2.441280169602168, 0.0 ], [ 104.089981461354881, -2.441133946248567, 0.0 ], [ 104.090953364553314, -2.440977839966993, 0.0 ], [ 104.09189720988293, -2.44092520018814, 0.0 ], [ 104.092966618376522, -2.440977470060349, 0.0 ], [ 104.093851678686889, -2.441103094984511, 0.0 ], [ 104.094771745797402, -2.441345463829337, 0.0 ], [ 104.095642855917276, -2.441675482106951, 0.0 ], [ 104.09632040113334, -2.442035781859982, 0.0 ], [ 104.096774058619019, -2.442446850180677, 0.0 ], [ 104.097440839139978, -2.443224751980241, 0.0 ], [ 104.098117262582591, -2.44404174810584, 0.0 ], [ 104.098592101115614, -2.444547895235965, 0.0 ], [ 104.098857211062253, -2.445072472281818, 0.0 ], [ 104.099193579626231, -2.445757601088536, 0.0 ], [ 104.099300335063774, -2.446189982757451, 0.0 ], [ 104.099356854887077, -2.446778709201498, 0.0 ], [ 104.099356662998218, -2.446781915499853, 0.0 ] ] } },
{ "type": "Feature", "properties": { "FID": 2 }, "geometry": { "type": "LineString", "coordinates": [ [ 104.081394983617159, -2.442954946946798, 0.0 ], [ 104.081305665495577, -2.442919209276297, 0.0 ], [ 104.081047232115552, -2.44274601814327, 0.0 ], [ 104.080682082489503, -2.442661051400888, 0.0 ], [ 104.080320446009438, -2.442448963841649, 0.0 ], [ 104.080000947895968, -2.442206402189203, 0.0 ], [ 104.079614479645898, -2.441955318316172, 0.0 ], [ 104.079190329521978, -2.441728397375524, 0.0 ], [ 104.078930399836423, -2.441561003459845, 0.0 ], [ 104.078522661595088, -2.441442491622238, 0.0 ], [ 104.077964910129694, -2.441255959086036, 0.0 ], [ 104.077390244521652, -2.440999453156209, 0.0 ], [ 104.076862332609792, -2.440749908545053, 0.0 ], [ 104.076505005270519, -2.440419529191996, 0.0 ], [ 104.076266922201896, -2.440212230194854, 0.0 ], [ 104.076028966036915, -2.439950890651206, 0.0 ], [ 104.075946453599144, -2.4396017135448, 0.0 ], [ 104.075908678137694, -2.43916987813756, 0.0 ], [ 104.075715317305125, -2.438743779011726, 0.0 ], [ 104.075615399451351, -2.438293166525992, 0.0 ], [ 104.075680188592358, -2.437925890664454, 0.0 ], [ 104.075830776420304, -2.437572885210438, 0.0 ], [ 104.075849280090821, -2.437237781014773, 0.0 ], [ 104.075792461035732, -2.437075339533052, 0.0 ], [ 104.075845449316972, -2.436973256147911, 0.0 ], [ 104.07594782990202, -2.437057056265849, 0.0 ], [ 104.076386861198486, -2.43777393558764, 0.0 ], [ 104.076928814879793, -2.438506236918659, 0.0 ], [ 104.077572473355218, -2.439206540374005, 0.0 ], [ 104.078364309601454, -2.439910880843314, 0.0 ], [ 104.079087768506483, -2.440349728933241, 0.0 ], [ 104.079764123066425, -2.440637168995697, 0.0 ], [ 104.080545894721837, -2.440842797086177, 0.0 ], [ 104.081421120816742, -2.441007872541172, 0.0 ] ] } },
{ "type": "Feature", "properties": { "FID": 3 }, "geometry": { "type": "LineString", "coordinates": [ [ 104.082888339036344, -2.446770697263079, 0.0 ], [ 104.083004499342792, -2.446637824114316, 0.0 ], [ 104.08323864342519, -2.446199118972316, 0.0 ], [ 104.083363101346293, -2.445691833149223, 0.0 ], [ 104.083496098759113, -2.445230778132835, 0.0 ], [ 104.083500532362933, -2.444952879398564, 0.0 ], [ 104.083440708937999, -2.444604043157598, 0.0 ], [ 104.083296533902711, -2.444333993853102, 0.0 ], [ 104.083098557169734, -2.444118889128266, 0.0 ], [ 104.08292294413144, -2.443856290232226, 0.0 ], [ 104.082702045275269, -2.443703406141014, 0.0 ], [ 104.082434081970632, -2.443551104835325, 0.0 ], [ 104.082188312941568, -2.443335940108382, 0.0 ], [ 104.081919547386448, -2.443160046271869, 0.0 ], [ 104.081664721802895, -2.443062513894114, 0.0 ] ] } },
{ "type": "Feature", "properties": { "FID": 4 }, "geometry": { "type": "LineString", "coordinates": [ [ 104.081664642404306, -2.443179389093265, 0.0 ], [ 104.081675299023502, -2.443182357697863, 0.0 ], [ 104.081926602273882, -2.443326569585624, 0.0 ], [ 104.082178536282981, -2.44354857734376, 0.0 ], [ 104.082496271448605, -2.44373961159797, 0.0 ], [ 104.082795243838092, -2.443946825241265, 0.0 ], [ 104.083016719401897, -2.444217416104779, 0.0 ], [ 104.083198299914173, -2.444433486552896, 0.0 ], [ 104.083319352181093, -2.444743123322163, 0.0 ], [ 104.083362465778904, -2.445038124463644, 0.0 ], [ 104.083283861640041, -2.445513618022831, 0.0 ], [ 104.083180092597487, -2.445857131416526, 0.0 ], [ 104.083009117295504, -2.446380134286647, 0.0 ], [ 104.082842098680473, -2.446638942749005, 0.0 ], [ 104.082729719183618, -2.446770588222829, 0.0 ] ] } },
{ "type": "Feature", "properties": { "FID": 5 }, "geometry": { "type": "LineString", "coordinates": [ [ 104.081407530900194, -2.424418904991864, 0.0 ], [ 104.080657639105553, -2.425070055887912, 0.0 ], [ 104.079729154832904, -2.425781819553698, 0.0 ], [ 104.078835924793481, -2.426347079587578, 0.0 ], [ 104.077979702391929, -2.426753625324807, 0.0 ], [ 104.077045034346654, -2.427164856579443, 0.0 ], [ 104.076083711573659, -2.42762516113553, 0.0 ], [ 104.075290970804375, -2.42815523466931, 0.0 ], [ 104.074722555995734, -2.428686475082334, 0.0 ], [ 104.074538052479028, -2.429069508071651, 0.0 ], [ 104.07436091758062, -2.42971229194103, 0.0 ], [ 104.07438186398663, -2.430530541144537, 0.0 ], [ 104.074441153843964, -2.431316757876161, 0.0 ], [ 104.074531729571433, -2.432107121154819, 0.0 ], [ 104.074774118457711, -2.433094167050736, 0.0 ], [ 104.075101769799602, -2.434130002452133, 0.0 ], [ 104.075313668805407, -2.434697385034002, 0.0 ], [ 104.075370069486823, -2.435275542698085, 0.0 ], [ 104.075537910374678, -2.4359328661502, 0.0 ], [ 104.075663526592734, -2.436483987973831, 0.0 ], [ 104.075652742824929, -2.436787861754369, 0.0 ], [ 104.075484558201239, -2.437491404414392, 0.0 ], [ 104.075380593124322, -2.438319210556391, 0.0 ], [ 104.075457140808027, -2.438723781005355, 0.0 ], [ 104.075675932830435, -2.439233039194144, 0.0 ], [ 104.075727869501179, -2.439551800711648, 0.0 ], [ 104.075773156619391, -2.439941143333202, 0.0 ], [ 104.075990578984488, -2.440335923899695, 0.0 ], [ 104.076355308143263, -2.440665991836596, 0.0 ], [ 104.076961997290354, -2.440992056566845, 0.0 ], [ 104.077567630612009, -2.441271126574864, 0.0 ], [ 104.078163840531047, -2.441481784248185, 0.0 ], [ 104.078807397503311, -2.44166018926082, 0.0 ], [ 104.079350605839949, -2.441979895460142, 0.0 ], [ 104.079822826741236, -2.442260645915088, 0.0 ], [ 104.080161652958878, -2.44248899157943, 0.0 ], [ 104.080650020256954, -2.44279283832686, 0.0 ], [ 104.081038097419324, -2.442926976720259, 0.0 ], [ 104.081330689320055, -2.44308636004537, 0.0 ], [ 104.081394882168169, -2.443104242203306, 0.0 ] ] } },
{ "type": "Feature", "properties": { "FID": 6 }, "geometry": { "type": "LineString", "coordinates": [ [ 104.081436949244846, -2.424393360238232, 0.0 ], [ 104.081432419797579, -2.424397293281362, 0.0 ] ] } },
{ "type": "Feature", "properties": { "FID": 7 }, "geometry": { "type": "LineString", "coordinates": [ [ 104.081684832924964, -2.413275983123436, 0.0 ], [ 104.081922357487855, -2.413536942187024, 0.0 ], [ 104.082343920050761, -2.414112770240234, 0.0 ], [ 104.082730315674894, -2.414853347129697, 0.0 ], [ 104.083128235818407, -2.415736225307159, 0.0 ], [ 104.083439051174551, -2.416395156177995, 0.0 ], [ 104.083769883559796, -2.417044855661779, 0.0 ], [ 104.084003839130204, -2.417759448731457, 0.0 ], [ 104.084204046630703, -2.418480568249003, 0.0 ], [ 104.084217831874511, -2.41920744120083, 0.0 ], [ 104.084146742726361, -2.419789882493228, 0.0 ], [ 104.083940280133561, -2.420549668943139, 0.0 ], [ 104.083640903216462, -2.421324878853016, 0.0 ], [ 104.083386034615245, -2.421926761473754, 0.0 ], [ 104.082981926531076, -2.422782309533865, 0.0 ], [ 104.082481079164069, -2.423456256494572, 0.0 ], [ 104.082002937849524, -2.423879852787991, 0.0 ], [ 104.081677502811232, -2.424175112037189, 0.0 ] ] } },
{ "type": "Feature", "properties": { "FID": 8 }, "geometry": { "type": "LineString", "coordinates": [ [ 104.053141328762649, -2.395665706316541, 0.0 ], [ 104.053736577700832, -2.395523398741914, 0.0 ], [ 104.053805976957364, -2.395592168765589, 0.0 ], [ 104.05401440882585, -2.396007819625315, 0.0 ], [ 104.054242823195978, -2.396057622204248, 0.0 ], [ 104.054897640648065, -2.395881165553043, 0.0 ], [ 104.055471144711092, -2.395895231635013, 0.0 ], [ 104.055758339152746, -2.396103278858609, 0.0 ], [ 104.056154442866912, -2.396350905065998, 0.0 ], [ 104.056372181878558, -2.396598507162987, 0.0 ], [ 104.056312548248698, -2.396885664882022, 0.0 ], [ 104.056262798145013, -2.397212369168956, 0.0 ], [ 104.056309484418946, -2.397642957101449, 0.0 ], [ 104.05646687479387, -2.397659216409214, 0.0 ], [ 104.056389456084744, -2.397179249355291, 0.0 ], [ 104.056523108929426, -2.396781176558606, 0.0 ], [ 104.056502615055422, -2.39646308052675, 0.0 ], [ 104.056108953061255, -2.396142998229501, 0.0 ], [ 104.05577871737971, -2.395907322118154, 0.0 ], [ 104.055409920062928, -2.395695509518536, 0.0 ], [ 104.054926251231137, -2.39569342827771, 0.0 ], [ 104.054450895314645, -2.39583118445053, 0.0 ], [ 104.054202261621839, -2.39588964752627, 0.0 ], [ 104.054106173319184, -2.395750698840454, 0.0 ], [ 104.05397672363074, -2.395448882381957, 0.0 ], [ 104.054582649754082, -2.395237854519487, 0.0 ], [ 104.055150043502266, -2.395007694616879, 0.0 ], [ 104.055825313542201, -2.394919883400108, 0.0 ], [ 104.056426029236249, -2.395041939926408, 0.0 ], [ 104.056960013742099, -2.395375669947348, 0.0 ], [ 104.057875497887125, -2.396074902077182, 0.0 ], [ 104.058443250415138, -2.396676070927341, 0.0 ], [ 104.058935359900076, -2.39692241510756, 0.0 ], [ 104.059104140053236, -2.397196044492281, 0.0 ], [ 104.059419799094528, -2.397865652463026, 0.0 ], [ 104.059689895545461, -2.398538829278185, 0.0 ], [ 104.060105241100359, -2.39950599980917, 0.0 ], [ 104.060469186369588, -2.400386131125761, 0.0 ], [ 104.060804543805929, -2.40096063490353, 0.0 ], [ 104.061032083060084, -2.401530351298166, 0.0 ], [ 104.061266562070131, -2.402038967220724, 0.0 ], [ 104.0614516200921, -2.402696019984242, 0.0 ], [ 104.061682021778196, -2.403512737758969, 0.0 ], [ 104.061971232201643, -2.404565369044266, 0.0 ], [ 104.062156035882523, -2.405463477930784, 0.0 ], [ 104.062213739220439, -2.406172031849694, 0.0 ], [ 104.062212927766893, -2.407056787330069, 0.0 ], [ 104.062252186437675, -2.407934777017241, 0.0 ], [ 104.062255945066667, -2.408698501001064, 0.0 ], [ 104.06223174861077, -2.409664246642889, 0.0 ], [ 104.06227277303671, -2.410431849978368, 0.0 ], [ 104.062405543283631, -2.411456710963711, 0.0 ], [ 104.062538880969271, -2.412427658602057, 0.0 ], [ 104.062630994190741, -2.413146720712881, 0.0 ], [ 104.062642311495779, -2.413404175952622, 0.0 ], [ 104.062858181582001, -2.413758817773303, 0.0 ], [ 104.063139647518057, -2.41435365664471, 0.0 ], [ 104.063563623797194, -2.415093645931878, 0.0 ], [ 104.064023647122312, -2.415661687835964, 0.0 ], [ 104.06416960616879, -2.416063401595138, 0.0 ], [ 104.064497063529814, -2.41613566120003, 0.0 ], [ 104.064867002237108, -2.416463461861407, 0.0 ], [ 104.065304362811517, -2.416702939314195, 0.0 ], [ 104.065618069902499, -2.41685341854989, 0.0 ], [ 104.066024594336142, -2.417142247308978, 0.0 ], [ 104.066514801941537, -2.417196418660776, 0.0 ], [ 104.066949031877712, -2.41726701480227, 0.0 ], [ 104.067453071637701, -2.417321276815374, 0.0 ], [ 104.067701786331199, -2.417348577348432, 0.0 ], [ 104.068235117507072, -2.417192721849871, 0.0 ], [ 104.068720723210504, -2.417045508254795, 0.0 ], [ 104.069571016045245, -2.41660690410642, 0.0 ], [ 104.070435166318262, -2.416130324765041, 0.0 ], [ 104.070926372470424, -2.415999505266479, 0.0 ], [ 104.071252289811213, -2.415692438069172, 0.0 ], [ 104.071764832899916, -2.415382794181532, 0.0 ], [ 104.072536641330885, -2.414886194083251, 0.0 ], [ 104.073133787243492, -2.414587679739386, 0.0 ], [ 104.073830857492368, -2.414186218008486, 0.0 ], [ 104.074455468102457, -2.413716372924961, 0.0 ], [ 104.07505557926649, -2.413247686608051, 0.0 ], [ 104.075743717871575, -2.41275311615213, 0.0 ], [ 104.076276898828283, -2.412417521873257, 0.0 ], [ 104.076695734911809, -2.412270711130113, 0.0 ], [ 104.077228004761182, -2.41191204845151, 0.0 ], [ 104.077801532700065, -2.411692604014207, 0.0 ], [ 104.078267835965988, -2.411599594266558, 0.0 ], [ 104.078750359161546, -2.411553127891703, 0.0 ], [ 104.079220930967097, -2.411732667034997, 0.0 ], [ 104.079816210891636, -2.412066714817683, 0.0 ], [ 104.080284793838388, -2.412355925862957, 0.0 ], [ 104.080639597029531, -2.412623041589808, 0.0 ], [ 104.08107037131704, -2.412765455694096, 0.0 ], [ 104.081415214808089, -2.412996993391316, 0.0 ] ] } },
{ "type": "Feature", "properties": { "FID": 9 }, "geometry": { "type": "LineString", "coordinates": [ [ 104.081666574141778, -2.440334266639976, 0.0 ], [ 104.082327568137856, -2.440411649788821, 0.0 ], [ 104.084199865876641, -2.440452861890624, 0.0 ], [ 104.086297629157443, -2.440665330436299, 0.0 ], [ 104.088137707373676, -2.440622912062964, 0.0 ], [ 104.089014918401205, -2.440595521461142, 0.0 ], [ 104.089951571148504, -2.440511533680401, 0.0 ], [ 104.090885233788924, -2.440326870159855, 0.0 ], [ 104.091962395090917, -2.440243564324418, 0.0 ], [ 104.093080501251237, -2.440313461452205, 0.0 ], [ 104.094114782699123, -2.440496330879718, 0.0 ], [ 104.095275888202323, -2.440836224760397, 0.0 ], [ 104.096272621518168, -2.44124887246876, 0.0 ], [ 104.097080717098805, -2.441842484594023, 0.0 ], [ 104.098095387515471, -2.442845550408938, 0.0 ], [ 104.098363491729998, -2.442831257683046, 0.0 ], [ 104.098686686487994, -2.442716817321575, 0.0 ], [ 104.098998737597768, -2.44258942448483, 0.0 ], [ 104.099437770082929, -2.442207462389349, 0.0 ], [ 104.099905913967277, -2.442165026167963, 0.0 ], [ 104.100444100420219, -2.441839821816023, 0.0 ], [ 104.101081069762273, -2.441345034280603, 0.0 ], [ 104.101887882613823, -2.440949531997528, 0.0 ], [ 104.102298039101086, -2.44041227387116, 0.0 ], [ 104.102807313136537, -2.439959617171366, 0.0 ], [ 104.103330983987092, -2.439591206498988, 0.0 ], [ 104.104038893267642, -2.439491703838846, 0.0 ], [ 104.104676599136496, -2.43968879158026, 0.0 ], [ 104.105313506193994, -2.440155966246799, 0.0 ], [ 104.106077510376124, -2.440750358824353, 0.0 ], [ 104.106515424798857, -2.441132503102397, 0.0 ], [ 104.106883233212869, -2.441146670657728, 0.0 ], [ 104.107279494012005, -2.440948691113865, 0.0 ], [ 104.107577612014552, -2.440495873029521, 0.0 ], [ 104.107932321195861, -2.43992978172512, 0.0 ], [ 104.108188071591726, -2.439377636602418, 0.0 ], [ 104.10844482594544, -2.438980414679206, 0.0 ], [ 104.108842771916912, -2.438625784995756, 0.0 ], [ 104.108500808559583, -2.439122294041554, 0.0 ], [ 104.108144541374799, -2.439774240688116, 0.0 ], [ 104.107775556229797, -2.440467663803533, 0.0 ], [ 104.10746308255662, -2.440991212472692, 0.0 ], [ 104.107109091059129, -2.441245767139007, 0.0 ], [ 104.106740920725031, -2.441316532719175, 0.0 ], [ 104.106358390410449, -2.441260137377567, 0.0 ], [ 104.105750667564379, -2.440765138681198, 0.0 ], [ 104.104958965046933, -2.440085812242689, 0.0 ], [ 104.104321857364155, -2.439718279463232, 0.0 ], [ 104.103698644899268, -2.439691158249322, 0.0 ], [ 104.103161103994978, -2.439817804443002, 0.0 ], [ 104.102807329382259, -2.440355697886639, 0.0 ], [ 104.102340598981939, -2.440681195827912, 0.0 ], [ 104.101859735257037, -2.441161678775512, 0.0 ], [ 104.101067195325939, -2.441557190586262, 0.0 ], [ 104.100161502787557, -2.442320536663558, 0.0 ], [ 104.099495089870317, -2.44241960322123, 0.0 ], [ 104.099212278872841, -2.442801408289024, 0.0 ], [ 104.098815333938091, -2.442985390132586, 0.0 ], [ 104.098389958763789, -2.443197711922649, 0.0 ], [ 104.098461641949044, -2.443395515447003, 0.0 ], [ 104.099201895585466, -2.444171114516848, 0.0 ], [ 104.099585306639497, -2.444565463248135, 0.0 ], [ 104.099755387287189, -2.445200391989594, 0.0 ], [ 104.100067864316216, -2.44563604230293, 0.0 ], [ 104.100051551154948, -2.44613301108184, 0.0 ], [ 104.100064111906804, -2.446785916678365, 0.0 ] ] } },
{ "type": "Feature", "properties": { "FID": 10 }, "geometry": { "type": "LineString", "coordinates": [ [ 104.081406958553103, -2.425267523699953, 0.0 ], [ 104.081066319751386, -2.425558718551946, 0.0 ], [ 104.080025615205003, -2.426347188009352, 0.0 ], [ 104.078951518915531, -2.427052157038351, 0.0 ], [ 104.077621919045995, -2.42761641127162, 0.0 ], [ 104.076613961767279, -2.428066950696004, 0.0 ], [ 104.075918911067021, -2.428448737769493, 0.0 ], [ 104.075480540417573, -2.428958348584807, 0.0 ], [ 104.075170128662378, -2.429510174277164, 0.0 ], [ 104.075085012927275, -2.430118538449545, 0.0 ], [ 104.075212612845164, -2.431151250702598, 0.0 ], [ 104.075211887449257, -2.431873217959409, 0.0 ], [ 104.075555431570137, -2.433185481903342, 0.0 ], [ 104.075857039653457, -2.4342056951064, 0.0 ], [ 104.07597947102532, -2.435181233507397, 0.0 ], [ 104.076363116257284, -2.436298485275159, 0.0 ], [ 104.076955694854504, -2.437360981163518, 0.0 ], [ 104.077932666782004, -2.438550865002521, 0.0 ], [ 104.078759767408926, -2.43930784086221, 0.0 ], [ 104.079596991064037, -2.439860284907379, 0.0 ], [ 104.080757214567157, -2.440227806589641, 0.0 ], [ 104.081396784845623, -2.440302682077376, 0.0 ] ] } },
{ "type": "Feature", "properties": { "FID": 11 }, "geometry": { "type": "LineString", "coordinates": [ [ 104.081685402086492, -2.412427631848514, 0.0 ], [ 104.081767812881438, -2.412477986387473, 0.0 ], [ 104.082079500051606, -2.41277430018472, 0.0 ], [ 104.082277276350126, -2.412774289614218, 0.0 ], [ 104.082954950347826, -2.412379140817024, 0.0 ], [ 104.083604924350169, -2.411970078129121, 0.0 ], [ 104.084197668331683, -2.411096256434094, 0.0 ], [ 104.084352408206044, -2.41054812862571, 0.0 ], [ 104.08443619852288, -2.409945631597249, 0.0 ], [ 104.084478879819358, -2.410352223618078, 0.0 ], [ 104.084324629147744, -2.411110445009776, 0.0 ], [ 104.0838590543339, -2.411956047965553, 0.0 ], [ 104.083534280381826, -2.41225217477818, 0.0 ], [ 104.082630406586119, -2.412774266761257, 0.0 ], [ 104.082404762855248, -2.412943490842498, 0.0 ], [ 104.082391112421547, -2.413168970945461, 0.0 ], [ 104.082814344795523, -2.413789794773063, 0.0 ], [ 104.083364652943388, -2.414750671201242, 0.0 ], [ 104.083674253382071, -2.415061972745567, 0.0 ], [ 104.084209410287528, -2.416274977925889, 0.0 ], [ 104.084620810911971, -2.417348817194799, 0.0 ], [ 104.084788389656381, -2.418352565740332, 0.0 ], [ 104.084957496268075, -2.419102891846495, 0.0 ], [ 104.084873632184852, -2.41989309302989, 0.0 ], [ 104.084646822831274, -2.420416991648234, 0.0 ], [ 104.084604370436836, -2.421010886575603, 0.0 ], [ 104.084138259178502, -2.421682795825984, 0.0 ], [ 104.084012458629871, -2.422162464519295, 0.0 ], [ 104.083747808318435, -2.422879613616491, 0.0 ], [ 104.08338115666362, -2.423443291242186, 0.0 ], [ 104.08233638914129, -2.424472999260097, 0.0 ], [ 104.081676921914124, -2.425036745516478, 0.0 ] ] } },
{ "type": "Feature", "properties": { "FID": 12 }, "geometry": { "type": "LineString", "coordinates": [ [ 104.053141748112253, -2.395055067893206, 0.0 ], [ 104.053891007324182, -2.394873520604485, 0.0 ], [ 104.054687064622428, -2.394617792965903, 0.0 ], [ 104.055339703720236, -2.394351227868806, 0.0 ], [ 104.055918637901755, -2.394393466278025, 0.0 ], [ 104.056836643068465, -2.394534331603331, 0.0 ], [ 104.057569518700447, -2.395099639004714, 0.0 ], [ 104.058648337864255, -2.395999848506883, 0.0 ], [ 104.05948518840006, -2.39662934488915, 0.0 ], [ 104.059905250235673, -2.397511613353417, 0.0 ], [ 104.060530814188809, -2.399074187565558, 0.0 ], [ 104.061190886462569, -2.400333783170267, 0.0 ], [ 104.061730209409731, -2.401653460091985, 0.0 ], [ 104.062130581112385, -2.403005226708582, 0.0 ], [ 104.062504851008327, -2.404361769815815, 0.0 ], [ 104.062759456866942, -2.40586016122586, 0.0 ], [ 104.062832083151861, -2.407038960622651, 0.0 ], [ 104.062860306969881, -2.408693889499331, 0.0 ], [ 104.062845564513452, -2.41024929234941, 0.0 ], [ 104.062985757318373, -2.411520298585809, 0.0 ], [ 104.063243678781021, -2.412942525963968, 0.0 ], [ 104.063682524047792, -2.414059451635074, 0.0 ], [ 104.064276656415046, -2.415076708197849, 0.0 ], [ 104.06515306965079, -2.415881291011195, 0.0 ], [ 104.066156220666386, -2.416487900269225, 0.0 ], [ 104.067003659412165, -2.416699165965431, 0.0 ], [ 104.067737953782029, -2.416656424256484, 0.0 ], [ 104.068820798887856, -2.416272700027185, 0.0 ], [ 104.069929164839564, -2.41572063795998, 0.0 ], [ 104.071196040243436, -2.415023396400724, 0.0 ], [ 104.072533515294325, -2.414230829981475, 0.0 ], [ 104.073865003849974, -2.413325463367609, 0.0 ], [ 104.075336873566656, -2.412322069035764, 0.0 ], [ 104.076753283887754, -2.411444273974197, 0.0 ], [ 104.077319619852091, -2.411260366428892, 0.0 ], [ 104.077912779263968, -2.410922161523281, 0.0 ], [ 104.078688037424314, -2.410839764757393, 0.0 ], [ 104.079396477071143, -2.410980341711774, 0.0 ], [ 104.079856285009569, -2.411305142706899, 0.0 ], [ 104.080535211730108, -2.411856260182141, 0.0 ], [ 104.081328660117663, -2.41220965574246, 0.0 ], [ 104.081415707450972, -2.412262843325724, 0.0 ] ] } }
]
}
