{
"type": "FeatureCollection",
"name": "Camp_leaflet",
"crs": { "type": "name", "properties": { "name": "urn:ogc:def:crs:OGC:1.3:CRS84" } },
"features": [
{ "type": "Feature", "properties": { "FID": 0, "code": 1, "X": 641165.0, "Y": 9215402.0, "Desc_": "Stagging BGP", "KODE": "A" }, "geometry": { "type": "Point", "coordinates": [ 112.278238333650876, -7.096380740674864 ] } },
{ "type": "Feature", "properties": { "FID": 1, "code": 2, "X": 647831.0, "Y": 9218366.0, "Desc_": "FieldCamp TUB", "KODE": "B" }, "geometry": { "type": "Point", "coordinates": [ 112.338510178295422, -7.069405862163327 ] } },
{ "type": "Feature", "properties": { "FID": 2, "code": 3, "X": 648186.415, "Y": 9225272.686000001, "Desc_": "FieldCamp JMS", "KODE": "C" }, "geometry": { "type": "Point", "coordinates": [ 112.341548208810835, -7.006936313494522 ] } },
{ "type": "Feature", "properties": { "FID": 3, "code": 4, "X": 599533.343, "Y": 9209098.168, "Desc_": "BaseCamp", "KODE": "D" }, "geometry": { "type": "Point", "coordinates": [ 111.901416667583248, -7.154282473520189 ] } },
{ "type": "Feature", "properties": { "FID": 4, "code": 5, "X": 598556.734, "Y": 9209935.261, "Desc_": "MesClient", "KODE": "E" }, "geometry": { "type": "Point", "coordinates": [ 111.892558111776736, -7.146728357799608 ] } },
{ "type": "Feature", "properties": { "FID": 5, "code": 6, "X": 569288.745, "Y": 9203998.303, "Desc_": "G.Handak", "KODE": "F" }, "geometry": { "type": "Point", "coordinates": [ 111.627585458563118, -7.200867158345004 ] } }
]
}
