{
"type": "FeatureCollection",
"name": "East_GPS_leaflet",
"crs": { "type": "name", "properties": { "name": "urn:ogc:def:crs:OGC:1.3:CRS84" } },
"features": [
{ "type": "Feature", "properties": { "FID": 0, "kode": "GPS PTM-7024", "X": 630361.31, "Y": 9200813.376, "Z": 62.5 }, "geometry": { "type": "Point", "coordinates": [ 112.180765910955884, -7.228578826621519 ] } },
{ "type": "Feature", "properties": { "FID": 1, "kode": "GPS PTM-7025", "X": 630304.586, "Y": 9200796.708000001, "Z": 60.073 }, "geometry": { "type": "Point", "coordinates": [ 112.180252590976949, -7.228730901257678 ] } },
{ "type": "Feature", "properties": { "FID": 2, "kode": "GPS PTM-7034", "X": 639559.499, "Y": 9199763.367000001, "Z": 55.784 }, "geometry": { "type": "Point", "coordinates": [ 112.264092856479934, -7.237851397582518 ] } },
{ "type": "Feature", "properties": { "FID": 3, "kode": "GPS PTM-7035", "X": 639543.116, "Y": 9199792.774, "Z": 52.551 }, "geometry": { "type": "Point", "coordinates": [ 112.263943747947096, -7.237585862659821 ] } },
{ "type": "Feature", "properties": { "FID": 4, "kode": "GPS PTM-8030", "X": 630680.53, "Y": 9216783.343, "Z": 8.713 }, "geometry": { "type": "Point", "coordinates": [ 112.183284715204564, -7.084139563329447 ] } },
{ "type": "Feature", "properties": { "FID": 5, "kode": "GPS PTM-8031", "X": 630730.973, "Y": 9216694.198000001, "Z": 9.47 }, "geometry": { "type": "Point", "coordinates": [ 112.183743456373193, -7.084944627361816 ] } },
{ "type": "Feature", "properties": { "FID": 6, "kode": "GPS PTM-8032", "X": 641493.0, "Y": 9226816.548, "Z": 7.089 }, "geometry": { "type": "Point", "coordinates": [ 112.280924448139544, -6.993143133327079 ] } },
{ "type": "Feature", "properties": { "FID": 7, "kode": "GPS PTM-8033", "X": 641402.728, "Y": 9226846.319, "Z": 7.504 }, "geometry": { "type": "Point", "coordinates": [ 112.280106628995, -6.992876115297603 ] } },
{ "type": "Feature", "properties": { "FID": 8, "kode": "GPS PTM-8034", "X": 649680.985, "Y": 9218573.144, "Z": 1.842 }, "geometry": { "type": "Point", "coordinates": [ 112.355251915900709, -7.067484166706958 ] } },
{ "type": "Feature", "properties": { "FID": 9, "kode": "GPS PTM-8035", "X": 649713.521, "Y": 9218679.686000001, "Z": 2.614 }, "geometry": { "type": "Point", "coordinates": [ 112.355543641588241, -7.066519809225517 ] } },
{ "type": "Feature", "properties": { "FID": 10, "kode": "GPS PTM-8036", "X": 642406.67, "Y": 9212725.155, "Z": 11.807 }, "geometry": { "type": "Point", "coordinates": [ 112.2895471385241, -7.120558010574927 ] } },
{ "type": "Feature", "properties": { "FID": 11, "kode": "GPS PTM-8037", "X": 642463.279, "Y": 9212657.066, "Z": 11.811 }, "geometry": { "type": "Point", "coordinates": [ 112.290061387203394, -7.121172352109264 ] } },
{ "type": "Feature", "properties": { "FID": 12, "kode": "GPS PTM-8038", "X": 649447.573, "Y": 9209709.721000001, "Z": 7.934 }, "geometry": { "type": "Point", "coordinates": [ 112.353373491697099, -7.147645638227599 ] } },
{ "type": "Feature", "properties": { "FID": 13, "kode": "GPS PTM-8039", "X": 649484.789, "Y": 9209767.249, "Z": 8.474 }, "geometry": { "type": "Point", "coordinates": [ 112.35370891833162, -7.147124401986598 ] } },
{ "type": "Feature", "properties": { "FID": 14, "kode": "GPS PTM-8040", "X": 607772.111, "Y": 9199088.122, "Z": 30.052 }, "geometry": { "type": "Point", "coordinates": [ 111.976216964189149, -7.24466692965001 ] } },
{ "type": "Feature", "properties": { "FID": 15, "kode": "GPS PTM-8041", "X": 607746.317, "Y": 9199002.683, "Z": 30.302 }, "geometry": { "type": "Point", "coordinates": [ 111.975985003693452, -7.245440188032219 ] } },
{ "type": "Feature", "properties": { "FID": 16, "kode": "GPS PTM-8042", "X": 605443.516, "Y": 9189513.991, "Z": 79.088 }, "geometry": { "type": "Point", "coordinates": [ 111.955309631561519, -7.331305753031166 ] } },
{ "type": "Feature", "properties": { "FID": 17, "kode": "GPS PTM-8043", "X": 605422.148, "Y": 9189442.125, "Z": 76.68 }, "geometry": { "type": "Point", "coordinates": [ 111.955117442649069, -7.331956161235016 ] } },
{ "type": "Feature", "properties": { "FID": 18, "kode": "GPS PTM-8044", "X": 588260.297, "Y": 9188798.733, "Z": 150.14 }, "geometry": { "type": "Point", "coordinates": [ 111.7996539638511, -7.33807898362784 ] } },
{ "type": "Feature", "properties": { "FID": 19, "kode": "GPS PTM-8045", "X": 588194.058, "Y": 9188807.354, "Z": 144.842 }, "geometry": { "type": "Point", "coordinates": [ 111.799053727430874, -7.338002074815227 ] } },
{ "type": "Feature", "properties": { "FID": 20, "kode": "GPS PTM-8046", "X": 585697.059, "Y": 9197136.117000001, "Z": 82.436 }, "geometry": { "type": "Point", "coordinates": [ 111.776301993965248, -7.262707985278596 ] } },
{ "type": "Feature", "properties": { "FID": 21, "kode": "GPS PTM-8047", "X": 585636.565, "Y": 9197160.901000001, "Z": 81.259 }, "geometry": { "type": "Point", "coordinates": [ 111.77575364832272, -7.26248475027133 ] } },
{ "type": "Feature", "properties": { "FID": 22, "kode": "GPS PTM-8048", "X": 577230.374, "Y": 9191771.291, "Z": 111.49 }, "geometry": { "type": "Point", "coordinates": [ 111.69968441589873, -7.31135846853164 ] } },
{ "type": "Feature", "properties": { "FID": 23, "kode": "GPS PTM-8049", "X": 577186.778, "Y": 9191683.526000001, "Z": 111.147 }, "geometry": { "type": "Point", "coordinates": [ 111.699290704122163, -7.312152930046523 ] } },
{ "type": "Feature", "properties": { "FID": 24, "kode": "KD07", "X": 596022.502, "Y": 9207470.146, "Z": 0.0 }, "geometry": { "type": "Point", "coordinates": [ 111.869651425785975, -7.169068820817221 ] } },
{ "type": "Feature", "properties": { "FID": 25, "kode": "PTM7046", "X": 617589.11, "Y": 9195211.541, "Z": 0.0 }, "geometry": { "type": "Point", "coordinates": [ 112.065213391743171, -7.279528365847451 ] } }
]
}
