{
"type": "FeatureCollection",
"name": "HazardMap_leaflet",
"crs": { "type": "name", "properties": { "name": "urn:ogc:def:crs:OGC:1.3:CRS84" } },
"features": [
{ "type": "Feature", "properties": { "FID": 0, "KODE": 1101496, "KATEGORI": "Sungai / Rawa", "KETERANGAN": "Potensi banjir", "X": 634300.5, "Y": 9221131.5 }, "geometry": { "type": "Point", "coordinates": [ 112.215955060245022, -7.044730762115604 ] } },
{ "type": "Feature", "properties": { "FID": 1, "KODE": 1101497, "KATEGORI": "Sungai / Rawa", "KETERANGAN": "Potensi banjir", "X": 634300.5, "Y": 9221119.0 }, "geometry": { "type": "Point", "coordinates": [ 112.21595535481957, -7.044843810826102 ] } },
{ "type": "Feature", "properties": { "FID": 2, "KODE": 1101498, "KATEGORI": "Sungai / Rawa", "KETERANGAN": "Potensi banjir", "X": 634300.5, "Y": 9221106.5 }, "geometry": { "type": "Point", "coordinates": [ 112.21595564939895, -7.044956859536045 ] } },
{ "type": "Feature", "properties": { "FID": 3, "KODE": 1101499, "KATEGORI": "Sungai / Rawa", "KETERANGAN": "Potensi banjir", "X": 634300.5, "Y": 9221094.0 }, "geometry": { "type": "Point", "coordinates": [ 112.215955943983204, -7.04506990824543 ] } },
{ "type": "Feature", "properties": { "FID": 4, "KODE": 1101500, "KATEGORI": "Sungai / Rawa", "KETERANGAN": "Potensi banjir", "X": 634300.5, "Y": 9221081.5 }, "geometry": { "type": "Point", "coordinates": [ 112.215956238572275, -7.045182956954256 ] } },
{ "type": "Feature", "properties": { "FID": 5, "KODE": 1101501, "KATEGORI": "Sungai / Rawa", "KETERANGAN": "Potensi banjir", "X": 634300.5, "Y": 9221069.0 }, "geometry": { "type": "Point", "coordinates": [ 112.215956533166207, -7.045296005662526 ] } },
{ "type": "Feature", "properties": { "FID": 6, "KODE": 1101502, "KATEGORI": "Sungai / Rawa", "KETERANGAN": "Potensi banjir", "X": 634300.5, "Y": 9221056.5 }, "geometry": { "type": "Point", "coordinates": [ 112.215956827764984, -7.045409054370237 ] } },
{ "type": "Feature", "properties": { "FID": 7, "KODE": 1101503, "KATEGORI": "Sungai / Rawa", "KETERANGAN": "Potensi banjir", "X": 634300.5, "Y": 9221044.0 }, "geometry": { "type": "Point", "coordinates": [ 112.215957122368607, -7.045522103077391 ] } },
{ "type": "Feature", "properties": { "FID": 8, "KODE": 1101504, "KATEGORI": "Sungai / Rawa", "KETERANGAN": "Potensi banjir", "X": 634300.5, "Y": 9221031.5 }, "geometry": { "type": "Point", "coordinates": [ 112.215957416977076, -7.045635151783986 ] } },
{ "type": "Feature", "properties": { "FID": 9, "KODE": 1101505, "KATEGORI": "Sungai / Rawa", "KETERANGAN": "Potensi banjir", "X": 634300.5, "Y": 9221019.0 }, "geometry": { "type": "Point", "coordinates": [ 112.215957711590391, -7.045748200490026 ] } },
{ "type": "Feature", "properties": { "FID": 10, "KODE": 1101506, "KATEGORI": "Sungai / Rawa", "KETERANGAN": "Potensi banjir", "X": 634300.5, "Y": 9221006.5 }, "geometry": { "type": "Point", "coordinates": [ 112.215958006208552, -7.045861249195507 ] } },
{ "type": "Feature", "properties": { "FID": 11, "KODE": 1101507, "KATEGORI": "Sungai / Rawa", "KETERANGAN": "Potensi banjir", "X": 634300.5, "Y": 9220994.0 }, "geometry": { "type": "Point", "coordinates": [ 112.215958300831559, -7.04597429790043 ] } },
{ "type": "Feature", "properties": { "FID": 12, "KODE": 1101508, "KATEGORI": "Sungai / Rawa", "KETERANGAN": "Potensi banjir", "X": 634300.5, "Y": 9220981.5 }, "geometry": { "type": "Point", "coordinates": [ 112.215958595459398, -7.046087346604795 ] } },
{ "type": "Feature", "properties": { "FID": 13, "KODE": 1101509, "KATEGORI": "Sungai / Rawa", "KETERANGAN": "Potensi banjir", "X": 634300.5, "Y": 9220969.0 }, "geometry": { "type": "Point", "coordinates": [ 112.215958890092111, -7.046200395308603 ] } },
{ "type": "Feature", "properties": { "FID": 14, "KODE": 1101510, "KATEGORI": "Sungai / Rawa", "KETERANGAN": "Potensi banjir", "X": 634300.5, "Y": 9220956.5 }, "geometry": { "type": "Point", "coordinates": [ 112.215959184729655, -7.046313444011855 ] } },
{ "type": "Feature", "properties": { "FID": 15, "KODE": 1101511, "KATEGORI": "Sungai / Rawa", "KETERANGAN": "Potensi banjir", "X": 634300.5, "Y": 9220944.0 }, "geometry": { "type": "Point", "coordinates": [ 112.215959479372032, -7.046426492714548 ] } },
{ "type": "Feature", "properties": { "FID": 16, "KODE": 1101512, "KATEGORI": "Sungai / Rawa", "KETERANGAN": "Potensi banjir", "X": 634300.5, "Y": 9220931.5 }, "geometry": { "type": "Point", "coordinates": [ 112.215959774019268, -7.046539541416682 ] } },
{ "type": "Feature", "properties": { "FID": 17, "KODE": 1101513, "KATEGORI": "Sungai / Rawa", "KETERANGAN": "Potensi banjir", "X": 634300.5, "Y": 9220919.0 }, "geometry": { "type": "Point", "coordinates": [ 112.21596006867135, -7.046652590118261 ] } },
{ "type": "Feature", "properties": { "FID": 18, "KODE": 1101514, "KATEGORI": "Sungai / Rawa", "KETERANGAN": "Potensi banjir", "X": 634300.5, "Y": 9220906.5 }, "geometry": { "type": "Point", "coordinates": [ 112.215960363328279, -7.046765638819279 ] } },
{ "type": "Feature", "properties": { "FID": 19, "KODE": 1101515, "KATEGORI": "Sungai / Rawa", "KETERANGAN": "Potensi banjir", "X": 634300.5, "Y": 9220894.0 }, "geometry": { "type": "Point", "coordinates": [ 112.215960657990053, -7.04687868751974 ] } },
{ "type": "Feature", "properties": { "FID": 20, "KODE": 1101516, "KATEGORI": "Sungai / Rawa", "KETERANGAN": "Potensi banjir", "X": 634300.5, "Y": 9220881.5 }, "geometry": { "type": "Point", "coordinates": [ 112.215960952656673, -7.046991736219644 ] } },
{ "type": "Feature", "properties": { "FID": 21, "KODE": 1101517, "KATEGORI": "Sungai / Rawa", "KETERANGAN": "Potensi banjir", "X": 634300.5, "Y": 9220869.0 }, "geometry": { "type": "Point", "coordinates": [ 112.215961247328138, -7.04710478491899 ] } },
{ "type": "Feature", "properties": { "FID": 22, "KODE": 1101518, "KATEGORI": "Sungai / Rawa", "KETERANGAN": "Potensi banjir", "X": 634300.5, "Y": 9220856.5 }, "geometry": { "type": "Point", "coordinates": [ 112.21596154200445, -7.047217833617779 ] } },
{ "type": "Feature", "properties": { "FID": 23, "KODE": 1101519, "KATEGORI": "Sungai / Rawa", "KETERANGAN": "Potensi banjir", "X": 634300.5, "Y": 9220844.0 }, "geometry": { "type": "Point", "coordinates": [ 112.215961836685608, -7.04733088231601 ] } },
{ "type": "Feature", "properties": { "FID": 24, "KODE": 1101520, "KATEGORI": "Sungai / Rawa", "KETERANGAN": "Potensi banjir", "X": 634300.5, "Y": 9220831.5 }, "geometry": { "type": "Point", "coordinates": [ 112.215962131371626, -7.047443931013683 ] } },
{ "type": "Feature", "properties": { "FID": 25, "KODE": 1101521, "KATEGORI": "Sungai / Rawa", "KETERANGAN": "Potensi banjir", "X": 634300.5, "Y": 9220819.0 }, "geometry": { "type": "Point", "coordinates": [ 112.215962426062461, -7.047556979710799 ] } },
{ "type": "Feature", "properties": { "FID": 26, "KODE": 1101522, "KATEGORI": "Sungai / Rawa", "KETERANGAN": "Potensi banjir", "X": 634300.5, "Y": 9220806.5 }, "geometry": { "type": "Point", "coordinates": [ 112.215962720758156, -7.047670028407357 ] } },
{ "type": "Feature", "properties": { "FID": 27, "KODE": 1101523, "KATEGORI": "Sungai / Rawa", "KETERANGAN": "Potensi banjir", "X": 634300.5, "Y": 9220794.0 }, "geometry": { "type": "Point", "coordinates": [ 112.215963015458698, -7.047783077103356 ] } },
{ "type": "Feature", "properties": { "FID": 28, "KODE": 1101524, "KATEGORI": "Sungai / Rawa", "KETERANGAN": "Potensi banjir", "X": 634300.5, "Y": 9220781.59 }, "geometry": { "type": "Point", "coordinates": [ 112.215963308042205, -7.047895311848194 ] } },
{ "type": "Feature", "properties": { "FID": 29, "KODE": 1101525, "KATEGORI": "Sungai / Rawa", "KETERANGAN": "Potensi banjir", "X": 634300.5, "Y": 9220769.0 }, "geometry": { "type": "Point", "coordinates": [ 112.215963604874318, -7.048009174493682 ] } },
{ "type": "Feature", "properties": { "FID": 30, "KODE": 1101526, "KATEGORI": "Sungai / Rawa", "KETERANGAN": "Potensi banjir", "X": 634300.5, "Y": 9220756.59 }, "geometry": { "type": "Point", "coordinates": [ 112.215963897467446, -7.048121409237413 ] } },
{ "type": "Feature", "properties": { "FID": 31, "KODE": 1101527, "KATEGORI": "Sungai / Rawa", "KETERANGAN": "Potensi banjir", "X": 634300.5, "Y": 9220744.0 }, "geometry": { "type": "Point", "coordinates": [ 112.215964194309336, -7.048235271881777 ] } },
{ "type": "Feature", "properties": { "FID": 32, "KODE": 1101528, "KATEGORI": "Sungai / Rawa", "KETERANGAN": "Potensi banjir", "X": 634300.5, "Y": 9220731.59 }, "geometry": { "type": "Point", "coordinates": [ 112.215964486912071, -7.0483475066244 ] } },
{ "type": "Feature", "properties": { "FID": 33, "KODE": 1101529, "KATEGORI": "Sungai / Rawa", "KETERANGAN": "Potensi banjir", "X": 634300.5, "Y": 9220719.0 }, "geometry": { "type": "Point", "coordinates": [ 112.215964783763724, -7.048461369267641 ] } },
{ "type": "Feature", "properties": { "FID": 34, "KODE": 1101530, "KATEGORI": "Sungai / Rawa", "KETERANGAN": "Potensi banjir", "X": 634300.5, "Y": 9220706.59 }, "geometry": { "type": "Point", "coordinates": [ 112.215965076376094, -7.048573604009155 ] } },
{ "type": "Feature", "properties": { "FID": 35, "KODE": 1101531, "KATEGORI": "Sungai / Rawa", "KETERANGAN": "Potensi banjir", "X": 634300.5, "Y": 9220694.0 }, "geometry": { "type": "Point", "coordinates": [ 112.215965373237495, -7.048687466651273 ] } },
{ "type": "Feature", "properties": { "FID": 36, "KODE": 1101532, "KATEGORI": "Sungai / Rawa", "KETERANGAN": "Potensi banjir", "X": 634300.5, "Y": 9220681.59 }, "geometry": { "type": "Point", "coordinates": [ 112.215965665859486, -7.048799701391681 ] } },
{ "type": "Feature", "properties": { "FID": 37, "KODE": 1101533, "KATEGORI": "Sungai / Rawa", "KETERANGAN": "Potensi banjir", "X": 634300.5, "Y": 9220669.0 }, "geometry": { "type": "Point", "coordinates": [ 112.215965962730664, -7.048913564032673 ] } },
{ "type": "Feature", "properties": { "FID": 38, "KODE": 1101534, "KATEGORI": "Sungai / Rawa", "KETERANGAN": "Potensi banjir", "X": 634300.5, "Y": 9220656.59 }, "geometry": { "type": "Point", "coordinates": [ 112.215966255362261, -7.049025798771972 ] } },
{ "type": "Feature", "properties": { "FID": 39, "KODE": 1101535, "KATEGORI": "Sungai / Rawa", "KETERANGAN": "Potensi banjir", "X": 634300.5, "Y": 9220644.0 }, "geometry": { "type": "Point", "coordinates": [ 112.215966552243202, -7.049139661411843 ] } },
{ "type": "Feature", "properties": { "FID": 40, "KODE": 1101536, "KATEGORI": "Sungai / Rawa", "KETERANGAN": "Potensi banjir", "X": 634300.5, "Y": 9220631.59 }, "geometry": { "type": "Point", "coordinates": [ 112.215966844884434, -7.049251896150034 ] } },
{ "type": "Feature", "properties": { "FID": 41, "KODE": 1101537, "KATEGORI": "Sungai / Rawa", "KETERANGAN": "Potensi banjir", "X": 634300.5, "Y": 9220619.0 }, "geometry": { "type": "Point", "coordinates": [ 112.215967141775138, -7.04936575878878 ] } },
{ "type": "Feature", "properties": { "FID": 42, "KODE": 1101538, "KATEGORI": "Sungai / Rawa", "KETERANGAN": "Potensi banjir", "X": 634300.5, "Y": 9220606.59 }, "geometry": { "type": "Point", "coordinates": [ 112.215967434425977, -7.049477993525865 ] } },
{ "type": "Feature", "properties": { "FID": 43, "KODE": 1101539, "KATEGORI": "Sungai / Rawa", "KETERANGAN": "Potensi banjir", "X": 634300.5, "Y": 9220594.0 }, "geometry": { "type": "Point", "coordinates": [ 112.215967731326444, -7.049591856163485 ] } },
{ "type": "Feature", "properties": { "FID": 44, "KODE": 1101540, "KATEGORI": "Sungai / Rawa", "KETERANGAN": "Potensi banjir", "X": 634300.5, "Y": 9220581.59 }, "geometry": { "type": "Point", "coordinates": [ 112.215968023986918, -7.049704090899463 ] } },
{ "type": "Feature", "properties": { "FID": 45, "KODE": 1101541, "KATEGORI": "Sungai / Rawa", "KETERANGAN": "Potensi banjir", "X": 634300.5, "Y": 9220569.0 }, "geometry": { "type": "Point", "coordinates": [ 112.215968320897161, -7.04981795353596 ] } },
{ "type": "Feature", "properties": { "FID": 46, "KODE": 1101542, "KATEGORI": "Sungai / Rawa", "KETERANGAN": "Potensi banjir", "X": 634300.5, "Y": 9220556.59 }, "geometry": { "type": "Point", "coordinates": [ 112.215968613567242, -7.049930188270829 ] } },
{ "type": "Feature", "properties": { "FID": 47, "KODE": 1101543, "KATEGORI": "Sungai / Rawa", "KETERANGAN": "Potensi banjir", "X": 634300.5, "Y": 9220544.0 }, "geometry": { "type": "Point", "coordinates": [ 112.215968910487234, -7.050044050906202 ] } },
{ "type": "Feature", "properties": { "FID": 48, "KODE": 1101544, "KATEGORI": "Sungai / Rawa", "KETERANGAN": "Potensi banjir", "X": 634300.5, "Y": 9220531.59 }, "geometry": { "type": "Point", "coordinates": [ 112.215969203166964, -7.050156285639963 ] } },
{ "type": "Feature", "properties": { "FID": 49, "KODE": 1101545, "KATEGORI": "Sungai / Rawa", "KETERANGAN": "Potensi banjir", "X": 634300.5, "Y": 9220519.0 }, "geometry": { "type": "Point", "coordinates": [ 112.215969500096691, -7.050270148274212 ] } },
{ "type": "Feature", "properties": { "FID": 50, "KODE": 1101546, "KATEGORI": "Sungai / Rawa", "KETERANGAN": "Potensi banjir", "X": 634300.5, "Y": 9220506.59 }, "geometry": { "type": "Point", "coordinates": [ 112.215969792786041, -7.050382383006865 ] } },
{ "type": "Feature", "properties": { "FID": 51, "KODE": 1101547, "KATEGORI": "Sungai / Rawa", "KETERANGAN": "Potensi banjir", "X": 634300.5, "Y": 9220494.0 }, "geometry": { "type": "Point", "coordinates": [ 112.215970089725559, -7.050496245639991 ] } },
{ "type": "Feature", "properties": { "FID": 52, "KODE": 1101548, "KATEGORI": "Sungai / Rawa", "KETERANGAN": "Potensi banjir", "X": 634300.5, "Y": 9220481.59 }, "geometry": { "type": "Point", "coordinates": [ 112.21597038242453, -7.050608480371535 ] } },
{ "type": "Feature", "properties": { "FID": 53, "KODE": 1101549, "KATEGORI": "Sungai / Rawa", "KETERANGAN": "Potensi banjir", "X": 634300.5, "Y": 9220469.0 }, "geometry": { "type": "Point", "coordinates": [ 112.215970679373797, -7.050722343003538 ] } },
{ "type": "Feature", "properties": { "FID": 54, "KODE": 1101550, "KATEGORI": "Sungai / Rawa", "KETERANGAN": "Potensi banjir", "X": 634300.5, "Y": 9220456.59 }, "geometry": { "type": "Point", "coordinates": [ 112.215970972082374, -7.050834577733974 ] } },
{ "type": "Feature", "properties": { "FID": 55, "KODE": 1101551, "KATEGORI": "Sungai / Rawa", "KETERANGAN": "Potensi banjir", "X": 634300.5, "Y": 9220444.0 }, "geometry": { "type": "Point", "coordinates": [ 112.215971269041418, -7.050948440364851 ] } },
{ "type": "Feature", "properties": { "FID": 56, "KODE": 1101552, "KATEGORI": "Sungai / Rawa", "KETERANGAN": "Potensi banjir", "X": 634300.5, "Y": 9220431.59 }, "geometry": { "type": "Point", "coordinates": [ 112.215971561759631, -7.051060675094179 ] } },
{ "type": "Feature", "properties": { "FID": 57, "KODE": 1101553, "KATEGORI": "Sungai / Rawa", "KETERANGAN": "Potensi banjir", "X": 634300.5, "Y": 9220419.0 }, "geometry": { "type": "Point", "coordinates": [ 112.215971858728437, -7.051174537723933 ] } },
{ "type": "Feature", "properties": { "FID": 58, "KODE": 1101554, "KATEGORI": "Sungai / Rawa", "KETERANGAN": "Potensi banjir", "X": 634300.5, "Y": 9220406.59 }, "geometry": { "type": "Point", "coordinates": [ 112.21597215145627, -7.051286772452153 ] } },
{ "type": "Feature", "properties": { "FID": 59, "KODE": 1101555, "KATEGORI": "Sungai / Rawa", "KETERANGAN": "Potensi banjir", "X": 634300.5, "Y": 9220394.0 }, "geometry": { "type": "Point", "coordinates": [ 112.215972448434826, -7.051400635080784 ] } },
{ "type": "Feature", "properties": { "FID": 60, "KODE": 1101556, "KATEGORI": "Sungai / Rawa", "KETERANGAN": "Potensi banjir", "X": 634300.5, "Y": 9220381.59 }, "geometry": { "type": "Point", "coordinates": [ 112.215972741172266, -7.051512869807897 ] } },
{ "type": "Feature", "properties": { "FID": 61, "KODE": 1101557, "KATEGORI": "Sungai / Rawa", "KETERANGAN": "Potensi banjir", "X": 634300.5, "Y": 9220369.0 }, "geometry": { "type": "Point", "coordinates": [ 112.215973038160598, -7.051626732435402 ] } },
{ "type": "Feature", "properties": { "FID": 62, "KODE": 1101558, "KATEGORI": "Sungai / Rawa", "KETERANGAN": "Potensi banjir", "X": 634300.5, "Y": 9220356.59 }, "geometry": { "type": "Point", "coordinates": [ 112.215973330907673, -7.051738967161405 ] } },
{ "type": "Feature", "properties": { "FID": 63, "KODE": 1101559, "KATEGORI": "Sungai / Rawa", "KETERANGAN": "Potensi banjir", "X": 634300.5, "Y": 9220344.0 }, "geometry": { "type": "Point", "coordinates": [ 112.215973627905768, -7.051852829787785 ] } },
{ "type": "Feature", "properties": { "FID": 64, "KODE": 1101560, "KATEGORI": "Sungai / Rawa", "KETERANGAN": "Potensi banjir", "X": 634300.5, "Y": 9220331.59 }, "geometry": { "type": "Point", "coordinates": [ 112.215973920662464, -7.051965064512681 ] } },
{ "type": "Feature", "properties": { "FID": 65, "KODE": 1101561, "KATEGORI": "Sungai / Rawa", "KETERANGAN": "Potensi banjir", "X": 634300.5, "Y": 9220319.0 }, "geometry": { "type": "Point", "coordinates": [ 112.215974217670322, -7.052078927137939 ] } },
{ "type": "Feature", "properties": { "FID": 66, "KODE": 1101562, "KATEGORI": "Sungai / Rawa", "KETERANGAN": "Potensi banjir", "X": 634300.5, "Y": 9220306.59 }, "geometry": { "type": "Point", "coordinates": [ 112.215974510436638, -7.052191161861726 ] } },
{ "type": "Feature", "properties": { "FID": 67, "KODE": 1101563, "KATEGORI": "Sungai / Rawa", "KETERANGAN": "Potensi banjir", "X": 634300.5, "Y": 9220294.0 }, "geometry": { "type": "Point", "coordinates": [ 112.215974807454245, -7.052305024485858 ] } },
{ "type": "Feature", "properties": { "FID": 68, "KODE": 1101564, "KATEGORI": "Sungai / Rawa", "KETERANGAN": "Potensi banjir", "X": 634300.5, "Y": 9220281.59 }, "geometry": { "type": "Point", "coordinates": [ 112.215975100230196, -7.052417259208539 ] } },
{ "type": "Feature", "properties": { "FID": 69, "KODE": 1101565, "KATEGORI": "Sungai / Rawa", "KETERANGAN": "Potensi banjir", "X": 634300.5, "Y": 9220269.0 }, "geometry": { "type": "Point", "coordinates": [ 112.215975397257566, -7.052531121831547 ] } },
{ "type": "Feature", "properties": { "FID": 70, "KODE": 1101566, "KATEGORI": "Sungai / Rawa", "KETERANGAN": "Potensi banjir", "X": 634300.5, "Y": 9220256.59 }, "geometry": { "type": "Point", "coordinates": [ 112.215975690043138, -7.052643356553117 ] } },
{ "type": "Feature", "properties": { "FID": 71, "KODE": 1101567, "KATEGORI": "Sungai / Rawa", "KETERANGAN": "Potensi banjir", "X": 634300.5, "Y": 9220244.0 }, "geometry": { "type": "Point", "coordinates": [ 112.215975987080284, -7.052757219175001 ] } },
{ "type": "Feature", "properties": { "FID": 72, "KODE": 1101568, "KATEGORI": "Sungai / Rawa", "KETERANGAN": "Potensi banjir", "X": 634300.5, "Y": 9220231.59 }, "geometry": { "type": "Point", "coordinates": [ 112.215976279875463, -7.052869453895465 ] } },
{ "type": "Feature", "properties": { "FID": 73, "KODE": 1101569, "KATEGORI": "Sungai / Rawa", "KETERANGAN": "Potensi banjir", "X": 634300.5, "Y": 9220219.0 }, "geometry": { "type": "Point", "coordinates": [ 112.215976576922358, -7.052983316516224 ] } },
{ "type": "Feature", "properties": { "FID": 74, "KODE": 1101570, "KATEGORI": "Sungai / Rawa", "KETERANGAN": "Potensi banjir", "X": 634300.5, "Y": 9220206.59 }, "geometry": { "type": "Point", "coordinates": [ 112.215976869727172, -7.053095551235579 ] } },
{ "type": "Feature", "properties": { "FID": 75, "KODE": 1101571, "KATEGORI": "Sungai / Rawa", "KETERANGAN": "Potensi banjir", "X": 634300.5, "Y": 9220194.0 }, "geometry": { "type": "Point", "coordinates": [ 112.215977166783844, -7.053209413855213 ] } },
{ "type": "Feature", "properties": { "FID": 76, "KODE": 1101572, "KATEGORI": "Sungai / Rawa", "KETERANGAN": "Potensi banjir", "X": 634300.5, "Y": 9220181.59 }, "geometry": { "type": "Point", "coordinates": [ 112.215977459598278, -7.053321648573459 ] } },
{ "type": "Feature", "properties": { "FID": 77, "KODE": 1101573, "KATEGORI": "Sungai / Rawa", "KETERANGAN": "Potensi banjir", "X": 634300.5, "Y": 9220169.0 }, "geometry": { "type": "Point", "coordinates": [ 112.215977756664714, -7.053435511191969 ] } },
{ "type": "Feature", "properties": { "FID": 78, "KODE": 1101574, "KATEGORI": "Sungai / Rawa", "KETERANGAN": "Potensi banjir", "X": 634300.5, "Y": 9220156.59 }, "geometry": { "type": "Point", "coordinates": [ 112.215978049488754, -7.053547745909108 ] } },
{ "type": "Feature", "properties": { "FID": 79, "KODE": 1101575, "KATEGORI": "Sungai / Rawa", "KETERANGAN": "Potensi banjir", "X": 634300.5, "Y": 9220144.0 }, "geometry": { "type": "Point", "coordinates": [ 112.215978346564953, -7.053661608526492 ] } },
{ "type": "Feature", "properties": { "FID": 80, "KODE": 1101576, "KATEGORI": "Sungai / Rawa", "KETERANGAN": "Potensi banjir", "X": 634300.5, "Y": 9220131.59 }, "geometry": { "type": "Point", "coordinates": [ 112.215978639398628, -7.053773843242523 ] } },
{ "type": "Feature", "properties": { "FID": 81, "KODE": 1101577, "KATEGORI": "Sungai / Rawa", "KETERANGAN": "Potensi banjir", "X": 634300.5, "Y": 9220119.0 }, "geometry": { "type": "Point", "coordinates": [ 112.215978936484589, -7.053887705858785 ] } },
{ "type": "Feature", "properties": { "FID": 82, "KODE": 1101578, "KATEGORI": "Sungai / Rawa", "KETERANGAN": "Potensi banjir", "X": 634300.5, "Y": 9220106.59 }, "geometry": { "type": "Point", "coordinates": [ 112.215979229327885, -7.053999940573704 ] } },
{ "type": "Feature", "properties": { "FID": 83, "KODE": 1101579, "KATEGORI": "Sungai / Rawa", "KETERANGAN": "Potensi banjir", "X": 634300.5, "Y": 9220094.0 }, "geometry": { "type": "Point", "coordinates": [ 112.215979526423595, -7.054113803188842 ] } },
{ "type": "Feature", "properties": { "FID": 84, "KODE": 1101580, "KATEGORI": "Sungai / Rawa", "KETERANGAN": "Potensi banjir", "X": 634300.5, "Y": 9220081.59 }, "geometry": { "type": "Point", "coordinates": [ 112.215979819276527, -7.054226037902653 ] } },
{ "type": "Feature", "properties": { "FID": 85, "KODE": 1101332, "KATEGORI": "Binatang Berbahaya", "KETERANGAN": "Ular", "X": 634300.5, "Y": 9223181.5 }, "geometry": { "type": "Point", "coordinates": [ 112.215906815580766, -7.026190766056362 ] } },
{ "type": "Feature", "properties": { "FID": 86, "KODE": 1101331, "KATEGORI": "Binatang Berbahaya", "KETERANGAN": "Ular", "X": 634300.5, "Y": 9223194.0 }, "geometry": { "type": "Point", "coordinates": [ 112.215906521805721, -7.026077717253983 ] } },
{ "type": "Feature", "properties": { "FID": 87, "KODE": 1121628, "KATEGORI": "Sungai / Rawa", "KETERANGAN": "Lumpur hisap", "X": 635300.5, "Y": 9219181.59 }, "geometry": { "type": "Point", "coordinates": [ 112.225053996097373, -7.062341849822958 ] } },
{ "type": "Feature", "properties": { "FID": 88, "KODE": 1121627, "KATEGORI": "Sungai / Rawa", "KETERANGAN": "Lumpur hisap", "X": 635300.5, "Y": 9219194.0 }, "geometry": { "type": "Point", "coordinates": [ 112.225053700716501, -7.062229615529251 ] } },
{ "type": "Feature", "properties": { "FID": 89, "KODE": 1121626, "KATEGORI": "Sungai / Rawa", "KETERANGAN": "Lumpur hisap", "X": 635300.5, "Y": 9219206.59 }, "geometry": { "type": "Point", "coordinates": [ 112.225053401056215, -7.062115753340313 ] } },
{ "type": "Feature", "properties": { "FID": 90, "KODE": 1121625, "KATEGORI": "Sungai / Rawa", "KETERANGAN": "Lumpur hisap", "X": 635300.5, "Y": 9219219.0 }, "geometry": { "type": "Point", "coordinates": [ 112.225053105685049, -7.062003519045496 ] } },
{ "type": "Feature", "properties": { "FID": 91, "KODE": 1121624, "KATEGORI": "Sungai / Rawa", "KETERANGAN": "Lumpur hisap", "X": 635300.5, "Y": 9219231.59 }, "geometry": { "type": "Point", "coordinates": [ 112.225052806034597, -7.061889656855432 ] } },
{ "type": "Feature", "properties": { "FID": 92, "KODE": 1121623, "KATEGORI": "Sungai / Rawa", "KETERANGAN": "Lumpur hisap", "X": 635300.5, "Y": 9219244.0 }, "geometry": { "type": "Point", "coordinates": [ 112.225052510673123, -7.061777422559505 ] } },
{ "type": "Feature", "properties": { "FID": 93, "KODE": 1121622, "KATEGORI": "Sungai / Rawa", "KETERANGAN": "Lumpur hisap", "X": 635300.5, "Y": 9219256.59 }, "geometry": { "type": "Point", "coordinates": [ 112.225052211032519, -7.061663560368315 ] } },
{ "type": "Feature", "properties": { "FID": 94, "KODE": 1121621, "KATEGORI": "Sungai / Rawa", "KETERANGAN": "Lumpur hisap", "X": 635300.5, "Y": 9219269.0 }, "geometry": { "type": "Point", "coordinates": [ 112.225051915680723, -7.061551326071279 ] } },
{ "type": "Feature", "properties": { "FID": 95, "KODE": 1121620, "KATEGORI": "Sungai / Rawa", "KETERANGAN": "Lumpur hisap", "X": 635300.5, "Y": 9219281.59 }, "geometry": { "type": "Point", "coordinates": [ 112.225051616049953, -7.061437463878962 ] } },
{ "type": "Feature", "properties": { "FID": 96, "KODE": 1121619, "KATEGORI": "Sungai / Rawa", "KETERANGAN": "Lumpur hisap", "X": 635300.5, "Y": 9219294.0 }, "geometry": { "type": "Point", "coordinates": [ 112.225051320707877, -7.061325229580815 ] } },
{ "type": "Feature", "properties": { "FID": 97, "KODE": 1121618, "KATEGORI": "Sungai / Rawa", "KETERANGAN": "Lumpur hisap", "X": 635300.5, "Y": 9219306.59 }, "geometry": { "type": "Point", "coordinates": [ 112.225051021086941, -7.061211367387373 ] } },
{ "type": "Feature", "properties": { "FID": 98, "KODE": 1121617, "KATEGORI": "Sungai / Rawa", "KETERANGAN": "Lumpur hisap", "X": 635300.5, "Y": 9219319.0 }, "geometry": { "type": "Point", "coordinates": [ 112.225050725754542, -7.061099133088115 ] } },
{ "type": "Feature", "properties": { "FID": 99, "KODE": 1121616, "KATEGORI": "Sungai / Rawa", "KETERANGAN": "Lumpur hisap", "X": 635300.5, "Y": 9219331.59 }, "geometry": { "type": "Point", "coordinates": [ 112.22505042614344, -7.060985270893546 ] } },
{ "type": "Feature", "properties": { "FID": 100, "KODE": 1121615, "KATEGORI": "Sungai / Rawa", "KETERANGAN": "Lumpur hisap", "X": 635300.5, "Y": 9219344.0 }, "geometry": { "type": "Point", "coordinates": [ 112.225050130820748, -7.06087303659318 ] } },
{ "type": "Feature", "properties": { "FID": 101, "KODE": 1121614, "KATEGORI": "Sungai / Rawa", "KETERANGAN": "Lumpur hisap", "X": 635300.5, "Y": 9219356.59 }, "geometry": { "type": "Point", "coordinates": [ 112.225049831219479, -7.060759174397487 ] } },
{ "type": "Feature", "properties": { "FID": 102, "KODE": 1121613, "KATEGORI": "Sungai / Rawa", "KETERANGAN": "Lumpur hisap", "X": 635300.5, "Y": 9219369.0 }, "geometry": { "type": "Point", "coordinates": [ 112.225049535906479, -7.060646940096009 ] } },
{ "type": "Feature", "properties": { "FID": 103, "KODE": 1121612, "KATEGORI": "Sungai / Rawa", "KETERANGAN": "Lumpur hisap", "X": 635300.5, "Y": 9219381.59 }, "geometry": { "type": "Point", "coordinates": [ 112.225049236315058, -7.060533077899189 ] } },
{ "type": "Feature", "properties": { "FID": 104, "KODE": 1121611, "KATEGORI": "Sungai / Rawa", "KETERANGAN": "Lumpur hisap", "X": 635300.5, "Y": 9219394.0 }, "geometry": { "type": "Point", "coordinates": [ 112.22504894101175, -7.060420843596601 ] } },
{ "type": "Feature", "properties": { "FID": 105, "KODE": 1121610, "KATEGORI": "Sungai / Rawa", "KETERANGAN": "Lumpur hisap", "X": 635300.5, "Y": 9219406.59 }, "geometry": { "type": "Point", "coordinates": [ 112.225048641430149, -7.060306981398654 ] } },
{ "type": "Feature", "properties": { "FID": 106, "KODE": 1121040, "KATEGORI": "Lainnya", "KETERANGAN": "Bahaya listrik", "X": 635300.5, "Y": 9226531.5 }, "geometry": { "type": "Point", "coordinates": [ 112.224879897169131, -6.995870201847424 ] } },
{ "type": "Feature", "properties": { "FID": 107, "KODE": 1121041, "KATEGORI": "Lainnya", "KETERANGAN": "Bahaya listrik", "X": 635300.5, "Y": 9226519.0 }, "geometry": { "type": "Point", "coordinates": [ 112.224880191826927, -6.995983250415144 ] } },
{ "type": "Feature", "properties": { "FID": 108, "KODE": 1121042, "KATEGORI": "Lainnya", "KETERANGAN": "Bahaya listrik", "X": 635300.5, "Y": 9226506.5 }, "geometry": { "type": "Point", "coordinates": [ 112.224880486489596, -6.996096298982311 ] } },
{ "type": "Feature", "properties": { "FID": 109, "KODE": 1121043, "KATEGORI": "Lainnya", "KETERANGAN": "Bahaya listrik", "X": 635300.5, "Y": 9226494.0 }, "geometry": { "type": "Point", "coordinates": [ 112.22488078115714, -6.996209347548922 ] } },
{ "type": "Feature", "properties": { "FID": 110, "KODE": 1121044, "KATEGORI": "Lainnya", "KETERANGAN": "Bahaya listrik", "X": 635300.5, "Y": 9226481.5 }, "geometry": { "type": "Point", "coordinates": [ 112.224881075829586, -6.996322396114979 ] } },
{ "type": "Feature", "properties": { "FID": 111, "KODE": 1121045, "KATEGORI": "Lainnya", "KETERANGAN": "Bahaya listrik", "X": 635300.5, "Y": 9226469.0 }, "geometry": { "type": "Point", "coordinates": [ 112.224881370506893, -6.996435444680483 ] } },
{ "type": "Feature", "properties": { "FID": 112, "KODE": 1121046, "KATEGORI": "Lainnya", "KETERANGAN": "Bahaya listrik", "X": 635300.5, "Y": 9226456.5 }, "geometry": { "type": "Point", "coordinates": [ 112.224881665189073, -6.996548493245434 ] } },
{ "type": "Feature", "properties": { "FID": 113, "KODE": 1121047, "KATEGORI": "Lainnya", "KETERANGAN": "Bahaya listrik", "X": 635300.5, "Y": 9226444.0 }, "geometry": { "type": "Point", "coordinates": [ 112.224881959876157, -6.99666154180983 ] } },
{ "type": "Feature", "properties": { "FID": 114, "KODE": 1121048, "KATEGORI": "Lainnya", "KETERANGAN": "Bahaya listrik", "X": 635300.5, "Y": 9226431.5 }, "geometry": { "type": "Point", "coordinates": [ 112.224882254568087, -6.99677459037367 ] } },
{ "type": "Feature", "properties": { "FID": 115, "KODE": 1121049, "KATEGORI": "Lainnya", "KETERANGAN": "Bahaya listrik", "X": 635300.5, "Y": 9226419.0 }, "geometry": { "type": "Point", "coordinates": [ 112.224882549264919, -6.996887638936958 ] } },
{ "type": "Feature", "properties": { "FID": 116, "KODE": 1121050, "KATEGORI": "Lainnya", "KETERANGAN": "Bahaya listrik", "X": 635300.5, "Y": 9226406.5 }, "geometry": { "type": "Point", "coordinates": [ 112.224882843966626, -6.997000687499693 ] } },
{ "type": "Feature", "properties": { "FID": 117, "KODE": 1121051, "KATEGORI": "Lainnya", "KETERANGAN": "Bahaya listrik", "X": 635300.5, "Y": 9226394.0 }, "geometry": { "type": "Point", "coordinates": [ 112.224883138673221, -6.997113736061872 ] } },
{ "type": "Feature", "properties": { "FID": 118, "KODE": 1151786, "KATEGORI": "Lainnya", "KETERANGAN": "Sarang Tawon", "X": 634394.3, "Y": 9215800.39 }, "geometry": { "type": "Point", "coordinates": [ 112.216930354385312, -7.09294249591243 ] } },
{ "type": "Feature", "properties": { "FID": 119, "KODE": 1151787, "KATEGORI": "Lainnya", "KETERANGAN": "Sarang Tawon", "X": 634406.8, "Y": 9215800.3 }, "geometry": { "type": "Point", "coordinates": [ 112.217043525696511, -7.092943013317649 ] } },
{ "type": "Feature", "properties": { "FID": 120, "KODE": 1151788, "KATEGORI": "Lainnya", "KETERANGAN": "Sarang Tawon", "X": 634419.3, "Y": 9215800.39 }, "geometry": { "type": "Point", "coordinates": [ 112.217156692727855, -7.092941902797893 ] } },
{ "type": "Feature", "properties": { "FID": 209, "KODE": 1151836, "KATEGORI": "Sungai/Rawa", "KETERANGAN": "Sungai", "X": 635019.3, "Y": 9215800.39 }, "geometry": { "type": "Point", "coordinates": [ 112.222588807117191, -7.092927634977661 ] } },
{ "type": "Feature", "properties": { "FID": 210, "KODE": 1161834, "KATEGORI": "Sungai/Rawa", "KETERANGAN": "Lumpur hisap", "X": 637300.5, "Y": 9216756.59 }, "geometry": { "type": "Point", "coordinates": [ 112.243218419365164, -7.084225140065143 ] } },
{ "type": "Feature", "properties": { "FID": 211, "KODE": 1161835, "KATEGORI": "Sungai/Rawa", "KETERANGAN": "Lumpur hisap", "X": 637300.5, "Y": 9216744.0 }, "geometry": { "type": "Point", "coordinates": [ 112.243218724429823, -7.084339001363513 ] } },
{ "type": "Feature", "properties": { "FID": 212, "KODE": 1161836, "KATEGORI": "Sungai/Rawa", "KETERANGAN": "Lumpur hisap", "X": 637300.5, "Y": 9216731.59 }, "geometry": { "type": "Point", "coordinates": [ 112.243219025137861, -7.08445123477938 ] } },
{ "type": "Feature", "properties": { "FID": 213, "KODE": 1161806, "KATEGORI": "Lainnya", "KETERANGAN": "Bahaya listrik", "X": 637300.5, "Y": 9217106.59 }, "geometry": { "type": "Point", "coordinates": [ 112.24320994062883, -7.081059813830167 ] } },
{ "type": "Feature", "properties": { "FID": 214, "KODE": 1161807, "KATEGORI": "Lainnya", "KETERANGAN": "Bahaya listrik", "X": 637300.5, "Y": 9217094.0 }, "geometry": { "type": "Point", "coordinates": [ 112.243210245553712, -7.081173675144357 ] } },
{ "type": "Feature", "properties": { "FID": 215, "KODE": 1161808, "KATEGORI": "Lainnya", "KETERANGAN": "Bahaya listrik", "X": 637300.5, "Y": 9217081.59 }, "geometry": { "type": "Point", "coordinates": [ 112.24321054612399, -7.081285908575823 ] } },
{ "type": "Feature", "properties": { "FID": 216, "KODE": 1161809, "KATEGORI": "Lainnya", "KETERANGAN": "Bahaya listrik", "X": 637300.5, "Y": 9217069.0 }, "geometry": { "type": "Point", "coordinates": [ 112.243210851058862, -7.081399769888884 ] } },
{ "type": "Feature", "properties": { "FID": 217, "KODE": 1161810, "KATEGORI": "Lainnya", "KETERANGAN": "Bahaya listrik", "X": 637300.5, "Y": 9217056.59 }, "geometry": { "type": "Point", "coordinates": [ 112.243211151638974, -7.081512003319235 ] } },
{ "type": "Feature", "properties": { "FID": 218, "KODE": 1161811, "KATEGORI": "Lainnya", "KETERANGAN": "Bahaya listrik", "X": 637300.5, "Y": 9217044.0 }, "geometry": { "type": "Point", "coordinates": [ 112.243211456583836, -7.081625864631167 ] } },
{ "type": "Feature", "properties": { "FID": 219, "KODE": 1161812, "KATEGORI": "Lainnya", "KETERANGAN": "Bahaya listrik", "X": 637300.5, "Y": 9217031.59 }, "geometry": { "type": "Point", "coordinates": [ 112.243211757173796, -7.081738098060403 ] } },
{ "type": "Feature", "properties": { "FID": 235, "KODE": 1101496, "KATEGORI": "Sungai / Rawa", "KETERANGAN": "Potensi banjir", "X": 634300.5, "Y": 9221131.5 }, "geometry": { "type": "Point", "coordinates": [ 112.215955060245022, -7.044730762115604 ] } },
{ "type": "Feature", "properties": { "FID": 236, "KODE": 1101497, "KATEGORI": "Sungai / Rawa", "KETERANGAN": "Potensi banjir", "X": 634300.5, "Y": 9221119.0 }, "geometry": { "type": "Point", "coordinates": [ 112.21595535481957, -7.044843810826102 ] } },
{ "type": "Feature", "properties": { "FID": 237, "KODE": 1101498, "KATEGORI": "Sungai / Rawa", "KETERANGAN": "Potensi banjir", "X": 634300.5, "Y": 9221106.5 }, "geometry": { "type": "Point", "coordinates": [ 112.21595564939895, -7.044956859536045 ] } },
{ "type": "Feature", "properties": { "FID": 238, "KODE": 1101499, "KATEGORI": "Sungai / Rawa", "KETERANGAN": "Potensi banjir", "X": 634300.5, "Y": 9221094.0 }, "geometry": { "type": "Point", "coordinates": [ 112.215955943983204, -7.04506990824543 ] } },
{ "type": "Feature", "properties": { "FID": 239, "KODE": 1101500, "KATEGORI": "Sungai / Rawa", "KETERANGAN": "Potensi banjir", "X": 634300.5, "Y": 9221081.5 }, "geometry": { "type": "Point", "coordinates": [ 112.215956238572275, -7.045182956954256 ] } },
{ "type": "Feature", "properties": { "FID": 240, "KODE": 1101501, "KATEGORI": "Sungai / Rawa", "KETERANGAN": "Potensi banjir", "X": 634300.5, "Y": 9221069.0 }, "geometry": { "type": "Point", "coordinates": [ 112.215956533166207, -7.045296005662526 ] } },
{ "type": "Feature", "properties": { "FID": 241, "KODE": 1101502, "KATEGORI": "Sungai / Rawa", "KETERANGAN": "Potensi banjir", "X": 634300.5, "Y": 9221056.5 }, "geometry": { "type": "Point", "coordinates": [ 112.215956827764984, -7.045409054370237 ] } },
{ "type": "Feature", "properties": { "FID": 242, "KODE": 1101503, "KATEGORI": "Sungai / Rawa", "KETERANGAN": "Potensi banjir", "X": 634300.5, "Y": 9221044.0 }, "geometry": { "type": "Point", "coordinates": [ 112.215957122368607, -7.045522103077391 ] } },
{ "type": "Feature", "properties": { "FID": 243, "KODE": 1101504, "KATEGORI": "Sungai / Rawa", "KETERANGAN": "Potensi banjir", "X": 634300.5, "Y": 9221031.5 }, "geometry": { "type": "Point", "coordinates": [ 112.215957416977076, -7.045635151783986 ] } },
{ "type": "Feature", "properties": { "FID": 244, "KODE": 1101505, "KATEGORI": "Sungai / Rawa", "KETERANGAN": "Potensi banjir", "X": 634300.5, "Y": 9221019.0 }, "geometry": { "type": "Point", "coordinates": [ 112.215957711590391, -7.045748200490026 ] } },
{ "type": "Feature", "properties": { "FID": 245, "KODE": 1101506, "KATEGORI": "Sungai / Rawa", "KETERANGAN": "Potensi banjir", "X": 634300.5, "Y": 9221006.5 }, "geometry": { "type": "Point", "coordinates": [ 112.215958006208552, -7.045861249195507 ] } },
{ "type": "Feature", "properties": { "FID": 246, "KODE": 1101507, "KATEGORI": "Sungai / Rawa", "KETERANGAN": "Potensi banjir", "X": 634300.5, "Y": 9220994.0 }, "geometry": { "type": "Point", "coordinates": [ 112.215958300831559, -7.04597429790043 ] } },
{ "type": "Feature", "properties": { "FID": 247, "KODE": 1101508, "KATEGORI": "Sungai / Rawa", "KETERANGAN": "Potensi banjir", "X": 634300.5, "Y": 9220981.5 }, "geometry": { "type": "Point", "coordinates": [ 112.215958595459398, -7.046087346604795 ] } },
{ "type": "Feature", "properties": { "FID": 248, "KODE": 1101509, "KATEGORI": "Sungai / Rawa", "KETERANGAN": "Potensi banjir", "X": 634300.5, "Y": 9220969.0 }, "geometry": { "type": "Point", "coordinates": [ 112.215958890092111, -7.046200395308603 ] } },
{ "type": "Feature", "properties": { "FID": 249, "KODE": 1101510, "KATEGORI": "Sungai / Rawa", "KETERANGAN": "Potensi banjir", "X": 634300.5, "Y": 9220956.5 }, "geometry": { "type": "Point", "coordinates": [ 112.215959184729655, -7.046313444011855 ] } },
{ "type": "Feature", "properties": { "FID": 250, "KODE": 1101511, "KATEGORI": "Sungai / Rawa", "KETERANGAN": "Potensi banjir", "X": 634300.5, "Y": 9220944.0 }, "geometry": { "type": "Point", "coordinates": [ 112.215959479372032, -7.046426492714548 ] } },
{ "type": "Feature", "properties": { "FID": 251, "KODE": 1101512, "KATEGORI": "Sungai / Rawa", "KETERANGAN": "Potensi banjir", "X": 634300.5, "Y": 9220931.5 }, "geometry": { "type": "Point", "coordinates": [ 112.215959774019268, -7.046539541416682 ] } },
{ "type": "Feature", "properties": { "FID": 252, "KODE": 1101513, "KATEGORI": "Sungai / Rawa", "KETERANGAN": "Potensi banjir", "X": 634300.5, "Y": 9220919.0 }, "geometry": { "type": "Point", "coordinates": [ 112.21596006867135, -7.046652590118261 ] } },
{ "type": "Feature", "properties": { "FID": 253, "KODE": 1101514, "KATEGORI": "Sungai / Rawa", "KETERANGAN": "Potensi banjir", "X": 634300.5, "Y": 9220906.5 }, "geometry": { "type": "Point", "coordinates": [ 112.215960363328279, -7.046765638819279 ] } },
{ "type": "Feature", "properties": { "FID": 254, "KODE": 1101515, "KATEGORI": "Sungai / Rawa", "KETERANGAN": "Potensi banjir", "X": 634300.5, "Y": 9220894.0 }, "geometry": { "type": "Point", "coordinates": [ 112.215960657990053, -7.04687868751974 ] } },
{ "type": "Feature", "properties": { "FID": 255, "KODE": 1101516, "KATEGORI": "Sungai / Rawa", "KETERANGAN": "Potensi banjir", "X": 634300.5, "Y": 9220881.5 }, "geometry": { "type": "Point", "coordinates": [ 112.215960952656673, -7.046991736219644 ] } },
{ "type": "Feature", "properties": { "FID": 256, "KODE": 1101517, "KATEGORI": "Sungai / Rawa", "KETERANGAN": "Potensi banjir", "X": 634300.5, "Y": 9220869.0 }, "geometry": { "type": "Point", "coordinates": [ 112.215961247328138, -7.04710478491899 ] } },
{ "type": "Feature", "properties": { "FID": 257, "KODE": 1101518, "KATEGORI": "Sungai / Rawa", "KETERANGAN": "Potensi banjir", "X": 634300.5, "Y": 9220856.5 }, "geometry": { "type": "Point", "coordinates": [ 112.21596154200445, -7.047217833617779 ] } },
{ "type": "Feature", "properties": { "FID": 258, "KODE": 1101519, "KATEGORI": "Sungai / Rawa", "KETERANGAN": "Potensi banjir", "X": 634300.5, "Y": 9220844.0 }, "geometry": { "type": "Point", "coordinates": [ 112.215961836685608, -7.04733088231601 ] } },
{ "type": "Feature", "properties": { "FID": 259, "KODE": 1101520, "KATEGORI": "Sungai / Rawa", "KETERANGAN": "Potensi banjir", "X": 634300.5, "Y": 9220831.5 }, "geometry": { "type": "Point", "coordinates": [ 112.215962131371626, -7.047443931013683 ] } },
{ "type": "Feature", "properties": { "FID": 260, "KODE": 1101521, "KATEGORI": "Sungai / Rawa", "KETERANGAN": "Potensi banjir", "X": 634300.5, "Y": 9220819.0 }, "geometry": { "type": "Point", "coordinates": [ 112.215962426062461, -7.047556979710799 ] } },
{ "type": "Feature", "properties": { "FID": 261, "KODE": 1101522, "KATEGORI": "Sungai / Rawa", "KETERANGAN": "Potensi banjir", "X": 634300.5, "Y": 9220806.5 }, "geometry": { "type": "Point", "coordinates": [ 112.215962720758156, -7.047670028407357 ] } },
{ "type": "Feature", "properties": { "FID": 262, "KODE": 1101523, "KATEGORI": "Sungai / Rawa", "KETERANGAN": "Potensi banjir", "X": 634300.5, "Y": 9220794.0 }, "geometry": { "type": "Point", "coordinates": [ 112.215963015458698, -7.047783077103356 ] } },
{ "type": "Feature", "properties": { "FID": 263, "KODE": 1101524, "KATEGORI": "Sungai / Rawa", "KETERANGAN": "Potensi banjir", "X": 634300.5, "Y": 9220781.59 }, "geometry": { "type": "Point", "coordinates": [ 112.215963308042205, -7.047895311848194 ] } },
{ "type": "Feature", "properties": { "FID": 264, "KODE": 1101525, "KATEGORI": "Sungai / Rawa", "KETERANGAN": "Potensi banjir", "X": 634300.5, "Y": 9220769.0 }, "geometry": { "type": "Point", "coordinates": [ 112.215963604874318, -7.048009174493682 ] } },
{ "type": "Feature", "properties": { "FID": 265, "KODE": 1101526, "KATEGORI": "Sungai / Rawa", "KETERANGAN": "Potensi banjir", "X": 634300.5, "Y": 9220756.59 }, "geometry": { "type": "Point", "coordinates": [ 112.215963897467446, -7.048121409237413 ] } },
{ "type": "Feature", "properties": { "FID": 266, "KODE": 1101527, "KATEGORI": "Sungai / Rawa", "KETERANGAN": "Potensi banjir", "X": 634300.5, "Y": 9220744.0 }, "geometry": { "type": "Point", "coordinates": [ 112.215964194309336, -7.048235271881777 ] } },
{ "type": "Feature", "properties": { "FID": 267, "KODE": 1101528, "KATEGORI": "Sungai / Rawa", "KETERANGAN": "Potensi banjir", "X": 634300.5, "Y": 9220731.59 }, "geometry": { "type": "Point", "coordinates": [ 112.215964486912071, -7.0483475066244 ] } },
{ "type": "Feature", "properties": { "FID": 268, "KODE": 1101529, "KATEGORI": "Sungai / Rawa", "KETERANGAN": "Potensi banjir", "X": 634300.5, "Y": 9220719.0 }, "geometry": { "type": "Point", "coordinates": [ 112.215964783763724, -7.048461369267641 ] } },
{ "type": "Feature", "properties": { "FID": 269, "KODE": 1101530, "KATEGORI": "Sungai / Rawa", "KETERANGAN": "Potensi banjir", "X": 634300.5, "Y": 9220706.59 }, "geometry": { "type": "Point", "coordinates": [ 112.215965076376094, -7.048573604009155 ] } },
{ "type": "Feature", "properties": { "FID": 270, "KODE": 1101531, "KATEGORI": "Sungai / Rawa", "KETERANGAN": "Potensi banjir", "X": 634300.5, "Y": 9220694.0 }, "geometry": { "type": "Point", "coordinates": [ 112.215965373237495, -7.048687466651273 ] } },
{ "type": "Feature", "properties": { "FID": 271, "KODE": 1101532, "KATEGORI": "Sungai / Rawa", "KETERANGAN": "Potensi banjir", "X": 634300.5, "Y": 9220681.59 }, "geometry": { "type": "Point", "coordinates": [ 112.215965665859486, -7.048799701391681 ] } },
{ "type": "Feature", "properties": { "FID": 272, "KODE": 1101533, "KATEGORI": "Sungai / Rawa", "KETERANGAN": "Potensi banjir", "X": 634300.5, "Y": 9220669.0 }, "geometry": { "type": "Point", "coordinates": [ 112.215965962730664, -7.048913564032673 ] } },
{ "type": "Feature", "properties": { "FID": 273, "KODE": 1101534, "KATEGORI": "Sungai / Rawa", "KETERANGAN": "Potensi banjir", "X": 634300.5, "Y": 9220656.59 }, "geometry": { "type": "Point", "coordinates": [ 112.215966255362261, -7.049025798771972 ] } },
{ "type": "Feature", "properties": { "FID": 274, "KODE": 1101535, "KATEGORI": "Sungai / Rawa", "KETERANGAN": "Potensi banjir", "X": 634300.5, "Y": 9220644.0 }, "geometry": { "type": "Point", "coordinates": [ 112.215966552243202, -7.049139661411843 ] } },
{ "type": "Feature", "properties": { "FID": 275, "KODE": 1101536, "KATEGORI": "Sungai / Rawa", "KETERANGAN": "Potensi banjir", "X": 634300.5, "Y": 9220631.59 }, "geometry": { "type": "Point", "coordinates": [ 112.215966844884434, -7.049251896150034 ] } },
{ "type": "Feature", "properties": { "FID": 276, "KODE": 1101537, "KATEGORI": "Sungai / Rawa", "KETERANGAN": "Potensi banjir", "X": 634300.5, "Y": 9220619.0 }, "geometry": { "type": "Point", "coordinates": [ 112.215967141775138, -7.04936575878878 ] } },
{ "type": "Feature", "properties": { "FID": 277, "KODE": 1101538, "KATEGORI": "Sungai / Rawa", "KETERANGAN": "Potensi banjir", "X": 634300.5, "Y": 9220606.59 }, "geometry": { "type": "Point", "coordinates": [ 112.215967434425977, -7.049477993525865 ] } },
{ "type": "Feature", "properties": { "FID": 278, "KODE": 1101539, "KATEGORI": "Sungai / Rawa", "KETERANGAN": "Potensi banjir", "X": 634300.5, "Y": 9220594.0 }, "geometry": { "type": "Point", "coordinates": [ 112.215967731326444, -7.049591856163485 ] } },
{ "type": "Feature", "properties": { "FID": 279, "KODE": 1101540, "KATEGORI": "Sungai / Rawa", "KETERANGAN": "Potensi banjir", "X": 634300.5, "Y": 9220581.59 }, "geometry": { "type": "Point", "coordinates": [ 112.215968023986918, -7.049704090899463 ] } },
{ "type": "Feature", "properties": { "FID": 280, "KODE": 1101541, "KATEGORI": "Sungai / Rawa", "KETERANGAN": "Potensi banjir", "X": 634300.5, "Y": 9220569.0 }, "geometry": { "type": "Point", "coordinates": [ 112.215968320897161, -7.04981795353596 ] } },
{ "type": "Feature", "properties": { "FID": 281, "KODE": 1101542, "KATEGORI": "Sungai / Rawa", "KETERANGAN": "Potensi banjir", "X": 634300.5, "Y": 9220556.59 }, "geometry": { "type": "Point", "coordinates": [ 112.215968613567242, -7.049930188270829 ] } },
{ "type": "Feature", "properties": { "FID": 282, "KODE": 1101543, "KATEGORI": "Sungai / Rawa", "KETERANGAN": "Potensi banjir", "X": 634300.5, "Y": 9220544.0 }, "geometry": { "type": "Point", "coordinates": [ 112.215968910487234, -7.050044050906202 ] } },
{ "type": "Feature", "properties": { "FID": 283, "KODE": 1101544, "KATEGORI": "Sungai / Rawa", "KETERANGAN": "Potensi banjir", "X": 634300.5, "Y": 9220531.59 }, "geometry": { "type": "Point", "coordinates": [ 112.215969203166964, -7.050156285639963 ] } },
{ "type": "Feature", "properties": { "FID": 284, "KODE": 1101545, "KATEGORI": "Sungai / Rawa", "KETERANGAN": "Potensi banjir", "X": 634300.5, "Y": 9220519.0 }, "geometry": { "type": "Point", "coordinates": [ 112.215969500096691, -7.050270148274212 ] } },
{ "type": "Feature", "properties": { "FID": 285, "KODE": 1101546, "KATEGORI": "Sungai / Rawa", "KETERANGAN": "Potensi banjir", "X": 634300.5, "Y": 9220506.59 }, "geometry": { "type": "Point", "coordinates": [ 112.215969792786041, -7.050382383006865 ] } },
{ "type": "Feature", "properties": { "FID": 286, "KODE": 1101547, "KATEGORI": "Sungai / Rawa", "KETERANGAN": "Potensi banjir", "X": 634300.5, "Y": 9220494.0 }, "geometry": { "type": "Point", "coordinates": [ 112.215970089725559, -7.050496245639991 ] } },
{ "type": "Feature", "properties": { "FID": 287, "KODE": 1101548, "KATEGORI": "Sungai / Rawa", "KETERANGAN": "Potensi banjir", "X": 634300.5, "Y": 9220481.59 }, "geometry": { "type": "Point", "coordinates": [ 112.21597038242453, -7.050608480371535 ] } },
{ "type": "Feature", "properties": { "FID": 288, "KODE": 1101549, "KATEGORI": "Sungai / Rawa", "KETERANGAN": "Potensi banjir", "X": 634300.5, "Y": 9220469.0 }, "geometry": { "type": "Point", "coordinates": [ 112.215970679373797, -7.050722343003538 ] } },
{ "type": "Feature", "properties": { "FID": 289, "KODE": 1101550, "KATEGORI": "Sungai / Rawa", "KETERANGAN": "Potensi banjir", "X": 634300.5, "Y": 9220456.59 }, "geometry": { "type": "Point", "coordinates": [ 112.215970972082374, -7.050834577733974 ] } },
{ "type": "Feature", "properties": { "FID": 290, "KODE": 1101551, "KATEGORI": "Sungai / Rawa", "KETERANGAN": "Potensi banjir", "X": 634300.5, "Y": 9220444.0 }, "geometry": { "type": "Point", "coordinates": [ 112.215971269041418, -7.050948440364851 ] } },
{ "type": "Feature", "properties": { "FID": 291, "KODE": 1101552, "KATEGORI": "Sungai / Rawa", "KETERANGAN": "Potensi banjir", "X": 634300.5, "Y": 9220431.59 }, "geometry": { "type": "Point", "coordinates": [ 112.215971561759631, -7.051060675094179 ] } },
{ "type": "Feature", "properties": { "FID": 292, "KODE": 1101553, "KATEGORI": "Sungai / Rawa", "KETERANGAN": "Potensi banjir", "X": 634300.5, "Y": 9220419.0 }, "geometry": { "type": "Point", "coordinates": [ 112.215971858728437, -7.051174537723933 ] } },
{ "type": "Feature", "properties": { "FID": 293, "KODE": 1101554, "KATEGORI": "Sungai / Rawa", "KETERANGAN": "Potensi banjir", "X": 634300.5, "Y": 9220406.59 }, "geometry": { "type": "Point", "coordinates": [ 112.21597215145627, -7.051286772452153 ] } },
{ "type": "Feature", "properties": { "FID": 294, "KODE": 1101555, "KATEGORI": "Sungai / Rawa", "KETERANGAN": "Potensi banjir", "X": 634300.5, "Y": 9220394.0 }, "geometry": { "type": "Point", "coordinates": [ 112.215972448434826, -7.051400635080784 ] } },
{ "type": "Feature", "properties": { "FID": 295, "KODE": 1101556, "KATEGORI": "Sungai / Rawa", "KETERANGAN": "Potensi banjir", "X": 634300.5, "Y": 9220381.59 }, "geometry": { "type": "Point", "coordinates": [ 112.215972741172266, -7.051512869807897 ] } },
{ "type": "Feature", "properties": { "FID": 296, "KODE": 1101557, "KATEGORI": "Sungai / Rawa", "KETERANGAN": "Potensi banjir", "X": 634300.5, "Y": 9220369.0 }, "geometry": { "type": "Point", "coordinates": [ 112.215973038160598, -7.051626732435402 ] } },
{ "type": "Feature", "properties": { "FID": 297, "KODE": 1101558, "KATEGORI": "Sungai / Rawa", "KETERANGAN": "Potensi banjir", "X": 634300.5, "Y": 9220356.59 }, "geometry": { "type": "Point", "coordinates": [ 112.215973330907673, -7.051738967161405 ] } },
{ "type": "Feature", "properties": { "FID": 298, "KODE": 1101559, "KATEGORI": "Sungai / Rawa", "KETERANGAN": "Potensi banjir", "X": 634300.5, "Y": 9220344.0 }, "geometry": { "type": "Point", "coordinates": [ 112.215973627905768, -7.051852829787785 ] } },
{ "type": "Feature", "properties": { "FID": 299, "KODE": 1101560, "KATEGORI": "Sungai / Rawa", "KETERANGAN": "Potensi banjir", "X": 634300.5, "Y": 9220331.59 }, "geometry": { "type": "Point", "coordinates": [ 112.215973920662464, -7.051965064512681 ] } },
{ "type": "Feature", "properties": { "FID": 300, "KODE": 1101561, "KATEGORI": "Sungai / Rawa", "KETERANGAN": "Potensi banjir", "X": 634300.5, "Y": 9220319.0 }, "geometry": { "type": "Point", "coordinates": [ 112.215974217670322, -7.052078927137939 ] } },
{ "type": "Feature", "properties": { "FID": 301, "KODE": 1101562, "KATEGORI": "Sungai / Rawa", "KETERANGAN": "Potensi banjir", "X": 634300.5, "Y": 9220306.59 }, "geometry": { "type": "Point", "coordinates": [ 112.215974510436638, -7.052191161861726 ] } },
{ "type": "Feature", "properties": { "FID": 302, "KODE": 1101563, "KATEGORI": "Sungai / Rawa", "KETERANGAN": "Potensi banjir", "X": 634300.5, "Y": 9220294.0 }, "geometry": { "type": "Point", "coordinates": [ 112.215974807454245, -7.052305024485858 ] } },
{ "type": "Feature", "properties": { "FID": 303, "KODE": 1101564, "KATEGORI": "Sungai / Rawa", "KETERANGAN": "Potensi banjir", "X": 634300.5, "Y": 9220281.59 }, "geometry": { "type": "Point", "coordinates": [ 112.215975100230196, -7.052417259208539 ] } },
{ "type": "Feature", "properties": { "FID": 304, "KODE": 1101565, "KATEGORI": "Sungai / Rawa", "KETERANGAN": "Potensi banjir", "X": 634300.5, "Y": 9220269.0 }, "geometry": { "type": "Point", "coordinates": [ 112.215975397257566, -7.052531121831547 ] } },
{ "type": "Feature", "properties": { "FID": 305, "KODE": 1101566, "KATEGORI": "Sungai / Rawa", "KETERANGAN": "Potensi banjir", "X": 634300.5, "Y": 9220256.59 }, "geometry": { "type": "Point", "coordinates": [ 112.215975690043138, -7.052643356553117 ] } },
{ "type": "Feature", "properties": { "FID": 306, "KODE": 1101567, "KATEGORI": "Sungai / Rawa", "KETERANGAN": "Potensi banjir", "X": 634300.5, "Y": 9220244.0 }, "geometry": { "type": "Point", "coordinates": [ 112.215975987080284, -7.052757219175001 ] } },
{ "type": "Feature", "properties": { "FID": 307, "KODE": 1101568, "KATEGORI": "Sungai / Rawa", "KETERANGAN": "Potensi banjir", "X": 634300.5, "Y": 9220231.59 }, "geometry": { "type": "Point", "coordinates": [ 112.215976279875463, -7.052869453895465 ] } },
{ "type": "Feature", "properties": { "FID": 308, "KODE": 1101569, "KATEGORI": "Sungai / Rawa", "KETERANGAN": "Potensi banjir", "X": 634300.5, "Y": 9220219.0 }, "geometry": { "type": "Point", "coordinates": [ 112.215976576922358, -7.052983316516224 ] } },
{ "type": "Feature", "properties": { "FID": 309, "KODE": 1101570, "KATEGORI": "Sungai / Rawa", "KETERANGAN": "Potensi banjir", "X": 634300.5, "Y": 9220206.59 }, "geometry": { "type": "Point", "coordinates": [ 112.215976869727172, -7.053095551235579 ] } },
{ "type": "Feature", "properties": { "FID": 310, "KODE": 1101571, "KATEGORI": "Sungai / Rawa", "KETERANGAN": "Potensi banjir", "X": 634300.5, "Y": 9220194.0 }, "geometry": { "type": "Point", "coordinates": [ 112.215977166783844, -7.053209413855213 ] } },
{ "type": "Feature", "properties": { "FID": 311, "KODE": 1101572, "KATEGORI": "Sungai / Rawa", "KETERANGAN": "Potensi banjir", "X": 634300.5, "Y": 9220181.59 }, "geometry": { "type": "Point", "coordinates": [ 112.215977459598278, -7.053321648573459 ] } },
{ "type": "Feature", "properties": { "FID": 312, "KODE": 1101573, "KATEGORI": "Sungai / Rawa", "KETERANGAN": "Potensi banjir", "X": 634300.5, "Y": 9220169.0 }, "geometry": { "type": "Point", "coordinates": [ 112.215977756664714, -7.053435511191969 ] } },
{ "type": "Feature", "properties": { "FID": 313, "KODE": 1101574, "KATEGORI": "Sungai / Rawa", "KETERANGAN": "Potensi banjir", "X": 634300.5, "Y": 9220156.59 }, "geometry": { "type": "Point", "coordinates": [ 112.215978049488754, -7.053547745909108 ] } },
{ "type": "Feature", "properties": { "FID": 314, "KODE": 1101575, "KATEGORI": "Sungai / Rawa", "KETERANGAN": "Potensi banjir", "X": 634300.5, "Y": 9220144.0 }, "geometry": { "type": "Point", "coordinates": [ 112.215978346564953, -7.053661608526492 ] } },
{ "type": "Feature", "properties": { "FID": 315, "KODE": 1101576, "KATEGORI": "Sungai / Rawa", "KETERANGAN": "Potensi banjir", "X": 634300.5, "Y": 9220131.59 }, "geometry": { "type": "Point", "coordinates": [ 112.215978639398628, -7.053773843242523 ] } },
{ "type": "Feature", "properties": { "FID": 316, "KODE": 1101577, "KATEGORI": "Sungai / Rawa", "KETERANGAN": "Potensi banjir", "X": 634300.5, "Y": 9220119.0 }, "geometry": { "type": "Point", "coordinates": [ 112.215978936484589, -7.053887705858785 ] } },
{ "type": "Feature", "properties": { "FID": 317, "KODE": 1101578, "KATEGORI": "Sungai / Rawa", "KETERANGAN": "Potensi banjir", "X": 634300.5, "Y": 9220106.59 }, "geometry": { "type": "Point", "coordinates": [ 112.215979229327885, -7.053999940573704 ] } },
{ "type": "Feature", "properties": { "FID": 318, "KODE": 1101579, "KATEGORI": "Sungai / Rawa", "KETERANGAN": "Potensi banjir", "X": 634300.5, "Y": 9220094.0 }, "geometry": { "type": "Point", "coordinates": [ 112.215979526423595, -7.054113803188842 ] } },
{ "type": "Feature", "properties": { "FID": 319, "KODE": 1101580, "KATEGORI": "Sungai / Rawa", "KETERANGAN": "Potensi banjir", "X": 634300.5, "Y": 9220081.59 }, "geometry": { "type": "Point", "coordinates": [ 112.215979819276527, -7.054226037902653 ] } },
{ "type": "Feature", "properties": { "FID": 320, "KODE": 1101332, "KATEGORI": "Binatang Berbahaya", "KETERANGAN": "Ular", "X": 634300.5, "Y": 9223181.5 }, "geometry": { "type": "Point", "coordinates": [ 112.215906815580766, -7.026190766056362 ] } },
{ "type": "Feature", "properties": { "FID": 321, "KODE": 1101331, "KATEGORI": "Binatang Berbahaya", "KETERANGAN": "Ular", "X": 634300.5, "Y": 9223194.0 }, "geometry": { "type": "Point", "coordinates": [ 112.215906521805721, -7.026077717253983 ] } },
{ "type": "Feature", "properties": { "FID": 322, "KODE": 1121628, "KATEGORI": "Sungai / Rawa", "KETERANGAN": "Lumpur hisap", "X": 635300.5, "Y": 9219181.59 }, "geometry": { "type": "Point", "coordinates": [ 112.225053996097373, -7.062341849822958 ] } },
{ "type": "Feature", "properties": { "FID": 323, "KODE": 1121627, "KATEGORI": "Sungai / Rawa", "KETERANGAN": "Lumpur hisap", "X": 635300.5, "Y": 9219194.0 }, "geometry": { "type": "Point", "coordinates": [ 112.225053700716501, -7.062229615529251 ] } },
{ "type": "Feature", "properties": { "FID": 324, "KODE": 1121626, "KATEGORI": "Sungai / Rawa", "KETERANGAN": "Lumpur hisap", "X": 635300.5, "Y": 9219206.59 }, "geometry": { "type": "Point", "coordinates": [ 112.225053401056215, -7.062115753340313 ] } },
{ "type": "Feature", "properties": { "FID": 325, "KODE": 1121625, "KATEGORI": "Sungai / Rawa", "KETERANGAN": "Lumpur hisap", "X": 635300.5, "Y": 9219219.0 }, "geometry": { "type": "Point", "coordinates": [ 112.225053105685049, -7.062003519045496 ] } },
{ "type": "Feature", "properties": { "FID": 326, "KODE": 1121624, "KATEGORI": "Sungai / Rawa", "KETERANGAN": "Lumpur hisap", "X": 635300.5, "Y": 9219231.59 }, "geometry": { "type": "Point", "coordinates": [ 112.225052806034597, -7.061889656855432 ] } },
{ "type": "Feature", "properties": { "FID": 327, "KODE": 1121623, "KATEGORI": "Sungai / Rawa", "KETERANGAN": "Lumpur hisap", "X": 635300.5, "Y": 9219244.0 }, "geometry": { "type": "Point", "coordinates": [ 112.225052510673123, -7.061777422559505 ] } },
{ "type": "Feature", "properties": { "FID": 328, "KODE": 1121622, "KATEGORI": "Sungai / Rawa", "KETERANGAN": "Lumpur hisap", "X": 635300.5, "Y": 9219256.59 }, "geometry": { "type": "Point", "coordinates": [ 112.225052211032519, -7.061663560368315 ] } },
{ "type": "Feature", "properties": { "FID": 329, "KODE": 1121621, "KATEGORI": "Sungai / Rawa", "KETERANGAN": "Lumpur hisap", "X": 635300.5, "Y": 9219269.0 }, "geometry": { "type": "Point", "coordinates": [ 112.225051915680723, -7.061551326071279 ] } },
{ "type": "Feature", "properties": { "FID": 330, "KODE": 1121620, "KATEGORI": "Sungai / Rawa", "KETERANGAN": "Lumpur hisap", "X": 635300.5, "Y": 9219281.59 }, "geometry": { "type": "Point", "coordinates": [ 112.225051616049953, -7.061437463878962 ] } },
{ "type": "Feature", "properties": { "FID": 331, "KODE": 1121619, "KATEGORI": "Sungai / Rawa", "KETERANGAN": "Lumpur hisap", "X": 635300.5, "Y": 9219294.0 }, "geometry": { "type": "Point", "coordinates": [ 112.225051320707877, -7.061325229580815 ] } },
{ "type": "Feature", "properties": { "FID": 332, "KODE": 1121618, "KATEGORI": "Sungai / Rawa", "KETERANGAN": "Lumpur hisap", "X": 635300.5, "Y": 9219306.59 }, "geometry": { "type": "Point", "coordinates": [ 112.225051021086941, -7.061211367387373 ] } },
{ "type": "Feature", "properties": { "FID": 333, "KODE": 1121617, "KATEGORI": "Sungai / Rawa", "KETERANGAN": "Lumpur hisap", "X": 635300.5, "Y": 9219319.0 }, "geometry": { "type": "Point", "coordinates": [ 112.225050725754542, -7.061099133088115 ] } },
{ "type": "Feature", "properties": { "FID": 334, "KODE": 1121616, "KATEGORI": "Sungai / Rawa", "KETERANGAN": "Lumpur hisap", "X": 635300.5, "Y": 9219331.59 }, "geometry": { "type": "Point", "coordinates": [ 112.22505042614344, -7.060985270893546 ] } },
{ "type": "Feature", "properties": { "FID": 335, "KODE": 1121615, "KATEGORI": "Sungai / Rawa", "KETERANGAN": "Lumpur hisap", "X": 635300.5, "Y": 9219344.0 }, "geometry": { "type": "Point", "coordinates": [ 112.225050130820748, -7.06087303659318 ] } },
{ "type": "Feature", "properties": { "FID": 336, "KODE": 1121614, "KATEGORI": "Sungai / Rawa", "KETERANGAN": "Lumpur hisap", "X": 635300.5, "Y": 9219356.59 }, "geometry": { "type": "Point", "coordinates": [ 112.225049831219479, -7.060759174397487 ] } },
{ "type": "Feature", "properties": { "FID": 337, "KODE": 1121613, "KATEGORI": "Sungai / Rawa", "KETERANGAN": "Lumpur hisap", "X": 635300.5, "Y": 9219369.0 }, "geometry": { "type": "Point", "coordinates": [ 112.225049535906479, -7.060646940096009 ] } },
{ "type": "Feature", "properties": { "FID": 338, "KODE": 1121612, "KATEGORI": "Sungai / Rawa", "KETERANGAN": "Lumpur hisap", "X": 635300.5, "Y": 9219381.59 }, "geometry": { "type": "Point", "coordinates": [ 112.225049236315058, -7.060533077899189 ] } },
{ "type": "Feature", "properties": { "FID": 339, "KODE": 1121611, "KATEGORI": "Sungai / Rawa", "KETERANGAN": "Lumpur hisap", "X": 635300.5, "Y": 9219394.0 }, "geometry": { "type": "Point", "coordinates": [ 112.22504894101175, -7.060420843596601 ] } },
{ "type": "Feature", "properties": { "FID": 340, "KODE": 1121610, "KATEGORI": "Sungai / Rawa", "KETERANGAN": "Lumpur hisap", "X": 635300.5, "Y": 9219406.59 }, "geometry": { "type": "Point", "coordinates": [ 112.225048641430149, -7.060306981398654 ] } },
{ "type": "Feature", "properties": { "FID": 341, "KODE": 1121040, "KATEGORI": "Lainnya", "KETERANGAN": "Bahaya listrik", "X": 635300.5, "Y": 9226531.5 }, "geometry": { "type": "Point", "coordinates": [ 112.224879897169131, -6.995870201847424 ] } },
{ "type": "Feature", "properties": { "FID": 342, "KODE": 1121041, "KATEGORI": "Lainnya", "KETERANGAN": "Bahaya listrik", "X": 635300.5, "Y": 9226519.0 }, "geometry": { "type": "Point", "coordinates": [ 112.224880191826927, -6.995983250415144 ] } },
{ "type": "Feature", "properties": { "FID": 343, "KODE": 1121042, "KATEGORI": "Lainnya", "KETERANGAN": "Bahaya listrik", "X": 635300.5, "Y": 9226506.5 }, "geometry": { "type": "Point", "coordinates": [ 112.224880486489596, -6.996096298982311 ] } },
{ "type": "Feature", "properties": { "FID": 344, "KODE": 1121043, "KATEGORI": "Lainnya", "KETERANGAN": "Bahaya listrik", "X": 635300.5, "Y": 9226494.0 }, "geometry": { "type": "Point", "coordinates": [ 112.22488078115714, -6.996209347548922 ] } },
{ "type": "Feature", "properties": { "FID": 345, "KODE": 1121044, "KATEGORI": "Lainnya", "KETERANGAN": "Bahaya listrik", "X": 635300.5, "Y": 9226481.5 }, "geometry": { "type": "Point", "coordinates": [ 112.224881075829586, -6.996322396114979 ] } },
{ "type": "Feature", "properties": { "FID": 346, "KODE": 1121045, "KATEGORI": "Lainnya", "KETERANGAN": "Bahaya listrik", "X": 635300.5, "Y": 9226469.0 }, "geometry": { "type": "Point", "coordinates": [ 112.224881370506893, -6.996435444680483 ] } },
{ "type": "Feature", "properties": { "FID": 347, "KODE": 1121046, "KATEGORI": "Lainnya", "KETERANGAN": "Bahaya listrik", "X": 635300.5, "Y": 9226456.5 }, "geometry": { "type": "Point", "coordinates": [ 112.224881665189073, -6.996548493245434 ] } },
{ "type": "Feature", "properties": { "FID": 348, "KODE": 1121047, "KATEGORI": "Lainnya", "KETERANGAN": "Bahaya listrik", "X": 635300.5, "Y": 9226444.0 }, "geometry": { "type": "Point", "coordinates": [ 112.224881959876157, -6.99666154180983 ] } },
{ "type": "Feature", "properties": { "FID": 349, "KODE": 1121048, "KATEGORI": "Lainnya", "KETERANGAN": "Bahaya listrik", "X": 635300.5, "Y": 9226431.5 }, "geometry": { "type": "Point", "coordinates": [ 112.224882254568087, -6.99677459037367 ] } },
{ "type": "Feature", "properties": { "FID": 350, "KODE": 1121049, "KATEGORI": "Lainnya", "KETERANGAN": "Bahaya listrik", "X": 635300.5, "Y": 9226419.0 }, "geometry": { "type": "Point", "coordinates": [ 112.224882549264919, -6.996887638936958 ] } },
{ "type": "Feature", "properties": { "FID": 351, "KODE": 1121050, "KATEGORI": "Lainnya", "KETERANGAN": "Bahaya listrik", "X": 635300.5, "Y": 9226406.5 }, "geometry": { "type": "Point", "coordinates": [ 112.224882843966626, -6.997000687499693 ] } },
{ "type": "Feature", "properties": { "FID": 352, "KODE": 1121051, "KATEGORI": "Lainnya", "KETERANGAN": "Bahaya listrik", "X": 635300.5, "Y": 9226394.0 }, "geometry": { "type": "Point", "coordinates": [ 112.224883138673221, -6.997113736061872 ] } },
{ "type": "Feature", "properties": { "FID": 353, "KODE": 1041836, "KATEGORI": "Sungai/ Rawa", "KETERANGAN": "Sungai", "X": 631300.5, "Y": 9216581.59 }, "geometry": { "type": "Point", "coordinates": [ 112.188902267450672, -7.085949894909463 ] } },
{ "type": "Feature", "properties": { "FID": 354, "KODE": 1041835, "KATEGORI": "Sungai/ Rawa", "KETERANGAN": "Sungai", "X": 631300.5, "Y": 9216594.0 }, "geometry": { "type": "Point", "coordinates": [ 112.188901979817345, -7.085837659227462 ] } },
{ "type": "Feature", "properties": { "FID": 355, "KODE": 1041834, "KATEGORI": "Sungai/ Rawa", "KETERANGAN": "Sungai", "X": 631300.5, "Y": 9216606.59 }, "geometry": { "type": "Point", "coordinates": [ 112.188901688016827, -7.08572379563009 ] } },
{ "type": "Feature", "properties": { "FID": 356, "KODE": 1041833, "KATEGORI": "Sungai/ Rawa", "KETERANGAN": "Sungai", "X": 631300.5, "Y": 9216619.0 }, "geometry": { "type": "Point", "coordinates": [ 112.188901400392908, -7.085611559946977 ] } },
{ "type": "Feature", "properties": { "FID": 357, "KODE": 1041832, "KATEGORI": "Sungai/ Rawa", "KETERANGAN": "Sungai", "X": 631300.5, "Y": 9216631.59 }, "geometry": { "type": "Point", "coordinates": [ 112.188901108601939, -7.085497696348476 ] } },
{ "type": "Feature", "properties": { "FID": 358, "KODE": 1041831, "KATEGORI": "Sungai/ Rawa", "KETERANGAN": "Sungai", "X": 631300.5, "Y": 9216644.0 }, "geometry": { "type": "Point", "coordinates": [ 112.188900820987428, -7.085385460664253 ] } },
{ "type": "Feature", "properties": { "FID": 359, "KODE": 1041830, "KATEGORI": "Sungai/ Rawa", "KETERANGAN": "Sungai", "X": 631300.5, "Y": 9216656.59 }, "geometry": { "type": "Point", "coordinates": [ 112.188900529205995, -7.085271597064625 ] } },
{ "type": "Feature", "properties": { "FID": 360, "KODE": 1041829, "KATEGORI": "Sungai/ Rawa", "KETERANGAN": "Sungai", "X": 631300.5, "Y": 9216669.0 }, "geometry": { "type": "Point", "coordinates": [ 112.188900241600905, -7.085159361379286 ] } },
{ "type": "Feature", "properties": { "FID": 361, "KODE": 1041828, "KATEGORI": "Sungai/ Rawa", "KETERANGAN": "Sungai", "X": 631300.5, "Y": 9216681.59 }, "geometry": { "type": "Point", "coordinates": [ 112.188899949829036, -7.08504549777853 ] } },
{ "type": "Feature", "properties": { "FID": 362, "KODE": 1041827, "KATEGORI": "Sungai/ Rawa", "KETERANGAN": "Sungai", "X": 631300.5, "Y": 9216694.0 }, "geometry": { "type": "Point", "coordinates": [ 112.188899662233339, -7.084933262092078 ] } },
{ "type": "Feature", "properties": { "FID": 363, "KODE": 1041826, "KATEGORI": "Sungai/ Rawa", "KETERANGAN": "Sungai", "X": 631300.5, "Y": 9216706.59 }, "geometry": { "type": "Point", "coordinates": [ 112.188899370471006, -7.084819398490194 ] } },
{ "type": "Feature", "properties": { "FID": 364, "KODE": 1041825, "KATEGORI": "Sungai/ Rawa", "KETERANGAN": "Sungai", "X": 631300.5, "Y": 9216719.0 }, "geometry": { "type": "Point", "coordinates": [ 112.188899082884731, -7.084707162802632 ] } },
{ "type": "Feature", "properties": { "FID": 365, "KODE": 1041824, "KATEGORI": "Sungai/ Rawa", "KETERANGAN": "Sungai", "X": 631300.5, "Y": 9216731.59 }, "geometry": { "type": "Point", "coordinates": [ 112.188898791131962, -7.084593299199619 ] } },
{ "type": "Feature", "properties": { "FID": 366, "KODE": 1041823, "KATEGORI": "Sungai/ Rawa", "KETERANGAN": "Sungai", "X": 631300.5, "Y": 9216744.0 }, "geometry": { "type": "Point", "coordinates": [ 112.188898503555095, -7.084481063510943 ] } },
{ "type": "Feature", "properties": { "FID": 367, "KODE": 1041822, "KATEGORI": "Sungai/ Rawa", "KETERANGAN": "Sungai", "X": 631300.5, "Y": 9216756.59 }, "geometry": { "type": "Point", "coordinates": [ 112.188898211811875, -7.084367199906803 ] } },
{ "type": "Feature", "properties": { "FID": 368, "KODE": 1101496, "KATEGORI": "Potensi banjir", "KETERANGAN": "Potensi banjir", "X": 634300.5, "Y": 9221131.5 }, "geometry": { "type": "Point", "coordinates": [ 112.215955060245022, -7.044730762115604 ] } },
{ "type": "Feature", "properties": { "FID": 369, "KODE": 1101497, "KATEGORI": "Potensi banjir", "KETERANGAN": "Potensi banjir", "X": 634300.5, "Y": 9221119.0 }, "geometry": { "type": "Point", "coordinates": [ 112.21595535481957, -7.044843810826102 ] } },
{ "type": "Feature", "properties": { "FID": 370, "KODE": 1101498, "KATEGORI": "Potensi banjir", "KETERANGAN": "Potensi banjir", "X": 634300.5, "Y": 9221106.5 }, "geometry": { "type": "Point", "coordinates": [ 112.21595564939895, -7.044956859536045 ] } },
{ "type": "Feature", "properties": { "FID": 371, "KODE": 1101499, "KATEGORI": "Potensi banjir", "KETERANGAN": "Potensi banjir", "X": 634300.5, "Y": 9221094.0 }, "geometry": { "type": "Point", "coordinates": [ 112.215955943983204, -7.04506990824543 ] } },
{ "type": "Feature", "properties": { "FID": 372, "KODE": 1101500, "KATEGORI": "Potensi banjir", "KETERANGAN": "Potensi banjir", "X": 634300.5, "Y": 9221081.5 }, "geometry": { "type": "Point", "coordinates": [ 112.215956238572275, -7.045182956954256 ] } },
{ "type": "Feature", "properties": { "FID": 373, "KODE": 1101501, "KATEGORI": "Potensi banjir", "KETERANGAN": "Potensi banjir", "X": 634300.5, "Y": 9221069.0 }, "geometry": { "type": "Point", "coordinates": [ 112.215956533166207, -7.045296005662526 ] } },
{ "type": "Feature", "properties": { "FID": 374, "KODE": 1101502, "KATEGORI": "Potensi banjir", "KETERANGAN": "Potensi banjir", "X": 634300.5, "Y": 9221056.5 }, "geometry": { "type": "Point", "coordinates": [ 112.215956827764984, -7.045409054370237 ] } },
{ "type": "Feature", "properties": { "FID": 375, "KODE": 1101503, "KATEGORI": "Potensi banjir", "KETERANGAN": "Potensi banjir", "X": 634300.5, "Y": 9221044.0 }, "geometry": { "type": "Point", "coordinates": [ 112.215957122368607, -7.045522103077391 ] } },
{ "type": "Feature", "properties": { "FID": 376, "KODE": 1101504, "KATEGORI": "Potensi banjir", "KETERANGAN": "Potensi banjir", "X": 634300.5, "Y": 9221031.5 }, "geometry": { "type": "Point", "coordinates": [ 112.215957416977076, -7.045635151783986 ] } },
{ "type": "Feature", "properties": { "FID": 377, "KODE": 1101505, "KATEGORI": "Potensi banjir", "KETERANGAN": "Potensi banjir", "X": 634300.5, "Y": 9221019.0 }, "geometry": { "type": "Point", "coordinates": [ 112.215957711590391, -7.045748200490026 ] } },
{ "type": "Feature", "properties": { "FID": 378, "KODE": 1101506, "KATEGORI": "Potensi banjir", "KETERANGAN": "Potensi banjir", "X": 634300.5, "Y": 9221006.5 }, "geometry": { "type": "Point", "coordinates": [ 112.215958006208552, -7.045861249195507 ] } },
{ "type": "Feature", "properties": { "FID": 379, "KODE": 1101507, "KATEGORI": "Potensi banjir", "KETERANGAN": "Potensi banjir", "X": 634300.5, "Y": 9220994.0 }, "geometry": { "type": "Point", "coordinates": [ 112.215958300831559, -7.04597429790043 ] } },
{ "type": "Feature", "properties": { "FID": 380, "KODE": 1101508, "KATEGORI": "Potensi banjir", "KETERANGAN": "Potensi banjir", "X": 634300.5, "Y": 9220981.5 }, "geometry": { "type": "Point", "coordinates": [ 112.215958595459398, -7.046087346604795 ] } },
{ "type": "Feature", "properties": { "FID": 381, "KODE": 1101509, "KATEGORI": "Potensi banjir", "KETERANGAN": "Potensi banjir", "X": 634300.5, "Y": 9220969.0 }, "geometry": { "type": "Point", "coordinates": [ 112.215958890092111, -7.046200395308603 ] } },
{ "type": "Feature", "properties": { "FID": 382, "KODE": 1101510, "KATEGORI": "Potensi banjir", "KETERANGAN": "Potensi banjir", "X": 634300.5, "Y": 9220956.5 }, "geometry": { "type": "Point", "coordinates": [ 112.215959184729655, -7.046313444011855 ] } },
{ "type": "Feature", "properties": { "FID": 383, "KODE": 1101511, "KATEGORI": "Potensi banjir", "KETERANGAN": "Potensi banjir", "X": 634300.5, "Y": 9220944.0 }, "geometry": { "type": "Point", "coordinates": [ 112.215959479372032, -7.046426492714548 ] } },
{ "type": "Feature", "properties": { "FID": 384, "KODE": 1101512, "KATEGORI": "Potensi banjir", "KETERANGAN": "Potensi banjir", "X": 634300.5, "Y": 9220931.5 }, "geometry": { "type": "Point", "coordinates": [ 112.215959774019268, -7.046539541416682 ] } },
{ "type": "Feature", "properties": { "FID": 385, "KODE": 1101513, "KATEGORI": "Potensi banjir", "KETERANGAN": "Potensi banjir", "X": 634300.5, "Y": 9220919.0 }, "geometry": { "type": "Point", "coordinates": [ 112.21596006867135, -7.046652590118261 ] } },
{ "type": "Feature", "properties": { "FID": 386, "KODE": 1101514, "KATEGORI": "Potensi banjir", "KETERANGAN": "Potensi banjir", "X": 634300.5, "Y": 9220906.5 }, "geometry": { "type": "Point", "coordinates": [ 112.215960363328279, -7.046765638819279 ] } },
{ "type": "Feature", "properties": { "FID": 387, "KODE": 1101515, "KATEGORI": "Potensi banjir", "KETERANGAN": "Potensi banjir", "X": 634300.5, "Y": 9220894.0 }, "geometry": { "type": "Point", "coordinates": [ 112.215960657990053, -7.04687868751974 ] } },
{ "type": "Feature", "properties": { "FID": 388, "KODE": 1101516, "KATEGORI": "Potensi banjir", "KETERANGAN": "Potensi banjir", "X": 634300.5, "Y": 9220881.5 }, "geometry": { "type": "Point", "coordinates": [ 112.215960952656673, -7.046991736219644 ] } },
{ "type": "Feature", "properties": { "FID": 389, "KODE": 1101517, "KATEGORI": "Potensi banjir", "KETERANGAN": "Potensi banjir", "X": 634300.5, "Y": 9220869.0 }, "geometry": { "type": "Point", "coordinates": [ 112.215961247328138, -7.04710478491899 ] } },
{ "type": "Feature", "properties": { "FID": 390, "KODE": 1101518, "KATEGORI": "Potensi banjir", "KETERANGAN": "Potensi banjir", "X": 634300.5, "Y": 9220856.5 }, "geometry": { "type": "Point", "coordinates": [ 112.21596154200445, -7.047217833617779 ] } },
{ "type": "Feature", "properties": { "FID": 391, "KODE": 1101519, "KATEGORI": "Potensi banjir", "KETERANGAN": "Potensi banjir", "X": 634300.5, "Y": 9220844.0 }, "geometry": { "type": "Point", "coordinates": [ 112.215961836685608, -7.04733088231601 ] } },
{ "type": "Feature", "properties": { "FID": 392, "KODE": 1101520, "KATEGORI": "Potensi banjir", "KETERANGAN": "Potensi banjir", "X": 634300.5, "Y": 9220831.5 }, "geometry": { "type": "Point", "coordinates": [ 112.215962131371626, -7.047443931013683 ] } },
{ "type": "Feature", "properties": { "FID": 393, "KODE": 1101521, "KATEGORI": "Potensi banjir", "KETERANGAN": "Potensi banjir", "X": 634300.5, "Y": 9220819.0 }, "geometry": { "type": "Point", "coordinates": [ 112.215962426062461, -7.047556979710799 ] } },
{ "type": "Feature", "properties": { "FID": 394, "KODE": 1101522, "KATEGORI": "Potensi banjir", "KETERANGAN": "Potensi banjir", "X": 634300.5, "Y": 9220806.5 }, "geometry": { "type": "Point", "coordinates": [ 112.215962720758156, -7.047670028407357 ] } },
{ "type": "Feature", "properties": { "FID": 395, "KODE": 1101523, "KATEGORI": "Potensi banjir", "KETERANGAN": "Potensi banjir", "X": 634300.5, "Y": 9220794.0 }, "geometry": { "type": "Point", "coordinates": [ 112.215963015458698, -7.047783077103356 ] } },
{ "type": "Feature", "properties": { "FID": 396, "KODE": 1101524, "KATEGORI": "Potensi banjir", "KETERANGAN": "Potensi banjir", "X": 634300.5, "Y": 9220781.59 }, "geometry": { "type": "Point", "coordinates": [ 112.215963308042205, -7.047895311848194 ] } },
{ "type": "Feature", "properties": { "FID": 397, "KODE": 1101525, "KATEGORI": "Potensi banjir", "KETERANGAN": "Potensi banjir", "X": 634300.5, "Y": 9220769.0 }, "geometry": { "type": "Point", "coordinates": [ 112.215963604874318, -7.048009174493682 ] } },
{ "type": "Feature", "properties": { "FID": 398, "KODE": 1101526, "KATEGORI": "Potensi banjir", "KETERANGAN": "Potensi banjir", "X": 634300.5, "Y": 9220756.59 }, "geometry": { "type": "Point", "coordinates": [ 112.215963897467446, -7.048121409237413 ] } },
{ "type": "Feature", "properties": { "FID": 399, "KODE": 1101527, "KATEGORI": "Potensi banjir", "KETERANGAN": "Potensi banjir", "X": 634300.5, "Y": 9220744.0 }, "geometry": { "type": "Point", "coordinates": [ 112.215964194309336, -7.048235271881777 ] } },
{ "type": "Feature", "properties": { "FID": 400, "KODE": 1101528, "KATEGORI": "Potensi banjir", "KETERANGAN": "Potensi banjir", "X": 634300.5, "Y": 9220731.59 }, "geometry": { "type": "Point", "coordinates": [ 112.215964486912071, -7.0483475066244 ] } },
{ "type": "Feature", "properties": { "FID": 401, "KODE": 1101529, "KATEGORI": "Potensi banjir", "KETERANGAN": "Potensi banjir", "X": 634300.5, "Y": 9220719.0 }, "geometry": { "type": "Point", "coordinates": [ 112.215964783763724, -7.048461369267641 ] } },
{ "type": "Feature", "properties": { "FID": 402, "KODE": 1101530, "KATEGORI": "Potensi banjir", "KETERANGAN": "Potensi banjir", "X": 634300.5, "Y": 9220706.59 }, "geometry": { "type": "Point", "coordinates": [ 112.215965076376094, -7.048573604009155 ] } },
{ "type": "Feature", "properties": { "FID": 403, "KODE": 1101531, "KATEGORI": "Potensi banjir", "KETERANGAN": "Potensi banjir", "X": 634300.5, "Y": 9220694.0 }, "geometry": { "type": "Point", "coordinates": [ 112.215965373237495, -7.048687466651273 ] } },
{ "type": "Feature", "properties": { "FID": 404, "KODE": 1101532, "KATEGORI": "Potensi banjir", "KETERANGAN": "Potensi banjir", "X": 634300.5, "Y": 9220681.59 }, "geometry": { "type": "Point", "coordinates": [ 112.215965665859486, -7.048799701391681 ] } },
{ "type": "Feature", "properties": { "FID": 405, "KODE": 1101533, "KATEGORI": "Potensi banjir", "KETERANGAN": "Potensi banjir", "X": 634300.5, "Y": 9220669.0 }, "geometry": { "type": "Point", "coordinates": [ 112.215965962730664, -7.048913564032673 ] } },
{ "type": "Feature", "properties": { "FID": 406, "KODE": 1101534, "KATEGORI": "Potensi banjir", "KETERANGAN": "Potensi banjir", "X": 634300.5, "Y": 9220656.59 }, "geometry": { "type": "Point", "coordinates": [ 112.215966255362261, -7.049025798771972 ] } },
{ "type": "Feature", "properties": { "FID": 407, "KODE": 1101535, "KATEGORI": "Potensi banjir", "KETERANGAN": "Potensi banjir", "X": 634300.5, "Y": 9220644.0 }, "geometry": { "type": "Point", "coordinates": [ 112.215966552243202, -7.049139661411843 ] } },
{ "type": "Feature", "properties": { "FID": 408, "KODE": 1101536, "KATEGORI": "Potensi banjir", "KETERANGAN": "Potensi banjir", "X": 634300.5, "Y": 9220631.59 }, "geometry": { "type": "Point", "coordinates": [ 112.215966844884434, -7.049251896150034 ] } },
{ "type": "Feature", "properties": { "FID": 409, "KODE": 1101537, "KATEGORI": "Potensi banjir", "KETERANGAN": "Potensi banjir", "X": 634300.5, "Y": 9220619.0 }, "geometry": { "type": "Point", "coordinates": [ 112.215967141775138, -7.04936575878878 ] } },
{ "type": "Feature", "properties": { "FID": 410, "KODE": 1101538, "KATEGORI": "Potensi banjir", "KETERANGAN": "Potensi banjir", "X": 634300.5, "Y": 9220606.59 }, "geometry": { "type": "Point", "coordinates": [ 112.215967434425977, -7.049477993525865 ] } },
{ "type": "Feature", "properties": { "FID": 411, "KODE": 1101539, "KATEGORI": "Potensi banjir", "KETERANGAN": "Potensi banjir", "X": 634300.5, "Y": 9220594.0 }, "geometry": { "type": "Point", "coordinates": [ 112.215967731326444, -7.049591856163485 ] } },
{ "type": "Feature", "properties": { "FID": 412, "KODE": 1101540, "KATEGORI": "Potensi banjir", "KETERANGAN": "Potensi banjir", "X": 634300.5, "Y": 9220581.59 }, "geometry": { "type": "Point", "coordinates": [ 112.215968023986918, -7.049704090899463 ] } },
{ "type": "Feature", "properties": { "FID": 413, "KODE": 1101541, "KATEGORI": "Potensi banjir", "KETERANGAN": "Potensi banjir", "X": 634300.5, "Y": 9220569.0 }, "geometry": { "type": "Point", "coordinates": [ 112.215968320897161, -7.04981795353596 ] } },
{ "type": "Feature", "properties": { "FID": 414, "KODE": 1101542, "KATEGORI": "Potensi banjir", "KETERANGAN": "Potensi banjir", "X": 634300.5, "Y": 9220556.59 }, "geometry": { "type": "Point", "coordinates": [ 112.215968613567242, -7.049930188270829 ] } },
{ "type": "Feature", "properties": { "FID": 415, "KODE": 1101543, "KATEGORI": "Potensi banjir", "KETERANGAN": "Potensi banjir", "X": 634300.5, "Y": 9220544.0 }, "geometry": { "type": "Point", "coordinates": [ 112.215968910487234, -7.050044050906202 ] } },
{ "type": "Feature", "properties": { "FID": 416, "KODE": 1101544, "KATEGORI": "Potensi banjir", "KETERANGAN": "Potensi banjir", "X": 634300.5, "Y": 9220531.59 }, "geometry": { "type": "Point", "coordinates": [ 112.215969203166964, -7.050156285639963 ] } },
{ "type": "Feature", "properties": { "FID": 417, "KODE": 1101545, "KATEGORI": "Potensi banjir", "KETERANGAN": "Potensi banjir", "X": 634300.5, "Y": 9220519.0 }, "geometry": { "type": "Point", "coordinates": [ 112.215969500096691, -7.050270148274212 ] } },
{ "type": "Feature", "properties": { "FID": 418, "KODE": 1101546, "KATEGORI": "Potensi banjir", "KETERANGAN": "Potensi banjir", "X": 634300.5, "Y": 9220506.59 }, "geometry": { "type": "Point", "coordinates": [ 112.215969792786041, -7.050382383006865 ] } },
{ "type": "Feature", "properties": { "FID": 419, "KODE": 1101547, "KATEGORI": "Potensi banjir", "KETERANGAN": "Potensi banjir", "X": 634300.5, "Y": 9220494.0 }, "geometry": { "type": "Point", "coordinates": [ 112.215970089725559, -7.050496245639991 ] } },
{ "type": "Feature", "properties": { "FID": 420, "KODE": 1101548, "KATEGORI": "Potensi banjir", "KETERANGAN": "Potensi banjir", "X": 634300.5, "Y": 9220481.59 }, "geometry": { "type": "Point", "coordinates": [ 112.21597038242453, -7.050608480371535 ] } },
{ "type": "Feature", "properties": { "FID": 421, "KODE": 1101549, "KATEGORI": "Potensi banjir", "KETERANGAN": "Potensi banjir", "X": 634300.5, "Y": 9220469.0 }, "geometry": { "type": "Point", "coordinates": [ 112.215970679373797, -7.050722343003538 ] } },
{ "type": "Feature", "properties": { "FID": 422, "KODE": 1101550, "KATEGORI": "Potensi banjir", "KETERANGAN": "Potensi banjir", "X": 634300.5, "Y": 9220456.59 }, "geometry": { "type": "Point", "coordinates": [ 112.215970972082374, -7.050834577733974 ] } },
{ "type": "Feature", "properties": { "FID": 423, "KODE": 1101551, "KATEGORI": "Potensi banjir", "KETERANGAN": "Potensi banjir", "X": 634300.5, "Y": 9220444.0 }, "geometry": { "type": "Point", "coordinates": [ 112.215971269041418, -7.050948440364851 ] } },
{ "type": "Feature", "properties": { "FID": 424, "KODE": 1101552, "KATEGORI": "Potensi banjir", "KETERANGAN": "Potensi banjir", "X": 634300.5, "Y": 9220431.59 }, "geometry": { "type": "Point", "coordinates": [ 112.215971561759631, -7.051060675094179 ] } },
{ "type": "Feature", "properties": { "FID": 425, "KODE": 1101553, "KATEGORI": "Potensi banjir", "KETERANGAN": "Potensi banjir", "X": 634300.5, "Y": 9220419.0 }, "geometry": { "type": "Point", "coordinates": [ 112.215971858728437, -7.051174537723933 ] } },
{ "type": "Feature", "properties": { "FID": 426, "KODE": 1101554, "KATEGORI": "Potensi banjir", "KETERANGAN": "Potensi banjir", "X": 634300.5, "Y": 9220406.59 }, "geometry": { "type": "Point", "coordinates": [ 112.21597215145627, -7.051286772452153 ] } },
{ "type": "Feature", "properties": { "FID": 427, "KODE": 1101555, "KATEGORI": "Potensi banjir", "KETERANGAN": "Potensi banjir", "X": 634300.5, "Y": 9220394.0 }, "geometry": { "type": "Point", "coordinates": [ 112.215972448434826, -7.051400635080784 ] } },
{ "type": "Feature", "properties": { "FID": 428, "KODE": 1101556, "KATEGORI": "Potensi banjir", "KETERANGAN": "Potensi banjir", "X": 634300.5, "Y": 9220381.59 }, "geometry": { "type": "Point", "coordinates": [ 112.215972741172266, -7.051512869807897 ] } },
{ "type": "Feature", "properties": { "FID": 429, "KODE": 1101557, "KATEGORI": "Potensi banjir", "KETERANGAN": "Potensi banjir", "X": 634300.5, "Y": 9220369.0 }, "geometry": { "type": "Point", "coordinates": [ 112.215973038160598, -7.051626732435402 ] } },
{ "type": "Feature", "properties": { "FID": 430, "KODE": 1101558, "KATEGORI": "Potensi banjir", "KETERANGAN": "Potensi banjir", "X": 634300.5, "Y": 9220356.59 }, "geometry": { "type": "Point", "coordinates": [ 112.215973330907673, -7.051738967161405 ] } },
{ "type": "Feature", "properties": { "FID": 431, "KODE": 1101559, "KATEGORI": "Potensi banjir", "KETERANGAN": "Potensi banjir", "X": 634300.5, "Y": 9220344.0 }, "geometry": { "type": "Point", "coordinates": [ 112.215973627905768, -7.051852829787785 ] } },
{ "type": "Feature", "properties": { "FID": 432, "KODE": 1101560, "KATEGORI": "Potensi banjir", "KETERANGAN": "Potensi banjir", "X": 634300.5, "Y": 9220331.59 }, "geometry": { "type": "Point", "coordinates": [ 112.215973920662464, -7.051965064512681 ] } },
{ "type": "Feature", "properties": { "FID": 433, "KODE": 1101561, "KATEGORI": "Potensi banjir", "KETERANGAN": "Potensi banjir", "X": 634300.5, "Y": 9220319.0 }, "geometry": { "type": "Point", "coordinates": [ 112.215974217670322, -7.052078927137939 ] } },
{ "type": "Feature", "properties": { "FID": 434, "KODE": 1101562, "KATEGORI": "Potensi banjir", "KETERANGAN": "Potensi banjir", "X": 634300.5, "Y": 9220306.59 }, "geometry": { "type": "Point", "coordinates": [ 112.215974510436638, -7.052191161861726 ] } },
{ "type": "Feature", "properties": { "FID": 435, "KODE": 1101563, "KATEGORI": "Potensi banjir", "KETERANGAN": "Potensi banjir", "X": 634300.5, "Y": 9220294.0 }, "geometry": { "type": "Point", "coordinates": [ 112.215974807454245, -7.052305024485858 ] } },
{ "type": "Feature", "properties": { "FID": 436, "KODE": 1101564, "KATEGORI": "Potensi banjir", "KETERANGAN": "Potensi banjir", "X": 634300.5, "Y": 9220281.59 }, "geometry": { "type": "Point", "coordinates": [ 112.215975100230196, -7.052417259208539 ] } },
{ "type": "Feature", "properties": { "FID": 437, "KODE": 1101565, "KATEGORI": "Potensi banjir", "KETERANGAN": "Potensi banjir", "X": 634300.5, "Y": 9220269.0 }, "geometry": { "type": "Point", "coordinates": [ 112.215975397257566, -7.052531121831547 ] } },
{ "type": "Feature", "properties": { "FID": 438, "KODE": 1101566, "KATEGORI": "Potensi banjir", "KETERANGAN": "Potensi banjir", "X": 634300.5, "Y": 9220256.59 }, "geometry": { "type": "Point", "coordinates": [ 112.215975690043138, -7.052643356553117 ] } },
{ "type": "Feature", "properties": { "FID": 439, "KODE": 1101567, "KATEGORI": "Potensi banjir", "KETERANGAN": "Potensi banjir", "X": 634300.5, "Y": 9220244.0 }, "geometry": { "type": "Point", "coordinates": [ 112.215975987080284, -7.052757219175001 ] } },
{ "type": "Feature", "properties": { "FID": 440, "KODE": 1101568, "KATEGORI": "Potensi banjir", "KETERANGAN": "Potensi banjir", "X": 634300.5, "Y": 9220231.59 }, "geometry": { "type": "Point", "coordinates": [ 112.215976279875463, -7.052869453895465 ] } },
{ "type": "Feature", "properties": { "FID": 441, "KODE": 1101569, "KATEGORI": "Potensi banjir", "KETERANGAN": "Potensi banjir", "X": 634300.5, "Y": 9220219.0 }, "geometry": { "type": "Point", "coordinates": [ 112.215976576922358, -7.052983316516224 ] } },
{ "type": "Feature", "properties": { "FID": 442, "KODE": 1101570, "KATEGORI": "Potensi banjir", "KETERANGAN": "Potensi banjir", "X": 634300.5, "Y": 9220206.59 }, "geometry": { "type": "Point", "coordinates": [ 112.215976869727172, -7.053095551235579 ] } },
{ "type": "Feature", "properties": { "FID": 443, "KODE": 1101571, "KATEGORI": "Potensi banjir", "KETERANGAN": "Potensi banjir", "X": 634300.5, "Y": 9220194.0 }, "geometry": { "type": "Point", "coordinates": [ 112.215977166783844, -7.053209413855213 ] } },
{ "type": "Feature", "properties": { "FID": 444, "KODE": 1101572, "KATEGORI": "Potensi banjir", "KETERANGAN": "Potensi banjir", "X": 634300.5, "Y": 9220181.59 }, "geometry": { "type": "Point", "coordinates": [ 112.215977459598278, -7.053321648573459 ] } },
{ "type": "Feature", "properties": { "FID": 445, "KODE": 1101573, "KATEGORI": "Potensi banjir", "KETERANGAN": "Potensi banjir", "X": 634300.5, "Y": 9220169.0 }, "geometry": { "type": "Point", "coordinates": [ 112.215977756664714, -7.053435511191969 ] } },
{ "type": "Feature", "properties": { "FID": 446, "KODE": 1101574, "KATEGORI": "Potensi banjir", "KETERANGAN": "Potensi banjir", "X": 634300.5, "Y": 9220156.59 }, "geometry": { "type": "Point", "coordinates": [ 112.215978049488754, -7.053547745909108 ] } },
{ "type": "Feature", "properties": { "FID": 447, "KODE": 1101575, "KATEGORI": "Potensi banjir", "KETERANGAN": "Potensi banjir", "X": 634300.5, "Y": 9220144.0 }, "geometry": { "type": "Point", "coordinates": [ 112.215978346564953, -7.053661608526492 ] } },
{ "type": "Feature", "properties": { "FID": 448, "KODE": 1101576, "KATEGORI": "Potensi banjir", "KETERANGAN": "Potensi banjir", "X": 634300.5, "Y": 9220131.59 }, "geometry": { "type": "Point", "coordinates": [ 112.215978639398628, -7.053773843242523 ] } },
{ "type": "Feature", "properties": { "FID": 449, "KODE": 1101577, "KATEGORI": "Potensi banjir", "KETERANGAN": "Potensi banjir", "X": 634300.5, "Y": 9220119.0 }, "geometry": { "type": "Point", "coordinates": [ 112.215978936484589, -7.053887705858785 ] } },
{ "type": "Feature", "properties": { "FID": 450, "KODE": 1101578, "KATEGORI": "Potensi banjir", "KETERANGAN": "Potensi banjir", "X": 634300.5, "Y": 9220106.59 }, "geometry": { "type": "Point", "coordinates": [ 112.215979229327885, -7.053999940573704 ] } },
{ "type": "Feature", "properties": { "FID": 451, "KODE": 1101579, "KATEGORI": "Potensi banjir", "KETERANGAN": "Potensi banjir", "X": 634300.5, "Y": 9220094.0 }, "geometry": { "type": "Point", "coordinates": [ 112.215979526423595, -7.054113803188842 ] } },
{ "type": "Feature", "properties": { "FID": 452, "KODE": 1101580, "KATEGORI": "Potensi banjir", "KETERANGAN": "Potensi banjir", "X": 634300.5, "Y": 9220081.59 }, "geometry": { "type": "Point", "coordinates": [ 112.215979819276527, -7.054226037902653 ] } },
{ "type": "Feature", "properties": { "FID": 453, "KODE": 1101332, "KATEGORI": "Binatang berbahaya", "KETERANGAN": "Ular", "X": 634300.5, "Y": 9223181.5 }, "geometry": { "type": "Point", "coordinates": [ 112.215906815580766, -7.026190766056362 ] } },
{ "type": "Feature", "properties": { "FID": 454, "KODE": 1101331, "KATEGORI": "Binatang berbahaya", "KETERANGAN": "Ular", "X": 634300.5, "Y": 9223194.0 }, "geometry": { "type": "Point", "coordinates": [ 112.215906521805721, -7.026077717253983 ] } }
]
}
