{
  "type": "FeatureCollection",
  "features": [
    {
      "type": "Feature",
      "properties": {
        "Point_Name": "TEST",
        "Date_Time": "2026-08-28 16:29:39",
        "Elevation": 0,
        "Latitude": -7.1540148,
        "Longitude": 111.9008599,
        "Easting_UTM49S": 599471.918,
        "Northing_UTM49S": 9209127.884,
        "Zone": "UTM 49S"
      },
      "geometry": {
        "type": "Point",
        "coordinates": [
          111.9008599,
          -7.1540148,
          0
        ]
      }
    }
  ]
}