{
"type": "FeatureCollection",
"name": "Text_Lintasan_leaflet",
"crs": { "type": "name", "properties": { "name": "urn:ogc:def:crs:OGC:1.3:CRS84" } },
"features": [
{ "type": "Feature", "properties": { "FID": 9, "TEXTSTRING": "L-020", "TEXT_SIZE": 100.0, "TEXT_ANGLE": 90.0 }, "geometry": { "type": "Point", "coordinates": [ 112.000871491371981, -7.21991385346685, 0.0 ] } },
{ "type": "Feature", "properties": { "FID": 10, "TEXTSTRING": "L-018", "TEXT_SIZE": 100.0, "TEXT_ANGLE": 90.0 }, "geometry": { "type": "Point", "coordinates": [ 111.991814776342096, -7.21993362205369, 0.0 ] } },
{ "type": "Feature", "properties": { "FID": 11, "TEXTSTRING": "L-016", "TEXT_SIZE": 100.0, "TEXT_ANGLE": 90.0 }, "geometry": { "type": "Point", "coordinates": [ 111.982741448386761, -7.212265351183155, 0.0 ] } },
{ "type": "Feature", "properties": { "FID": 12, "TEXTSTRING": "L-014", "TEXT_SIZE": 100.0, "TEXT_ANGLE": 90.0 }, "geometry": { "type": "Point", "coordinates": [ 111.973684835719979, -7.212284739638527, 0.0 ] } },
{ "type": "Feature", "properties": { "FID": 13, "TEXTSTRING": "L-013", "TEXT_SIZE": 100.0, "TEXT_ANGLE": 0.0 }, "geometry": { "type": "Point", "coordinates": [ 111.875795053691476, -7.26094263778387, 0.0 ] } },
{ "type": "Feature", "properties": { "FID": 14, "TEXTSTRING": "L-012", "TEXT_SIZE": 100.0, "TEXT_ANGLE": 90.0 }, "geometry": { "type": "Point", "coordinates": [ 111.964631070176168, -7.213660637328965, 0.0 ] } },
{ "type": "Feature", "properties": { "FID": 15, "TEXTSTRING": "L-011", "TEXT_SIZE": 100.0, "TEXT_ANGLE": 0.0 }, "geometry": { "type": "Point", "coordinates": [ 111.875812565228372, -7.269987434826274, 0.0 ] } },
{ "type": "Feature", "properties": { "FID": 16, "TEXTSTRING": "L-010", "TEXT_SIZE": 100.0, "TEXT_ANGLE": 90.0 }, "geometry": { "type": "Point", "coordinates": [ 111.955580072771014, -7.216393054856209, 0.0 ] } },
{ "type": "Feature", "properties": { "FID": 17, "TEXTSTRING": "L-009", "TEXT_SIZE": 100.0, "TEXT_ANGLE": 0.0 }, "geometry": { "type": "Point", "coordinates": [ 111.869489347275746, -7.279044447236523, 0.0 ] } },
{ "type": "Feature", "properties": { "FID": 18, "TEXTSTRING": "L-008", "TEXT_SIZE": 100.0, "TEXT_ANGLE": 90.0 }, "geometry": { "type": "Point", "coordinates": [ 111.946254912910518, -7.172390813339295, 0.0 ] } },
{ "type": "Feature", "properties": { "FID": 19, "TEXTSTRING": "L-007", "TEXT_SIZE": 100.0, "TEXT_ANGLE": 0.0 }, "geometry": { "type": "Point", "coordinates": [ 111.869506776520524, -7.288089252332175, 0.0 ] } },
{ "type": "Feature", "properties": { "FID": 20, "TEXTSTRING": "L-006", "TEXT_SIZE": 100.0, "TEXT_ANGLE": 90.0 }, "geometry": { "type": "Point", "coordinates": [ 111.937465582852738, -7.215978364002092, 0.0 ] } },
{ "type": "Feature", "properties": { "FID": 21, "TEXTSTRING": "L-005", "TEXT_SIZE": 100.0, "TEXT_ANGLE": 0.0 }, "geometry": { "type": "Point", "coordinates": [ 111.869524227992187, -7.297134053777619, 0.0 ] } },
{ "type": "Feature", "properties": { "FID": 22, "TEXTSTRING": "L-004", "TEXT_SIZE": 100.0, "TEXT_ANGLE": 90.0 }, "geometry": { "type": "Point", "coordinates": [ 111.928407854494552, -7.215544630363636, 0.0 ] } },
{ "type": "Feature", "properties": { "FID": 23, "TEXTSTRING": "L-003", "TEXT_SIZE": 100.0, "TEXT_ANGLE": 0.0 }, "geometry": { "type": "Point", "coordinates": [ 111.86954170169291, -7.306178851568428, 0.0 ] } },
{ "type": "Feature", "properties": { "FID": 24, "TEXTSTRING": "L-002", "TEXT_SIZE": 100.0, "TEXT_ANGLE": 90.0 }, "geometry": { "type": "Point", "coordinates": [ 111.919360163387154, -7.220085304038612, 0.0 ] } },
{ "type": "Feature", "properties": { "FID": 25, "TEXTSTRING": "L-001", "TEXT_SIZE": 100.0, "TEXT_ANGLE": 0.0 }, "geometry": { "type": "Point", "coordinates": [ 111.875900458724516, -7.31521136532075, 0.0 ] } },
{ "type": "Feature", "properties": { "FID": 26, "TEXTSTRING": "L-024", "TEXT_SIZE": 99.999999999999986, "TEXT_ANGLE": 69.995 }, "geometry": { "type": "Point", "coordinates": [ 111.816493106998806, -7.266710561347368, 0.0 ] } },
{ "type": "Feature", "properties": { "FID": 27, "TEXTSTRING": "L-022", "TEXT_SIZE": 99.999999999999986, "TEXT_ANGLE": 69.995 }, "geometry": { "type": "Point", "coordinates": [ 111.809825264322711, -7.258529570584639, 0.0 ] } },
{ "type": "Feature", "properties": { "FID": 28, "TEXTSTRING": "L-020", "TEXT_SIZE": 99.999999999999986, "TEXT_ANGLE": 69.995 }, "geometry": { "type": "Point", "coordinates": [ 111.805161408594003, -7.24482022354839, 0.0 ] } },
{ "type": "Feature", "properties": { "FID": 29, "TEXTSTRING": "L-018", "TEXT_SIZE": 99.999999999999986, "TEXT_ANGLE": 69.995 }, "geometry": { "type": "Point", "coordinates": [ 111.796798597333122, -7.24131643565412, 0.0 ] } },
{ "type": "Feature", "properties": { "FID": 30, "TEXTSTRING": "L-016", "TEXT_SIZE": 99.999999999999986, "TEXT_ANGLE": 69.995 }, "geometry": { "type": "Point", "coordinates": [ 111.786740269981109, -7.242489888544354, 0.0 ] } },
{ "type": "Feature", "properties": { "FID": 31, "TEXTSTRING": "L-014", "TEXT_SIZE": 99.999999999999986, "TEXT_ANGLE": 69.995 }, "geometry": { "type": "Point", "coordinates": [ 111.774986094284898, -7.24834050403662, 0.0 ] } },
{ "type": "Feature", "properties": { "FID": 32, "TEXTSTRING": "L-013", "TEXT_SIZE": 99.999999999999986, "TEXT_ANGLE": 340.00 }, "geometry": { "type": "Point", "coordinates": [ 111.661493038337412, -7.249322082147275, 0.0 ] } },
{ "type": "Feature", "properties": { "FID": 33, "TEXTSTRING": "L-012", "TEXT_SIZE": 99.999999999999986, "TEXT_ANGLE": 69.995 }, "geometry": { "type": "Point", "coordinates": [ 111.766623388446973, -7.244836143832564, 0.0 ] } },
{ "type": "Feature", "properties": { "FID": 34, "TEXTSTRING": "L-011", "TEXT_SIZE": 99.999999999999986, "TEXT_ANGLE": 340.00 }, "geometry": { "type": "Point", "coordinates": [ 111.658407527273127, -7.257826413422944, 0.0 ] } },
{ "type": "Feature", "properties": { "FID": 35, "TEXTSTRING": "L-010", "TEXT_SIZE": 99.999999999999986, "TEXT_ANGLE": 69.995 }, "geometry": { "type": "Point", "coordinates": [ 111.757952444296322, -7.242182368654881, 0.0 ] } },
{ "type": "Feature", "properties": { "FID": 36, "TEXTSTRING": "L-009", "TEXT_SIZE": 99.999999999999986, "TEXT_ANGLE": 340.00 }, "geometry": { "type": "Point", "coordinates": [ 111.655321912827546, -7.266330731004003, 0.0 ] } },
{ "type": "Feature", "properties": { "FID": 37, "TEXTSTRING": "L-008", "TEXT_SIZE": 99.999999999999986, "TEXT_ANGLE": 69.995 }, "geometry": { "type": "Point", "coordinates": [ 111.751286880124979, -7.234000357047034, 0.0 ] } },
{ "type": "Feature", "properties": { "FID": 38, "TEXTSTRING": "L-007", "TEXT_SIZE": 99.999999999999986, "TEXT_ANGLE": 340.00 }, "geometry": { "type": "Point", "coordinates": [ 111.652236194801063, -7.274835034812259, 0.0 ] } },
{ "type": "Feature", "properties": { "FID": 39, "TEXTSTRING": "L-006", "TEXT_SIZE": 99.999999999999986, "TEXT_ANGLE": 69.995 }, "geometry": { "type": "Point", "coordinates": [ 111.740611717947772, -7.236873384337253, 0.0 ] } },
{ "type": "Feature", "properties": { "FID": 40, "TEXTSTRING": "L-005", "TEXT_SIZE": 99.999999999999986, "TEXT_ANGLE": 340.00 }, "geometry": { "type": "Point", "coordinates": [ 111.649150372994001, -7.283339324769568, 0.0 ] } },
{ "type": "Feature", "properties": { "FID": 41, "TEXTSTRING": "L-004", "TEXT_SIZE": 99.999999999999986, "TEXT_ANGLE": 69.995 }, "geometry": { "type": "Point", "coordinates": [ 111.731632629894762, -7.235069821398391, 0.0 ] } },
{ "type": "Feature", "properties": { "FID": 42, "TEXTSTRING": "L-003", "TEXT_SIZE": 99.999999999999986, "TEXT_ANGLE": 340.00 }, "geometry": { "type": "Point", "coordinates": [ 111.646063541311491, -7.291843602092388, 0.0 ] } },
{ "type": "Feature", "properties": { "FID": 43, "TEXTSTRING": "L-002", "TEXT_SIZE": 99.999999999999986, "TEXT_ANGLE": 69.995 }, "geometry": { "type": "Point", "coordinates": [ 111.722653594628383, -7.233265169650911, 0.0 ] } },
{ "type": "Feature", "properties": { "FID": 44, "TEXTSTRING": "L-001", "TEXT_SIZE": 99.999999999999986, "TEXT_ANGLE": 340.00 }, "geometry": { "type": "Point", "coordinates": [ 111.642977511326592, -7.300347864108627, 0.0 ] } },
{ "type": "Feature", "properties": { "FID": 46, "TEXTSTRING": "L-044", "TEXT_SIZE": 175.0, "TEXT_ANGLE": 90.0 }, "geometry": { "type": "Point", "coordinates": [ 112.369746783671943, -7.010507948993793, 0.0 ] } },
{ "type": "Feature", "properties": { "FID": 47, "TEXTSTRING": "L-042", "TEXT_SIZE": 175.0, "TEXT_ANGLE": 90.0 }, "geometry": { "type": "Point", "coordinates": [ 112.360670105859398, -7.001943030200108, 0.0 ] } },
{ "type": "Feature", "properties": { "FID": 48, "TEXTSTRING": "L-040", "TEXT_SIZE": 175.0, "TEXT_ANGLE": 90.0 }, "geometry": { "type": "Point", "coordinates": [ 112.351591155719234, -6.992473525851516, 0.0 ] } },
{ "type": "Feature", "properties": { "FID": 49, "TEXTSTRING": "L-038", "TEXT_SIZE": 175.0, "TEXT_ANGLE": 90.0 }, "geometry": { "type": "Point", "coordinates": [ 112.342540032618373, -6.992499414673781, 0.0 ] } },
{ "type": "Feature", "properties": { "FID": 50, "TEXTSTRING": "L-036", "TEXT_SIZE": 175.0, "TEXT_ANGLE": 90.0 }, "geometry": { "type": "Point", "coordinates": [ 112.333488875292062, -6.992525129670569, 0.0 ] } },
{ "type": "Feature", "properties": { "FID": 51, "TEXTSTRING": "L-034", "TEXT_SIZE": 175.0, "TEXT_ANGLE": 90.0 }, "geometry": { "type": "Point", "coordinates": [ 112.324437593458796, -6.992550671093229, 0.0 ] } },
{ "type": "Feature", "properties": { "FID": 52, "TEXTSTRING": "L-032", "TEXT_SIZE": 175.0, "TEXT_ANGLE": 90.0 }, "geometry": { "type": "Point", "coordinates": [ 112.315386368372941, -6.992576038427766, 0.0 ] } },
{ "type": "Feature", "properties": { "FID": 53, "TEXTSTRING": "L-030", "TEXT_SIZE": 175.0, "TEXT_ANGLE": 90.0 }, "geometry": { "type": "Point", "coordinates": [ 112.306324880238748, -6.988983791830845, 0.0 ] } },
{ "type": "Feature", "properties": { "FID": 54, "TEXTSTRING": "L-028", "TEXT_SIZE": 175.0, "TEXT_ANGLE": 90.0 }, "geometry": { "type": "Point", "coordinates": [ 112.297269826650862, -6.987652253399173, 0.0 ] } },
{ "type": "Feature", "properties": { "FID": 55, "TEXTSTRING": "L-026", "TEXT_SIZE": 175.0, "TEXT_ANGLE": 90.0 }, "geometry": { "type": "Point", "coordinates": [ 112.288213555089499, -6.985868347977652, 0.0 ] } },
{ "type": "Feature", "properties": { "FID": 56, "TEXTSTRING": "L-025", "TEXT_SIZE": 175.0, "TEXT_ANGLE": 0.0 }, "geometry": { "type": "Point", "coordinates": [ 112.129074318545904, -7.047946804680022, 0.0 ] } },
{ "type": "Feature", "properties": { "FID": 57, "TEXTSTRING": "L-024", "TEXT_SIZE": 175.0, "TEXT_ANGLE": 90.0 }, "geometry": { "type": "Point", "coordinates": [ 112.27912985628069, -6.97413618325477, 0.0 ] } },
{ "type": "Feature", "properties": { "FID": 58, "TEXTSTRING": "L-023", "TEXT_SIZE": 175.0, "TEXT_ANGLE": 0.0 }, "geometry": { "type": "Point", "coordinates": [ 112.108965213343424, -7.057039243756016, 0.0 ] } },
{ "type": "Feature", "properties": { "FID": 59, "TEXTSTRING": "L-022", "TEXT_SIZE": 175.0, "TEXT_ANGLE": 90.0 }, "geometry": { "type": "Point", "coordinates": [ 112.270092408997243, -6.979134670323258, 0.0 ] } },
{ "type": "Feature", "properties": { "FID": 60, "TEXTSTRING": "L-021", "TEXT_SIZE": 175.0, "TEXT_ANGLE": 0.0 }, "geometry": { "type": "Point", "coordinates": [ 112.109439425856038, -7.066082401943174, 0.0 ] } },
{ "type": "Feature", "properties": { "FID": 61, "TEXTSTRING": "L-020", "TEXT_SIZE": 175.0, "TEXT_ANGLE": 90.0 }, "geometry": { "type": "Point", "coordinates": [ 112.261054748120628, -6.984133017876355, 0.0 ] } },
{ "type": "Feature", "properties": { "FID": 62, "TEXTSTRING": "L-019", "TEXT_SIZE": 175.0, "TEXT_ANGLE": 0.0 }, "geometry": { "type": "Point", "coordinates": [ 112.110366360766449, -7.075124473997832, 0.0 ] } },
{ "type": "Feature", "properties": { "FID": 63, "TEXTSTRING": "L-018", "TEXT_SIZE": 175.0, "TEXT_ANGLE": 90.0 }, "geometry": { "type": "Point", "coordinates": [ 112.252002255696468, -6.98370494849123, 0.0 ] } },
{ "type": "Feature", "properties": { "FID": 64, "TEXTSTRING": "L-017", "TEXT_SIZE": 175.0, "TEXT_ANGLE": 0.0 }, "geometry": { "type": "Point", "coordinates": [ 112.119182884734911, -7.084147613669953, 0.0 ] } },
{ "type": "Feature", "properties": { "FID": 65, "TEXTSTRING": "L-016", "TEXT_SIZE": 175.0, "TEXT_ANGLE": 90.0 }, "geometry": { "type": "Point", "coordinates": [ 112.242967846232702, -6.990059572169723, 0.0 ] } },
{ "type": "Feature", "properties": { "FID": 66, "TEXTSTRING": "L-015", "TEXT_SIZE": 175.0, "TEXT_ANGLE": 0.0 }, "geometry": { "type": "Point", "coordinates": [ 112.124291695313318, -7.093179520172638, 0.0 ] } },
{ "type": "Feature", "properties": { "FID": 67, "TEXTSTRING": "L-014", "TEXT_SIZE": 175.0, "TEXT_ANGLE": 90.0 }, "geometry": { "type": "Point", "coordinates": [ 112.23391993915935, -6.991439944034596, 0.0 ] } },
{ "type": "Feature", "properties": { "FID": 68, "TEXTSTRING": "L-013", "TEXT_SIZE": 175.0, "TEXT_ANGLE": 0.0 }, "geometry": { "type": "Point", "coordinates": [ 112.121080272767188, -7.102231519953231, 0.0 ] } },
{ "type": "Feature", "properties": { "FID": 69, "TEXTSTRING": "L-012", "TEXT_SIZE": 175.0, "TEXT_ANGLE": 90.0 }, "geometry": { "type": "Point", "coordinates": [ 112.224868415210466, -6.991463568246163, 0.0 ] } },
{ "type": "Feature", "properties": { "FID": 70, "TEXTSTRING": "L-011", "TEXT_SIZE": 175.0, "TEXT_ANGLE": 0.0 }, "geometry": { "type": "Point", "coordinates": [ 112.111120874829197, -7.111299747041217, 0.0 ] } },
{ "type": "Feature", "properties": { "FID": 71, "TEXTSTRING": "L-010", "TEXT_SIZE": 175.0, "TEXT_ANGLE": 90.0 }, "geometry": { "type": "Point", "coordinates": [ 112.215809665428637, -6.988773843596488, 0.0 ] } },
{ "type": "Feature", "properties": { "FID": 72, "TEXTSTRING": "L-009", "TEXT_SIZE": 175.0, "TEXT_ANGLE": 0.0 }, "geometry": { "type": "Point", "coordinates": [ 112.110689908218077, -7.120345041562385, 0.0 ] } },
{ "type": "Feature", "properties": { "FID": 73, "TEXTSTRING": "L-008", "TEXT_SIZE": 175.0, "TEXT_ANGLE": 90.0 }, "geometry": { "type": "Point", "coordinates": [ 112.206765183345453, -6.991510295404535, 0.0 ] } },
{ "type": "Feature", "properties": { "FID": 74, "TEXTSTRING": "L-007", "TEXT_SIZE": 175.0, "TEXT_ANGLE": 0.0 }, "geometry": { "type": "Point", "coordinates": [ 112.112069870090295, -7.129385980521311, 0.0 ] } },
{ "type": "Feature", "properties": { "FID": 75, "TEXTSTRING": "L-006", "TEXT_SIZE": 175.0, "TEXT_ANGLE": 90.0 }, "geometry": { "type": "Point", "coordinates": [ 112.19770886944778, -6.989724602598585, 0.0 ] } },
{ "type": "Feature", "properties": { "FID": 76, "TEXTSTRING": "L-005", "TEXT_SIZE": 175.0, "TEXT_ANGLE": 0.0 }, "geometry": { "type": "Point", "coordinates": [ 112.118732827323427, -7.138414128694998, 0.0 ] } },
{ "type": "Feature", "properties": { "FID": 77, "TEXTSTRING": "L-004", "TEXT_SIZE": 175.0, "TEXT_ANGLE": 90.0 }, "geometry": { "type": "Point", "coordinates": [ 112.188661828415022, -6.991556327207764, 0.0 ] } },
{ "type": "Feature", "properties": { "FID": 78, "TEXTSTRING": "L-003", "TEXT_SIZE": 175.0, "TEXT_ANGLE": 0.0 }, "geometry": { "type": "Point", "coordinates": [ 112.121018544167839, -7.147452802693682, 0.0 ] } },
{ "type": "Feature", "properties": { "FID": 79, "TEXTSTRING": "L-002", "TEXT_SIZE": 175.0, "TEXT_ANGLE": 90.0 }, "geometry": { "type": "Point", "coordinates": [ 112.179634260421636, -7.001075319525826, 0.0 ] } },
{ "type": "Feature", "properties": { "FID": 80, "TEXTSTRING": "L-001", "TEXT_SIZE": 175.0, "TEXT_ANGLE": 0.0 }, "geometry": { "type": "Point", "coordinates": [ 112.121040604625094, -7.15649696549445, 0.0 ] } }
]
}
